{
"type": "FeatureCollection",
"name": "Final sites along the river",
"crs": { "type": "name", "properties": { "name": "urn:ogc:def:crs:OGC:1.3:CRS84" } },
"features": [
{ "type": "Feature", "properties": { "OBJECTID_1": 271, "Join_Count": 1, "TARGET_FID": 271, "Lattitude": 33.022916666299999, "Longitude": 71.718750000200004, "Priority": 1.0, "ADM3_EN": "Isakhel", "ADM2_EN": "Mianwali", "ADM1_EN": "Punjab", "ADM0_EN": "Pakistan" }, "geometry": { "type": "Point", "coordinates": [ 71.718750000212424, 33.022916666271158, -0.000041442866291 ] } },
{ "type": "Feature", "properties": { "OBJECTID_1": 272, "Join_Count": 1, "TARGET_FID": 272, "Lattitude": 32.922916666500001, "Longitude": 71.531249999699995, "Priority": 1.0, "ADM3_EN": "Isakhel", "ADM2_EN": "Mianwali", "ADM1_EN": "Punjab", "ADM0_EN": "Pakistan" }, "geometry": { "type": "Point", "coordinates": [ 71.531249999687816, 32.922916666471053, -0.000041442866291 ] } },
{ "type": "Feature", "properties": { "OBJECTID_1": 273, "Join_Count": 1, "TARGET_FID": 273, "Lattitude": 32.7088321775, "Longitude": 74.485063124700005, "Priority": 1.0, "ADM3_EN": "Sialkot", "ADM2_EN": "Sialkot", "ADM1_EN": "Punjab", "ADM0_EN": "Pakistan" }, "geometry": { "type": "Point", "coordinates": [ 74.485063124663554, 32.70883217746308, -0.000041442866291 ] } },
{ "type": "Feature", "properties": { "OBJECTID_1": 274, "Join_Count": 1, "TARGET_FID": 274, "Lattitude": 32.463913172200002, "Longitude": 74.072201630400002, "Priority": 1.0, "ADM3_EN": "Wazirabad", "ADM2_EN": "Gujranwala", "ADM1_EN": "Punjab", "ADM0_EN": "Pakistan" }, "geometry": { "type": "Point", "coordinates": [ 74.072201630400968, 32.46391317215523, -0.000041442866291 ] } },
{ "type": "Feature", "properties": { "OBJECTID_1": 275, "Join_Count": 1, "TARGET_FID": 275, "Lattitude": 32.377987720699998, "Longitude": 72.513337105999994, "Priority": 1.0, "ADM3_EN": "Khushab", "ADM2_EN": "Khushab", "ADM1_EN": "Punjab", "ADM0_EN": "Pakistan" }, "geometry": { "type": "Point", "coordinates": [ 72.513337106022675, 32.377987720656847, -0.000041442866291 ] } },
{ "type": "Feature", "properties": { "OBJECTID_1": 276, "Join_Count": 1, "TARGET_FID": 276, "Lattitude": 32.444904836100001, "Longitude": 74.006424885000001, "Priority": 1.0, "ADM3_EN": "Gujrat", "ADM2_EN": "Gujrat", "ADM1_EN": "Punjab", "ADM0_EN": "Pakistan" }, "geometry": { "type": "Point", "coordinates": [ 74.006424885000513, 32.444904836089393, -0.000041442866291 ] } },
{ "type": "Feature", "properties": { "OBJECTID_1": 277, "Join_Count": 1, "TARGET_FID": 277, "Lattitude": 32.322709605999997, "Longitude": 72.465863201000005, "Priority": 1.0, "ADM3_EN": "Khushab", "ADM2_EN": "Khushab", "ADM1_EN": "Punjab", "ADM0_EN": "Pakistan" }, "geometry": { "type": "Point", "coordinates": [ 72.465863201025968, 32.32270960596361, -0.000041442866291 ] } },
{ "type": "Feature", "properties": { "OBJECTID_1": 278, "Join_Count": 1, "TARGET_FID": 278, "Lattitude": 32.326539975000003, "Longitude": 73.710176541500005, "Priority": 1.0, "ADM3_EN": "Wazirabad", "ADM2_EN": "Gujranwala", "ADM1_EN": "Punjab", "ADM0_EN": "Pakistan" }, "geometry": { "type": "Point", "coordinates": [ 73.710176541514215, 32.32653997503985, -0.000041442866291 ] } },
{ "type": "Feature", "properties": { "OBJECTID_1": 279, "Join_Count": 1, "TARGET_FID": 279, "Lattitude": 32.208685007100001, "Longitude": 73.425843831099996, "Priority": 1.0, "ADM3_EN": "Phalia", "ADM2_EN": "Mandi Bahauddin", "ADM1_EN": "Punjab", "ADM0_EN": "Pakistan" }, "geometry": { "type": "Point", "coordinates": [ 73.425843831127963, 32.20868500710742, -0.000041442866291 ] } },
{ "type": "Feature", "properties": { "OBJECTID_1": 280, "Join_Count": 1, "TARGET_FID": 280, "Lattitude": 31.977972777400002, "Longitude": 71.047339886499998, "Priority": 1.0, "ADM3_EN": "Paharpur", "ADM2_EN": "D. I. Khan", "ADM1_EN": "Khyber Pakhtunkhwa", "ADM0_EN": "Pakistan" }, "geometry": { "type": "Point", "coordinates": [ 71.047339886526572, 31.977972777421769, -0.000041442866291 ] } },
{ "type": "Feature", "properties": { "OBJECTID_1": 281, "Join_Count": 1, "TARGET_FID": 281, "Lattitude": 31.926729149100002, "Longitude": 72.234691750500005, "Priority": 1.0, "ADM3_EN": "Noorpur", "ADM2_EN": "Khushab", "ADM1_EN": "Punjab", "ADM0_EN": "Pakistan" }, "geometry": { "type": "Point", "coordinates": [ 72.23469175052395, 31.926729149131006, -0.000041442866291 ] } },
{ "type": "Feature", "properties": { "OBJECTID_1": 282, "Join_Count": 1, "TARGET_FID": 282, "Lattitude": 31.792800728700001, "Longitude": 73.006168909400003, "Priority": 1.0, "ADM3_EN": "Chiniot", "ADM2_EN": "Chiniot", "ADM1_EN": "Punjab", "ADM0_EN": "Pakistan" }, "geometry": { "type": "Point", "coordinates": [ 73.006168909367716, 31.792800728670727, -0.000041442866291 ] } },
{ "type": "Feature", "properties": { "OBJECTID_1": 283, "Join_Count": 1, "TARGET_FID": 283, "Lattitude": 31.310483988400001, "Longitude": 70.729857786899998, "Priority": 1.0, "ADM3_EN": "Taunsa", "ADM2_EN": "Dera Ghazi Khan", "ADM1_EN": "Punjab", "ADM0_EN": "Pakistan" }, "geometry": { "type": "Point", "coordinates": [ 70.729857786907417, 31.310483988445355, -0.000041442866291 ] } },
{ "type": "Feature", "properties": { "OBJECTID_1": 284, "Join_Count": 1, "TARGET_FID": 284, "Lattitude": 31.229068253000001, "Longitude": 72.220919993199999, "Priority": 1.0, "ADM3_EN": "Jhang", "ADM2_EN": "Jhang", "ADM1_EN": "Punjab", "ADM0_EN": "Pakistan" }, "geometry": { "type": "Point", "coordinates": [ 72.220919993163193, 31.229068252997536, -0.000041442866291 ] } },
{ "type": "Feature", "properties": { "OBJECTID_1": 285, "Join_Count": 1, "TARGET_FID": 285, "Lattitude": 31.168002598000001, "Longitude": 72.139332700300002, "Priority": 1.0, "ADM3_EN": "Athara Hazari", "ADM2_EN": "Jhang", "ADM1_EN": "Punjab", "ADM0_EN": "Pakistan" }, "geometry": { "type": "Point", "coordinates": [ 72.139332700343914, 31.168002598041539, -0.000041442866291 ] } },
{ "type": "Feature", "properties": { "OBJECTID_1": 286, "Join_Count": 1, "TARGET_FID": 286, "Lattitude": 31.197916666299999, "Longitude": 73.727083333699994, "Priority": 1.0, "ADM3_EN": "Nankana Sahib", "ADM2_EN": "Nankana Sahib", "ADM1_EN": "Punjab", "ADM0_EN": "Pakistan" }, "geometry": { "type": "Point", "coordinates": [ 73.727083333728899, 31.197916666321134, -0.000041442866291 ] } },
{ "type": "Feature", "properties": { "OBJECTID_1": 287, "Join_Count": 1, "TARGET_FID": 287, "Lattitude": 31.118750000399999, "Longitude": 73.518750000200001, "Priority": 1.0, "ADM3_EN": "Nankana Sahib", "ADM2_EN": "Nankana Sahib", "ADM1_EN": "Punjab", "ADM0_EN": "Pakistan" }, "geometry": { "type": "Point", "coordinates": [ 73.518750000212378, 31.118750000412263, -0.000041442866291 ] } },
{ "type": "Feature", "properties": { "OBJECTID_1": 288, "Join_Count": 1, "TARGET_FID": 288, "Lattitude": 30.6881796509, "Longitude": 70.798604149499994, "Priority": 1.0, "ADM3_EN": "Leiah", "ADM2_EN": "Leiah", "ADM1_EN": "Punjab", "ADM0_EN": "Pakistan" }, "geometry": { "type": "Point", "coordinates": [ 70.798604149461994, 30.688179650870268, -0.000041442866291 ] } },
{ "type": "Feature", "properties": { "OBJECTID_1": 289, "Join_Count": 1, "TARGET_FID": 289, "Lattitude": 30.779896811899999, "Longitude": 73.004194359699994, "Priority": 1.0, "ADM3_EN": "Sahiwal", "ADM2_EN": "Sahiwal", "ADM1_EN": "Punjab", "ADM0_EN": "Pakistan" }, "geometry": { "type": "Point", "coordinates": [ 73.004194359682003, 30.77989681188842, -0.000041442866291 ] } },
{ "type": "Feature", "properties": { "OBJECTID_1": 290, "Join_Count": 1, "TARGET_FID": 290, "Lattitude": 30.6270833335, "Longitude": 71.822916667000001, "Priority": 1.0, "ADM3_EN": "Kabirwala", "ADM2_EN": "Khanewal", "ADM1_EN": "Punjab", "ADM0_EN": "Pakistan" }, "geometry": { "type": "Point", "coordinates": [ 71.822916666970684, 30.627083333529072, -0.000041442866291 ] } },
{ "type": "Feature", "properties": { "OBJECTID_1": 291, "Join_Count": 1, "TARGET_FID": 291, "Lattitude": 30.648033834700001, "Longitude": 72.746406215999997, "Priority": 1.0, "ADM3_EN": "Kamalia", "ADM2_EN": "Toba Tek Singh", "ADM1_EN": "Punjab", "ADM0_EN": "Pakistan" }, "geometry": { "type": "Point", "coordinates": [ 72.746406215974162, 30.648033834693763, -0.000041442866291 ] } },
{ "type": "Feature", "properties": { "OBJECTID_1": 292, "Join_Count": 1, "TARGET_FID": 292, "Lattitude": 30.5702905851, "Longitude": 72.200884045899997, "Priority": 1.0, "ADM3_EN": "Kamalia", "ADM2_EN": "Toba Tek Singh", "ADM1_EN": "Punjab", "ADM0_EN": "Pakistan" }, "geometry": { "type": "Point", "coordinates": [ 72.200884045862097, 30.570290585142459, -0.000041442866291 ] } },
{ "type": "Feature", "properties": { "OBJECTID_1": 293, "Join_Count": 1, "TARGET_FID": 293, "Lattitude": 30.2562500003, "Longitude": 71.377083333000002, "Priority": 1.0, "ADM3_EN": "Multan Saddar", "ADM2_EN": "Multan", "ADM1_EN": "Punjab", "ADM0_EN": "Pakistan" }, "geometry": { "type": "Point", "coordinates": [ 71.377083333029475, 30.256250000337275, -0.000041442866291 ] } },
{ "type": "Feature", "properties": { "OBJECTID_1": 294, "Join_Count": 1, "TARGET_FID": 294, "Lattitude": 30.327083333200001, "Longitude": 73.685416666799995, "Priority": 1.0, "ADM3_EN": "Depalpur", "ADM2_EN": "Okara", "ADM1_EN": "Punjab", "ADM0_EN": "Pakistan" }, "geometry": { "type": "Point", "coordinates": [ 73.685416666845754, 30.327083333229268, -0.000041442866291 ] } },
{ "type": "Feature", "properties": { "OBJECTID_1": 295, "Join_Count": 1, "TARGET_FID": 295, "Lattitude": 30.2503062595, "Longitude": 73.4152613153, "Priority": 1.0, "ADM3_EN": "Pakpattan", "ADM2_EN": "Pakpattan", "ADM1_EN": "Punjab", "ADM0_EN": "Pakistan" }, "geometry": { "type": "Point", "coordinates": [ 73.415261315257567, 30.250306259526326, -0.000041442866291 ] } },
{ "type": "Feature", "properties": { "OBJECTID_1": 296, "Join_Count": 1, "TARGET_FID": 296, "Lattitude": 30.035416964500001, "Longitude": 71.249867522499997, "Priority": 1.0, "ADM3_EN": "Muzaffargarh", "ADM2_EN": "Muzaffargarh", "ADM1_EN": "Punjab", "ADM0_EN": "Pakistan" }, "geometry": { "type": "Point", "coordinates": [ 71.249867522468264, 30.035416964521346, -0.000041442866291 ] } },
{ "type": "Feature", "properties": { "OBJECTID_1": 297, "Join_Count": 1, "TARGET_FID": 297, "Lattitude": 29.9518034128, "Longitude": 71.220894353700004, "Priority": 1.0, "ADM3_EN": "Shujabad", "ADM2_EN": "Multan", "ADM1_EN": "Punjab", "ADM0_EN": "Pakistan" }, "geometry": { "type": "Point", "coordinates": [ 71.220894353691506, 29.95180341279729, -0.000041442866291 ] } },
{ "type": "Feature", "properties": { "OBJECTID_1": 298, "Join_Count": 1, "TARGET_FID": 298, "Lattitude": 29.953460341700001, "Longitude": 72.804507111000007, "Priority": 1.0, "ADM3_EN": "Chishtian", "ADM2_EN": "Bahawalnagar", "ADM1_EN": "Punjab", "ADM0_EN": "Pakistan" }, "geometry": { "type": "Point", "coordinates": [ 72.804507111014402, 29.953460341721438, -0.000041442866291 ] } },
{ "type": "Feature", "properties": { "OBJECTID_1": 299, "Join_Count": 1, "TARGET_FID": 299, "Lattitude": 29.835416666299999, "Longitude": 72.585416666300006, "Priority": 1.0, "ADM3_EN": "Chishtian", "ADM2_EN": "Bahawalnagar", "ADM1_EN": "Punjab", "ADM0_EN": "Pakistan" }, "geometry": { "type": "Point", "coordinates": [ 72.585416666346134, 29.835416666346134, -0.000041442866291 ] } },
{ "type": "Feature", "properties": { "OBJECTID_1": 300, "Join_Count": 1, "TARGET_FID": 300, "Lattitude": 29.459819296900001, "Longitude": 71.759941429400001, "Priority": 1.0, "ADM3_EN": "Bahawalpur", "ADM2_EN": "Bahawalpur", "ADM1_EN": "Punjab", "ADM0_EN": "Pakistan" }, "geometry": { "type": "Point", "coordinates": [ 71.759941429353546, 29.459819296923058, -0.000041442866291 ] } },
{ "type": "Feature", "properties": { "OBJECTID_1": 301, "Join_Count": 1, "TARGET_FID": 301, "Lattitude": 29.383509715100001, "Longitude": 71.039054046700002, "Priority": 1.0, "ADM3_EN": "Ahmadpur East", "ADM2_EN": "Bahawalpur", "ADM1_EN": "Punjab", "ADM0_EN": "Pakistan" }, "geometry": { "type": "Point", "coordinates": [ 71.039054046706951, 29.383509715101297, -0.000041442866291 ] } },
{ "type": "Feature", "properties": { "OBJECTID_1": 302, "Join_Count": 1, "TARGET_FID": 302, "Lattitude": 29.1914438646, "Longitude": 70.824549942100006, "Priority": 1.0, "ADM3_EN": "Liaqatpur", "ADM2_EN": "Rahim Yar Khan", "ADM1_EN": "Punjab", "ADM0_EN": "Pakistan" }, "geometry": { "type": "Point", "coordinates": [ 70.824549942126168, 29.191443864642679, -0.000041442866291 ] } },
{ "type": "Feature", "properties": { "OBJECTID_1": 303, "Join_Count": 1, "TARGET_FID": 303, "Lattitude": 28.997916666199998, "Longitude": 70.581249999799994, "Priority": 1.0, "ADM3_EN": "Khanpur", "ADM2_EN": "Rahim Yar Khan", "ADM1_EN": "Punjab", "ADM0_EN": "Pakistan" }, "geometry": { "type": "Point", "coordinates": [ 70.581249999787701, 28.997916666221215, -0.000041442866291 ] } },
{ "type": "Feature", "properties": { "OBJECTID_1": 304, "Join_Count": 1, "TARGET_FID": 304, "Lattitude": 28.634533510200001, "Longitude": 70.0358937285, "Priority": 1.0, "ADM3_EN": "Rojhan", "ADM2_EN": "Rajanpur", "ADM1_EN": "Punjab", "ADM0_EN": "Pakistan" }, "geometry": { "type": "Point", "coordinates": [ 70.035893728512804, 28.634533510213373, -0.000041442866291 ] } },
{ "type": "Feature", "properties": { "OBJECTID_1": 1, "Join_Count": 1, "TARGET_FID": 1, "Lattitude": 30.431526825700001, "Longitude": 73.9110821692, "Priority": 2.0, "ADM3_EN": "Depalpur", "ADM2_EN": "Okara", "ADM1_EN": "Punjab", "ADM0_EN": "Pakistan" }, "geometry": { "type": "Point", "coordinates": [ 73.911082169206793, 30.43152682570252, 204.856658557133755 ] } },
{ "type": "Feature", "properties": { "OBJECTID_1": 2, "Join_Count": 1, "TARGET_FID": 2, "Lattitude": 24.511462864599999, "Longitude": 67.9348561093, "Priority": 2.0, "ADM3_EN": "Ghorabari", "ADM2_EN": "Thatta", "ADM1_EN": "Sindh", "ADM0_EN": "Pakistan" }, "geometry": { "type": "Point", "coordinates": [ 67.934856109322027, 24.511462864619546, 6.993558557133724 ] } },
{ "type": "Feature", "properties": { "OBJECTID_1": 3, "Join_Count": 1, "TARGET_FID": 3, "Lattitude": 24.738215668, "Longitude": 67.993708042600005, "Priority": 2.0, "ADM3_EN": "Thatta", "ADM2_EN": "Thatta", "ADM1_EN": "Sindh", "ADM0_EN": "Pakistan" }, "geometry": { "type": "Point", "coordinates": [ 67.993708042592175, 24.738215668018711, 11.487358557133803 ] } },
{ "type": "Feature", "properties": { "OBJECTID_1": 4, "Join_Count": 1, "TARGET_FID": 4, "Lattitude": 24.764044543400001, "Longitude": 68.062669235200005, "Priority": 2.0, "ADM3_EN": "Sujawal", "ADM2_EN": "Sujawal", "ADM1_EN": "Sindh", "ADM0_EN": "Pakistan" }, "geometry": { "type": "Point", "coordinates": [ 68.06266923519712, 24.764044543420994, 6.987158557133739 ] } },
{ "type": "Feature", "properties": { "OBJECTID_1": 5, "Join_Count": 1, "TARGET_FID": 5, "Lattitude": 24.797830782199998, "Longitude": 68.020657050599993, "Priority": 2.0, "ADM3_EN": "Thatta", "ADM2_EN": "Thatta", "ADM1_EN": "Sindh", "ADM0_EN": "Pakistan" }, "geometry": { "type": "Point", "coordinates": [ 68.020657050582486, 24.797830782164908, 10.215558557133704 ] } },
{ "type": "Feature", "properties": { "OBJECTID_1": 6, "Join_Count": 1, "TARGET_FID": 6, "Lattitude": 24.953206831900001, "Longitude": 68.221685551700006, "Priority": 2.0, "ADM3_EN": "Mirpur Bathoro", "ADM2_EN": "Sujawal", "ADM1_EN": "Sindh", "ADM0_EN": "Pakistan" }, "geometry": { "type": "Point", "coordinates": [ 68.221685551746873, 24.953206831929776, 18.619658557133789 ] } },
{ "type": "Feature", "properties": { "OBJECTID_1": 7, "Join_Count": 1, "TARGET_FID": 7, "Lattitude": 25.1349868412, "Longitude": 68.324460934000001, "Priority": 2.0, "ADM3_EN": "Thatta", "ADM2_EN": "Thatta", "ADM1_EN": "Sindh", "ADM0_EN": "Pakistan" }, "geometry": { "type": "Point", "coordinates": [ 68.324460934024955, 25.134986841169848, 16.457158557133766 ] } },
{ "type": "Feature", "properties": { "OBJECTID_1": 8, "Join_Count": 1, "TARGET_FID": 8, "Lattitude": 28.591701541399999, "Longitude": 69.9895065778, "Priority": 2.0, "ADM3_EN": "Rojhan", "ADM2_EN": "Rajanpur", "ADM1_EN": "Punjab", "ADM0_EN": "Pakistan" }, "geometry": { "type": "Point", "coordinates": [ 69.989506577766406, 28.591701541393093, 86.363958557133742 ] } },
{ "type": "Feature", "properties": { "OBJECTID_1": 19, "Join_Count": 1, "TARGET_FID": 19, "Lattitude": 32.934579382300001, "Longitude": 71.517472155700005, "Priority": 2.0, "ADM3_EN": "Isakhel", "ADM2_EN": "Mianwali", "ADM1_EN": "Punjab", "ADM0_EN": "Pakistan" }, "geometry": { "type": "Point", "coordinates": [ 71.517472155715495, 32.934579382332686, -0.000041442866291 ] } },
{ "type": "Feature", "properties": { "OBJECTID_1": 26, "Join_Count": 1, "TARGET_FID": 26, "Lattitude": 31.7837952199, "Longitude": 73.010763400900004, "Priority": 2.0, "ADM3_EN": "Chiniot", "ADM2_EN": "Chiniot", "ADM1_EN": "Punjab", "ADM0_EN": "Pakistan" }, "geometry": { "type": "Point", "coordinates": [ 73.010763400910264, 31.783795219873525, -0.000041442866291 ] } },
{ "type": "Feature", "properties": { "OBJECTID_1": 28, "Join_Count": 1, "TARGET_FID": 28, "Lattitude": 30.710519218799998, "Longitude": 70.795474402599993, "Priority": 2.0, "ADM3_EN": "Leiah", "ADM2_EN": "Leiah", "ADM1_EN": "Punjab", "ADM0_EN": "Pakistan" }, "geometry": { "type": "Point", "coordinates": [ 70.795474402621664, 30.710519218786942, -0.000041442866291 ] } },
{ "type": "Feature", "properties": { "OBJECTID_1": 30, "Join_Count": 1, "TARGET_FID": 30, "Lattitude": 30.621430938, "Longitude": 71.838661572899994, "Priority": 2.0, "ADM3_EN": "Kabirwala", "ADM2_EN": "Khanewal", "ADM1_EN": "Punjab", "ADM0_EN": "Pakistan" }, "geometry": { "type": "Point", "coordinates": [ 71.83866157287332, 30.621430937987441, -0.000041442866291 ] } },
{ "type": "Feature", "properties": { "OBJECTID_1": 34, "Join_Count": 1, "TARGET_FID": 34, "Lattitude": 30.2405025718, "Longitude": 73.394604507500006, "Priority": 2.0, "ADM3_EN": "Pakpattan", "ADM2_EN": "Pakpattan", "ADM1_EN": "Punjab", "ADM0_EN": "Pakistan" }, "geometry": { "type": "Point", "coordinates": [ 73.39460450749209, 30.240502571836259, -0.000041442866291 ] } },
{ "type": "Feature", "properties": { "OBJECTID_1": 35, "Join_Count": 1, "TARGET_FID": 35, "Lattitude": 30.023786454300001, "Longitude": 71.245628667800005, "Priority": 2.0, "ADM3_EN": "Muzaffargarh", "ADM2_EN": "Muzaffargarh", "ADM1_EN": "Punjab", "ADM0_EN": "Pakistan" }, "geometry": { "type": "Point", "coordinates": [ 71.245628667828839, 30.023786454281492, -0.000041442866291 ] } },
{ "type": "Feature", "properties": { "OBJECTID_1": 36, "Join_Count": 1, "TARGET_FID": 36, "Lattitude": 29.9611889508, "Longitude": 71.225013081399993, "Priority": 2.0, "ADM3_EN": "Shujabad", "ADM2_EN": "Multan", "ADM1_EN": "Punjab", "ADM0_EN": "Pakistan" }, "geometry": { "type": "Point", "coordinates": [ 71.225013081388624, 29.961188950809458, -0.000041442866291 ] } },
{ "type": "Feature", "properties": { "OBJECTID_1": 41, "Join_Count": 1, "TARGET_FID": 41, "Lattitude": 28.966875625099998, "Longitude": 70.607369986600006, "Priority": 2.0, "ADM3_EN": "Liaqatpur", "ADM2_EN": "Rahim Yar Khan", "ADM1_EN": "Punjab", "ADM0_EN": "Pakistan" }, "geometry": { "type": "Point", "coordinates": [ 70.607369986635604, 28.966875625110049, -0.000041442866291 ] } },
{ "type": "Feature", "properties": { "OBJECTID_1": 42, "Join_Count": 1, "TARGET_FID": 42, "Lattitude": 28.629675099100002, "Longitude": 70.02638588000001, "Priority": 2.0, "ADM3_EN": "Rojhan", "ADM2_EN": "Rajanpur", "ADM1_EN": "Punjab", "ADM0_EN": "Pakistan" }, "geometry": { "type": "Point", "coordinates": [ 70.026385880004398, 28.629675099126587, -0.000041442866291 ] } },
{ "type": "Feature", "properties": { "OBJECTID_1": 80, "Join_Count": 1, "TARGET_FID": 80, "Lattitude": 33.915972933299997, "Longitude": 72.238232684500005, "Priority": 2.0, "ADM3_EN": "Lahor", "ADM2_EN": "Swabi", "ADM1_EN": "Khyber Pakhtunkhwa", "ADM0_EN": "Pakistan" }, "geometry": { "type": "Point", "coordinates": [ 72.238232684490868, 33.915972933304261, -0.000041442866291 ] } },
{ "type": "Feature", "properties": { "OBJECTID_1": 82, "Join_Count": 1, "TARGET_FID": 82, "Lattitude": 33.760416666600001, "Longitude": 72.243750000099993, "Priority": 2.0, "ADM3_EN": "Attock", "ADM2_EN": "Attock", "ADM1_EN": "Punjab", "ADM0_EN": "Pakistan" }, "geometry": { "type": "Point", "coordinates": [ 72.243750000062505, 33.760416666595916, -0.000041442866291 ] } },
{ "type": "Feature", "properties": { "OBJECTID_1": 84, "Join_Count": 1, "TARGET_FID": 84, "Lattitude": 33.664873710499997, "Longitude": 71.985523792099997, "Priority": 2.0, "ADM3_EN": "Jand", "ADM2_EN": "Attock", "ADM1_EN": "Punjab", "ADM0_EN": "Pakistan" }, "geometry": { "type": "Point", "coordinates": [ 71.985523792089396, 33.664873710453435, -0.000041442866291 ] } },
{ "type": "Feature", "properties": { "OBJECTID_1": 85, "Join_Count": 1, "TARGET_FID": 85, "Lattitude": 33.624510065899997, "Longitude": 71.975840941800001, "Priority": 2.0, "ADM3_EN": "Gumbat", "ADM2_EN": "Kohat", "ADM1_EN": "Khyber Pakhtunkhwa", "ADM0_EN": "Pakistan" }, "geometry": { "type": "Point", "coordinates": [ 71.975840941806098, 33.624510065886909, -0.000041442866291 ] } },
{ "type": "Feature", "properties": { "OBJECTID_1": 88, "Join_Count": 1, "TARGET_FID": 88, "Lattitude": 33.414402653300002, "Longitude": 71.868833470499993, "Priority": 2.0, "ADM3_EN": "Gumbat", "ADM2_EN": "Kohat", "ADM1_EN": "Khyber Pakhtunkhwa", "ADM0_EN": "Pakistan" }, "geometry": { "type": "Point", "coordinates": [ 71.868833470488312, 33.414402653259913, -0.000041442866291 ] } },
{ "type": "Feature", "properties": { "OBJECTID_1": 89, "Join_Count": 1, "TARGET_FID": 89, "Lattitude": 33.2798132518, "Longitude": 71.703446071499997, "Priority": 2.0, "ADM3_EN": "Lachi", "ADM2_EN": "Kohat", "ADM1_EN": "Khyber Pakhtunkhwa", "ADM0_EN": "Pakistan" }, "geometry": { "type": "Point", "coordinates": [ 71.70344607147905, 33.279813251780183, -0.000041442866291 ] } },
{ "type": "Feature", "properties": { "OBJECTID_1": 90, "Join_Count": 1, "TARGET_FID": 90, "Lattitude": 33.229879617400002, "Longitude": 71.732512842600002, "Priority": 2.0, "ADM3_EN": "Jand", "ADM2_EN": "Attock", "ADM1_EN": "Punjab", "ADM0_EN": "Pakistan" }, "geometry": { "type": "Point", "coordinates": [ 71.732512842593678, 33.229879617350491, -0.000041442866291 ] } },
{ "type": "Feature", "properties": { "OBJECTID_1": 94, "Join_Count": 1, "TARGET_FID": 94, "Lattitude": 33.100459818499999, "Longitude": 71.708749197299994, "Priority": 2.0, "ADM3_EN": "Lachi", "ADM2_EN": "Kohat", "ADM1_EN": "Khyber Pakhtunkhwa", "ADM0_EN": "Pakistan" }, "geometry": { "type": "Point", "coordinates": [ 71.708749197317672, 33.100459818465879, -0.000041442866291 ] } },
{ "type": "Feature", "properties": { "OBJECTID_1": 96, "Join_Count": 1, "TARGET_FID": 96, "Lattitude": 32.977591112100001, "Longitude": 73.775955441700006, "Priority": 2.0, "ADM3_EN": "Jhelum", "ADM2_EN": "Jhelum", "ADM1_EN": "Punjab", "ADM0_EN": "Pakistan" }, "geometry": { "type": "Point", "coordinates": [ 73.775955441690314, 32.977591112140146, -0.000041442866291 ] } },
{ "type": "Feature", "properties": { "OBJECTID_1": 97, "Join_Count": 1, "TARGET_FID": 97, "Lattitude": 32.971577581200002, "Longitude": 73.786944760500006, "Priority": 2.0, "ADM3_EN": "Sarai Alamgir", "ADM2_EN": "Gujrat", "ADM1_EN": "Punjab", "ADM0_EN": "Pakistan" }, "geometry": { "type": "Point", "coordinates": [ 73.786944760492361, 32.97157758124041, -0.000041442866291 ] } },
{ "type": "Feature", "properties": { "OBJECTID_1": 98, "Join_Count": 1, "TARGET_FID": 98, "Lattitude": 32.967873053399998, "Longitude": 71.576689624699995, "Priority": 2.0, "ADM3_EN": "Mianwali", "ADM2_EN": "Mianwali", "ADM1_EN": "Punjab", "ADM0_EN": "Pakistan" }, "geometry": { "type": "Point", "coordinates": [ 71.576689624726441, 32.967873053398762, -0.000041442866291 ] } },
{ "type": "Feature", "properties": { "OBJECTID_1": 99, "Join_Count": 1, "TARGET_FID": 99, "Lattitude": 32.960738293600002, "Longitude": 71.561844851199993, "Priority": 2.0, "ADM3_EN": "Isakhel", "ADM2_EN": "Mianwali", "ADM1_EN": "Punjab", "ADM0_EN": "Pakistan" }, "geometry": { "type": "Point", "coordinates": [ 71.561844851159037, 32.960738293637405, -0.000041442866291 ] } },
{ "type": "Feature", "properties": { "OBJECTID_1": 100, "Join_Count": 1, "TARGET_FID": 100, "Lattitude": 32.9568090828, "Longitude": 73.774455201600006, "Priority": 2.0, "ADM3_EN": "Sarai Alamgir", "ADM2_EN": "Gujrat", "ADM1_EN": "Punjab", "ADM0_EN": "Pakistan" }, "geometry": { "type": "Point", "coordinates": [ 73.774455201646276, 32.95680908277302, -0.000041442866291 ] } },
{ "type": "Feature", "properties": { "OBJECTID_1": 102, "Join_Count": 1, "TARGET_FID": 102, "Lattitude": 32.879764505700003, "Longitude": 71.458264869700002, "Priority": 2.0, "ADM3_EN": "Isakhel", "ADM2_EN": "Mianwali", "ADM1_EN": "Punjab", "ADM0_EN": "Pakistan" }, "geometry": { "type": "Point", "coordinates": [ 71.458264869727998, 32.879764505727394, -0.000041442866291 ] } },
{ "type": "Feature", "properties": { "OBJECTID_1": 103, "Join_Count": 1, "TARGET_FID": 103, "Lattitude": 32.893627414800001, "Longitude": 71.4948276736, "Priority": 2.0, "ADM3_EN": "Mianwali", "ADM2_EN": "Mianwali", "ADM1_EN": "Punjab", "ADM0_EN": "Pakistan" }, "geometry": { "type": "Point", "coordinates": [ 71.494827673558348, 32.893627414773448, -0.000041442866291 ] } },
{ "type": "Feature", "properties": { "OBJECTID_1": 104, "Join_Count": 1, "TARGET_FID": 104, "Lattitude": 32.861022393299997, "Longitude": 73.667175538799995, "Priority": 2.0, "ADM3_EN": "Sarai Alamgir", "ADM2_EN": "Gujrat", "ADM1_EN": "Punjab", "ADM0_EN": "Pakistan" }, "geometry": { "type": "Point", "coordinates": [ 73.667175538820118, 32.861022393268911, -0.000041442866291 ] } },
{ "type": "Feature", "properties": { "OBJECTID_1": 105, "Join_Count": 1, "TARGET_FID": 105, "Lattitude": 32.860662233699998, "Longitude": 73.679181919800001, "Priority": 2.0, "ADM3_EN": "Sarai Alamgir", "ADM2_EN": "Gujrat", "ADM1_EN": "Punjab", "ADM0_EN": "Pakistan" }, "geometry": { "type": "Point", "coordinates": [ 73.679181919809821, 32.860662233675214, -0.000041442866291 ] } },
{ "type": "Feature", "properties": { "OBJECTID_1": 106, "Join_Count": 1, "TARGET_FID": 106, "Lattitude": 32.785416666700002, "Longitude": 71.418749999900001, "Priority": 2.0, "ADM3_EN": "Mianwali", "ADM2_EN": "Mianwali", "ADM1_EN": "Punjab", "ADM0_EN": "Pakistan" }, "geometry": { "type": "Point", "coordinates": [ 71.41874999991262, 32.785416666745846, -0.000041442866291 ] } },
{ "type": "Feature", "properties": { "OBJECTID_1": 107, "Join_Count": 1, "TARGET_FID": 107, "Lattitude": 32.761418663500002, "Longitude": 71.436339414399995, "Priority": 2.0, "ADM3_EN": "Mianwali", "ADM2_EN": "Mianwali", "ADM1_EN": "Punjab", "ADM0_EN": "Pakistan" }, "geometry": { "type": "Point", "coordinates": [ 71.436339414432496, 32.761418663540553, -0.000041442866291 ] } },
{ "type": "Feature", "properties": { "OBJECTID_1": 108, "Join_Count": 1, "TARGET_FID": 108, "Lattitude": 32.747916666800002, "Longitude": 73.593750000100002, "Priority": 2.0, "ADM3_EN": "Sarai Alamgir", "ADM2_EN": "Gujrat", "ADM1_EN": "Punjab", "ADM0_EN": "Pakistan" }, "geometry": { "type": "Point", "coordinates": [ 73.593750000062528, 32.747916666820743, -0.000041442866291 ] } },
{ "type": "Feature", "properties": { "OBJECTID_1": 110, "Join_Count": 1, "TARGET_FID": 110, "Lattitude": 32.740829876900001, "Longitude": 74.519127416700002, "Priority": 2.0, "ADM3_EN": "Sialkot", "ADM2_EN": "Sialkot", "ADM1_EN": "Punjab", "ADM0_EN": "Pakistan" }, "geometry": { "type": "Point", "coordinates": [ 74.519127416696961, 32.740829876897351, -0.000041442866291 ] } },
{ "type": "Feature", "properties": { "OBJECTID_1": 111, "Join_Count": 1, "TARGET_FID": 111, "Lattitude": 32.70467937, "Longitude": 74.496507647900003, "Priority": 2.0, "ADM3_EN": "Sialkot", "ADM2_EN": "Sialkot", "ADM1_EN": "Punjab", "ADM0_EN": "Pakistan" }, "geometry": { "type": "Point", "coordinates": [ 74.496507647909652, 32.704679369957034, -0.000041442866291 ] } },
{ "type": "Feature", "properties": { "OBJECTID_1": 112, "Join_Count": 1, "TARGET_FID": 112, "Lattitude": 32.6943656965, "Longitude": 74.480971150900004, "Priority": 2.0, "ADM3_EN": "Sialkot", "ADM2_EN": "Sialkot", "ADM1_EN": "Punjab", "ADM0_EN": "Pakistan" }, "geometry": { "type": "Point", "coordinates": [ 74.480971150897972, 32.694365696519753, -0.000041442866291 ] } },
{ "type": "Feature", "properties": { "OBJECTID_1": 113, "Join_Count": 1, "TARGET_FID": 113, "Lattitude": 32.685754077299997, "Longitude": 71.390347378100003, "Priority": 2.0, "ADM3_EN": "Mianwali", "ADM2_EN": "Mianwali", "ADM1_EN": "Punjab", "ADM0_EN": "Pakistan" }, "geometry": { "type": "Point", "coordinates": [ 71.390347378129036, 32.685754077288891, -0.000041442866291 ] } },
{ "type": "Feature", "properties": { "OBJECTID_1": 114, "Join_Count": 1, "TARGET_FID": 114, "Lattitude": 32.677083333, "Longitude": 71.377083333000002, "Priority": 2.0, "ADM3_EN": "Isakhel", "ADM2_EN": "Mianwali", "ADM1_EN": "Punjab", "ADM0_EN": "Pakistan" }, "geometry": { "type": "Point", "coordinates": [ 71.377083333029475, 32.677083333029429, -0.000041442866291 ] } },
{ "type": "Feature", "properties": { "OBJECTID_1": 115, "Join_Count": 1, "TARGET_FID": 115, "Lattitude": 32.631250000100003, "Longitude": 71.302083333200002, "Priority": 2.0, "ADM3_EN": "Isakhel", "ADM2_EN": "Mianwali", "ADM1_EN": "Punjab", "ADM0_EN": "Pakistan" }, "geometry": { "type": "Point", "coordinates": [ 71.302083333179326, 32.631250000087505, -0.000041442866291 ] } },
{ "type": "Feature", "properties": { "OBJECTID_1": 116, "Join_Count": 1, "TARGET_FID": 116, "Lattitude": 32.602996842000003, "Longitude": 74.276700093700001, "Priority": 2.0, "ADM3_EN": "Gujrat", "ADM2_EN": "Gujrat", "ADM1_EN": "Punjab", "ADM0_EN": "Pakistan" }, "geometry": { "type": "Point", "coordinates": [ 74.276700093734405, 32.602996842030677, -0.000041442866291 ] } },
{ "type": "Feature", "properties": { "OBJECTID_1": 117, "Join_Count": 1, "TARGET_FID": 117, "Lattitude": 32.582616733199998, "Longitude": 74.268606064899998, "Priority": 2.0, "ADM3_EN": "Sambrial", "ADM2_EN": "Sialkot", "ADM1_EN": "Punjab", "ADM0_EN": "Pakistan" }, "geometry": { "type": "Point", "coordinates": [ 74.268606064918004, 32.582616733175769, -0.000041442866291 ] } },
{ "type": "Feature", "properties": { "OBJECTID_1": 118, "Join_Count": 1, "TARGET_FID": 118, "Lattitude": 32.5977777803, "Longitude": 73.248611109799995, "Priority": 2.0, "ADM3_EN": "Pind Dadan Khan", "ADM2_EN": "Jhelum", "ADM1_EN": "Punjab", "ADM0_EN": "Pakistan" }, "geometry": { "type": "Point", "coordinates": [ 73.248611109814931, 32.597777780320371, -0.000041442866291 ] } },
{ "type": "Feature", "properties": { "OBJECTID_1": 119, "Join_Count": 1, "TARGET_FID": 119, "Lattitude": 32.60833333, "Longitude": 73.121944439700002, "Priority": 2.0, "ADM3_EN": "Pind Dadan Khan", "ADM2_EN": "Jhelum", "ADM1_EN": "Punjab", "ADM0_EN": "Pakistan" }, "geometry": { "type": "Point", "coordinates": [ 73.121944439684228, 32.608333330019207, -0.000041442866291 ] } },
{ "type": "Feature", "properties": { "OBJECTID_1": 120, "Join_Count": 1, "TARGET_FID": 120, "Lattitude": 32.568833599400001, "Longitude": 73.145842188299994, "Priority": 2.0, "ADM3_EN": "Bhera", "ADM2_EN": "Sargodha", "ADM1_EN": "Punjab", "ADM0_EN": "Pakistan" }, "geometry": { "type": "Point", "coordinates": [ 73.145842188266442, 32.568833599391155, -0.000041442866291 ] } },
{ "type": "Feature", "properties": { "OBJECTID_1": 121, "Join_Count": 1, "TARGET_FID": 121, "Lattitude": 32.580821033500001, "Longitude": 73.146099677699993, "Priority": 2.0, "ADM3_EN": "Pind Dadan Khan", "ADM2_EN": "Jhelum", "ADM1_EN": "Punjab", "ADM0_EN": "Pakistan" }, "geometry": { "type": "Point", "coordinates": [ 73.146099677658071, 32.580821033463963, -0.000041442866291 ] } },
{ "type": "Feature", "properties": { "OBJECTID_1": 122, "Join_Count": 1, "TARGET_FID": 122, "Lattitude": 32.547499999599999, "Longitude": 72.924166670299996, "Priority": 2.0, "ADM3_EN": "Pind Dadan Khan", "ADM2_EN": "Jhelum", "ADM1_EN": "Punjab", "ADM0_EN": "Pakistan" }, "geometry": { "type": "Point", "coordinates": [ 72.924166670255659, 32.547499999625359, -0.000041442866291 ] } },
{ "type": "Feature", "properties": { "OBJECTID_1": 123, "Join_Count": 1, "TARGET_FID": 123, "Lattitude": 32.514583333399997, "Longitude": 72.889583333600001, "Priority": 2.0, "ADM3_EN": "Pind Dadan Khan", "ADM2_EN": "Jhelum", "ADM1_EN": "Punjab", "ADM0_EN": "Pakistan" }, "geometry": { "type": "Point", "coordinates": [ 72.889583333604037, 32.51458333335421, -0.000041442866291 ] } },
{ "type": "Feature", "properties": { "OBJECTID_1": 125, "Join_Count": 1, "TARGET_FID": 125, "Lattitude": 32.500316732100003, "Longitude": 74.148778375600003, "Priority": 2.0, "ADM3_EN": "Wazirabad", "ADM2_EN": "Gujranwala", "ADM1_EN": "Punjab", "ADM0_EN": "Pakistan" }, "geometry": { "type": "Point", "coordinates": [ 74.148778375621589, 32.500316732131523, -0.000041442866291 ] } },
{ "type": "Feature", "properties": { "OBJECTID_1": 126, "Join_Count": 1, "TARGET_FID": 126, "Lattitude": 32.464583333500002, "Longitude": 74.047916666999996, "Priority": 2.0, "ADM3_EN": "Wazirabad", "ADM2_EN": "Gujranwala", "ADM1_EN": "Punjab", "ADM0_EN": "Pakistan" }, "geometry": { "type": "Point", "coordinates": [ 74.047916667020615, 32.464583333454129, -0.000041442866291 ] } },
{ "type": "Feature", "properties": { "OBJECTID_1": 127, "Join_Count": 1, "TARGET_FID": 127, "Lattitude": 32.451659343599999, "Longitude": 72.799795651799997, "Priority": 2.0, "ADM3_EN": "Pind Dadan Khan", "ADM2_EN": "Jhelum", "ADM1_EN": "Punjab", "ADM0_EN": "Pakistan" }, "geometry": { "type": "Point", "coordinates": [ 72.799795651847887, 32.451659343603865, -0.000041442866291 ] } },
{ "type": "Feature", "properties": { "OBJECTID_1": 128, "Join_Count": 1, "TARGET_FID": 128, "Lattitude": 32.4400448062, "Longitude": 74.025872966199998, "Priority": 2.0, "ADM3_EN": "Wazirabad", "ADM2_EN": "Gujranwala", "ADM1_EN": "Punjab", "ADM0_EN": "Pakistan" }, "geometry": { "type": "Point", "coordinates": [ 74.025872966164513, 32.440044806222886, -0.000041442866291 ] } },
{ "type": "Feature", "properties": { "OBJECTID_1": 129, "Join_Count": 1, "TARGET_FID": 129, "Lattitude": 32.439583333500003, "Longitude": 72.797916666800006, "Priority": 2.0, "ADM3_EN": "Bhera", "ADM2_EN": "Sargodha", "ADM1_EN": "Punjab", "ADM0_EN": "Pakistan" }, "geometry": { "type": "Point", "coordinates": [ 72.797916666820754, 32.439583333504117, -0.000041442866291 ] } },
{ "type": "Feature", "properties": { "OBJECTID_1": 130, "Join_Count": 1, "TARGET_FID": 130, "Lattitude": 32.379893343600003, "Longitude": 73.889900847999996, "Priority": 2.0, "ADM3_EN": "Wazirabad", "ADM2_EN": "Gujranwala", "ADM1_EN": "Punjab", "ADM0_EN": "Pakistan" }, "geometry": { "type": "Point", "coordinates": [ 73.889900848045784, 32.379893343602987, -0.000041442866291 ] } },
{ "type": "Feature", "properties": { "OBJECTID_1": 131, "Join_Count": 1, "TARGET_FID": 131, "Lattitude": 32.384698956400001, "Longitude": 73.836803108200002, "Priority": 2.0, "ADM3_EN": "Wazirabad", "ADM2_EN": "Gujranwala", "ADM1_EN": "Punjab", "ADM0_EN": "Pakistan" }, "geometry": { "type": "Point", "coordinates": [ 73.83680310817698, 32.384698956391787, -0.000041442866291 ] } },
{ "type": "Feature", "properties": { "OBJECTID_1": 133, "Join_Count": 1, "TARGET_FID": 133, "Lattitude": 32.239590426, "Longitude": 71.264171915000006, "Priority": 2.0, "ADM3_EN": "Piplan", "ADM2_EN": "Mianwali", "ADM1_EN": "Punjab", "ADM0_EN": "Pakistan" }, "geometry": { "type": "Point", "coordinates": [ 71.264171915001953, 32.239590425957431, -0.000041442866291 ] } },
{ "type": "Feature", "properties": { "OBJECTID_1": 134, "Join_Count": 1, "TARGET_FID": 134, "Lattitude": 32.232260496199999, "Longitude": 73.4336838734, "Priority": 2.0, "ADM3_EN": "Phalia", "ADM2_EN": "Mandi Bahauddin", "ADM1_EN": "Punjab", "ADM0_EN": "Pakistan" }, "geometry": { "type": "Point", "coordinates": [ 73.433683873412065, 32.232260496224967, -0.000041442866291 ] } },
{ "type": "Feature", "properties": { "OBJECTID_1": 135, "Join_Count": 1, "TARGET_FID": 135, "Lattitude": 32.1749436805, "Longitude": 73.366932049799999, "Priority": 2.0, "ADM3_EN": "Phalia", "ADM2_EN": "Mandi Bahauddin", "ADM1_EN": "Punjab", "ADM0_EN": "Pakistan" }, "geometry": { "type": "Point", "coordinates": [ 73.366932049774334, 32.174943680506487, -0.000041442866291 ] } },
{ "type": "Feature", "properties": { "OBJECTID_1": 136, "Join_Count": 1, "TARGET_FID": 136, "Lattitude": 32.126482844199998, "Longitude": 71.173354743299996, "Priority": 2.0, "ADM3_EN": "Kalur Kot", "ADM2_EN": "Bhakkar", "ADM1_EN": "Punjab", "ADM0_EN": "Pakistan" }, "geometry": { "type": "Point", "coordinates": [ 71.173354743326797, 32.126482844207942, -0.000041442866291 ] } },
{ "type": "Feature", "properties": { "OBJECTID_1": 137, "Join_Count": 1, "TARGET_FID": 137, "Lattitude": 32.0804478815, "Longitude": 75.067509105400006, "Priority": 2.0, "ADM3_EN": "Shakargarh", "ADM2_EN": "Narowal", "ADM1_EN": "Punjab", "ADM0_EN": "Pakistan" }, "geometry": { "type": "Point", "coordinates": [ 75.067509105360955, 32.080447881464636, -0.000041442866291 ] } },
{ "type": "Feature", "properties": { "OBJECTID_1": 138, "Join_Count": 1, "TARGET_FID": 138, "Lattitude": 32.067843238199998, "Longitude": 73.261845308199995, "Priority": 2.0, "ADM3_EN": "Pindi Bhattian", "ADM2_EN": "Hafizabad", "ADM1_EN": "Punjab", "ADM0_EN": "Pakistan" }, "geometry": { "type": "Point", "coordinates": [ 73.261845308214447, 32.06784323817493, -0.000041442866291 ] } },
{ "type": "Feature", "properties": { "OBJECTID_1": 139, "Join_Count": 1, "TARGET_FID": 139, "Lattitude": 32.056250000299997, "Longitude": 72.28125, "Priority": 2.0, "ADM3_EN": "Khushab", "ADM2_EN": "Khushab", "ADM1_EN": "Punjab", "ADM0_EN": "Pakistan" }, "geometry": { "type": "Point", "coordinates": [ 72.281249999987551, 32.056250000337286, -0.000041442866291 ] } },
{ "type": "Feature", "properties": { "OBJECTID_1": 141, "Join_Count": 1, "TARGET_FID": 141, "Lattitude": 31.9044762714, "Longitude": 72.235090185299995, "Priority": 2.0, "ADM3_EN": "Noorpur", "ADM2_EN": "Khushab", "ADM1_EN": "Punjab", "ADM0_EN": "Pakistan" }, "geometry": { "type": "Point", "coordinates": [ 72.235090185263914, 31.90447627136291, -0.000041442866291 ] } },
{ "type": "Feature", "properties": { "OBJECTID_1": 143, "Join_Count": 1, "TARGET_FID": 143, "Lattitude": 31.821819752100001, "Longitude": 73.065310921700004, "Priority": 2.0, "ADM3_EN": "Lalian", "ADM2_EN": "Chiniot", "ADM1_EN": "Punjab", "ADM0_EN": "Pakistan" }, "geometry": { "type": "Point", "coordinates": [ 73.065310921661762, 31.821819752079932, -0.000041442866291 ] } },
{ "type": "Feature", "properties": { "OBJECTID_1": 144, "Join_Count": 1, "TARGET_FID": 144, "Lattitude": 31.787839850600001, "Longitude": 72.210720484199996, "Priority": 2.0, "ADM3_EN": "Noorpur", "ADM2_EN": "Khushab", "ADM1_EN": "Punjab", "ADM0_EN": "Pakistan" }, "geometry": { "type": "Point", "coordinates": [ 72.210720484163062, 31.787839850628643, -0.000041442866291 ] } },
{ "type": "Feature", "properties": { "OBJECTID_1": 145, "Join_Count": 1, "TARGET_FID": 145, "Lattitude": 31.820500653500002, "Longitude": 72.225972215300004, "Priority": 2.0, "ADM3_EN": "Noorpur", "ADM2_EN": "Khushab", "ADM1_EN": "Punjab", "ADM0_EN": "Pakistan" }, "geometry": { "type": "Point", "coordinates": [ 72.225972215345507, 31.820500653482441, -0.000041442866291 ] } },
{ "type": "Feature", "properties": { "OBJECTID_1": 146, "Join_Count": 1, "TARGET_FID": 146, "Lattitude": 31.774522389400001, "Longitude": 74.529038772099995, "Priority": 2.0, "ADM3_EN": "Muridke", "ADM2_EN": "Sheikhupura", "ADM1_EN": "Punjab", "ADM0_EN": "Pakistan" }, "geometry": { "type": "Point", "coordinates": [ 74.52903877212168, 31.774522389396793, -0.000041442866291 ] } },
{ "type": "Feature", "properties": { "OBJECTID_1": 147, "Join_Count": 1, "TARGET_FID": 147, "Lattitude": 31.701812673199999, "Longitude": 74.486817695699997, "Priority": 2.0, "ADM3_EN": "Lahore Cantt", "ADM2_EN": "Lahore", "ADM1_EN": "Punjab", "ADM0_EN": "Pakistan" }, "geometry": { "type": "Point", "coordinates": [ 74.486817695680145, 31.701812673216352, -0.000041442866291 ] } },
{ "type": "Feature", "properties": { "OBJECTID_1": 148, "Join_Count": 1, "TARGET_FID": 148, "Lattitude": 31.662716104200001, "Longitude": 74.382906222299994, "Priority": 2.0, "ADM3_EN": "Ferozewala", "ADM2_EN": "Sheikhupura", "ADM1_EN": "Punjab", "ADM0_EN": "Pakistan" }, "geometry": { "type": "Point", "coordinates": [ 74.382906222344332, 31.662716104164929, -0.000041442866291 ] } },
{ "type": "Feature", "properties": { "OBJECTID_1": 149, "Join_Count": 1, "TARGET_FID": 149, "Lattitude": 31.6929554518, "Longitude": 70.949512440999996, "Priority": 2.0, "ADM3_EN": "Bhakkar", "ADM2_EN": "Bhakkar", "ADM1_EN": "Punjab", "ADM0_EN": "Pakistan" }, "geometry": { "type": "Point", "coordinates": [ 70.949512441046352, 31.692955451832688, -0.000041442866291 ] } },
{ "type": "Feature", "properties": { "OBJECTID_1": 150, "Join_Count": 1, "TARGET_FID": 150, "Lattitude": 31.650905902200002, "Longitude": 70.890564025800003, "Priority": 2.0, "ADM3_EN": "Bhakkar", "ADM2_EN": "Bhakkar", "ADM1_EN": "Punjab", "ADM0_EN": "Pakistan" }, "geometry": { "type": "Point", "coordinates": [ 70.890564025809226, 31.650905902185684, -0.000041442866291 ] } },
{ "type": "Feature", "properties": { "OBJECTID_1": 151, "Join_Count": 1, "TARGET_FID": 151, "Lattitude": 31.633985391700001, "Longitude": 74.3338690402, "Priority": 2.0, "ADM3_EN": "Lahore City", "ADM2_EN": "Lahore", "ADM1_EN": "Punjab", "ADM0_EN": "Pakistan" }, "geometry": { "type": "Point", "coordinates": [ 74.333869040224101, 31.633985391712486, -0.000041442866291 ] } },
{ "type": "Feature", "properties": { "OBJECTID_1": 152, "Join_Count": 1, "TARGET_FID": 152, "Lattitude": 31.6257212121, "Longitude": 72.574455020599999, "Priority": 2.0, "ADM3_EN": "Lalian", "ADM2_EN": "Chiniot", "ADM1_EN": "Punjab", "ADM0_EN": "Pakistan" }, "geometry": { "type": "Point", "coordinates": [ 72.574455020582775, 31.62572121206432, -0.000041442866291 ] } },
{ "type": "Feature", "properties": { "OBJECTID_1": 153, "Join_Count": 1, "TARGET_FID": 153, "Lattitude": 31.6097594077, "Longitude": 72.141943448399999, "Priority": 2.0, "ADM3_EN": "Jhang", "ADM2_EN": "Jhang", "ADM1_EN": "Punjab", "ADM0_EN": "Pakistan" }, "geometry": { "type": "Point", "coordinates": [ 72.141943448431448, 31.609759407670595, -0.000041442866291 ] } },
{ "type": "Feature", "properties": { "OBJECTID_1": 154, "Join_Count": 1, "TARGET_FID": 154, "Lattitude": 31.5996163545, "Longitude": 72.145690004299993, "Priority": 2.0, "ADM3_EN": "Jhang", "ADM2_EN": "Jhang", "ADM1_EN": "Punjab", "ADM0_EN": "Pakistan" }, "geometry": { "type": "Point", "coordinates": [ 72.145690004290316, 31.599616354511227, -0.000041442866291 ] } },
{ "type": "Feature", "properties": { "OBJECTID_1": 155, "Join_Count": 1, "TARGET_FID": 155, "Lattitude": 31.547916666500001, "Longitude": 72.127083333300007, "Priority": 2.0, "ADM3_EN": "Jhang", "ADM2_EN": "Jhang", "ADM1_EN": "Punjab", "ADM0_EN": "Pakistan" }, "geometry": { "type": "Point", "coordinates": [ 72.12708333332921, 31.547916666521019, -0.000041442866291 ] } },
{ "type": "Feature", "properties": { "OBJECTID_1": 156, "Join_Count": 1, "TARGET_FID": 156, "Lattitude": 31.550684036900002, "Longitude": 72.508980851199993, "Priority": 2.0, "ADM3_EN": "Bhawana", "ADM2_EN": "Chiniot", "ADM1_EN": "Punjab", "ADM0_EN": "Pakistan" }, "geometry": { "type": "Point", "coordinates": [ 72.508980851185413, 31.550684036938833, -0.000041442866291 ] } },
{ "type": "Feature", "properties": { "OBJECTID_1": 157, "Join_Count": 1, "TARGET_FID": 157, "Lattitude": 31.443416930400002, "Longitude": 74.152330999900002, "Priority": 2.0, "ADM3_EN": "Lahore City", "ADM2_EN": "Lahore", "ADM1_EN": "Punjab", "ADM0_EN": "Pakistan" }, "geometry": { "type": "Point", "coordinates": [ 74.152330999875801, 31.443416930447029, -0.000041442866291 ] } },
{ "type": "Feature", "properties": { "OBJECTID_1": 158, "Join_Count": 1, "TARGET_FID": 158, "Lattitude": 31.3743028612, "Longitude": 74.051982441700005, "Priority": 2.0, "ADM3_EN": "Sharak Pur", "ADM2_EN": "Sheikhupura", "ADM1_EN": "Punjab", "ADM0_EN": "Pakistan" }, "geometry": { "type": "Point", "coordinates": [ 74.051982441736357, 31.374302861188141, -0.000041442866291 ] } },
{ "type": "Feature", "properties": { "OBJECTID_1": 159, "Join_Count": 1, "TARGET_FID": 159, "Lattitude": 31.381062930100001, "Longitude": 72.100987152399995, "Priority": 2.0, "ADM3_EN": "Athara Hazari", "ADM2_EN": "Jhang", "ADM1_EN": "Punjab", "ADM0_EN": "Pakistan" }, "geometry": { "type": "Point", "coordinates": [ 72.100987152435209, 31.381062930110204, -0.000041442866291 ] } },
{ "type": "Feature", "properties": { "OBJECTID_1": 160, "Join_Count": 1, "TARGET_FID": 160, "Lattitude": 31.289583333100001, "Longitude": 70.768750000300003, "Priority": 2.0, "ADM3_EN": "Karor Lal Esan", "ADM2_EN": "Leiah", "ADM1_EN": "Punjab", "ADM0_EN": "Pakistan" }, "geometry": { "type": "Point", "coordinates": [ 70.768750000312309, 31.289583333104417, -0.000041442866291 ] } },
{ "type": "Feature", "properties": { "OBJECTID_1": 161, "Join_Count": 1, "TARGET_FID": 161, "Lattitude": 31.246024025000001, "Longitude": 70.760325893300006, "Priority": 2.0, "ADM3_EN": "Taunsa", "ADM2_EN": "Dera Ghazi Khan", "ADM1_EN": "Punjab", "ADM0_EN": "Pakistan" }, "geometry": { "type": "Point", "coordinates": [ 70.760325893325387, 31.246024024988799, -0.000041442866291 ] } },
{ "type": "Feature", "properties": { "OBJECTID_1": 162, "Join_Count": 1, "TARGET_FID": 162, "Lattitude": 31.212873073600001, "Longitude": 72.2239378652, "Priority": 2.0, "ADM3_EN": "Jhang", "ADM2_EN": "Jhang", "ADM1_EN": "Punjab", "ADM0_EN": "Pakistan" }, "geometry": { "type": "Point", "coordinates": [ 72.223937865240373, 31.212873073633489, -0.000041442866291 ] } },
{ "type": "Feature", "properties": { "OBJECTID_1": 163, "Join_Count": 1, "TARGET_FID": 163, "Lattitude": 31.207606239, "Longitude": 73.7257603348, "Priority": 2.0, "ADM3_EN": "Nankana Sahib", "ADM2_EN": "Nankana Sahib", "ADM1_EN": "Punjab", "ADM0_EN": "Pakistan" }, "geometry": { "type": "Point", "coordinates": [ 73.725760334771678, 31.20760623903675, -0.000041442866291 ] } },
{ "type": "Feature", "properties": { "OBJECTID_1": 166, "Join_Count": 1, "TARGET_FID": 166, "Lattitude": 31.105938484300001, "Longitude": 73.435213439400002, "Priority": 2.0, "ADM3_EN": "Nankana Sahib", "ADM2_EN": "Nankana Sahib", "ADM1_EN": "Punjab", "ADM0_EN": "Pakistan" }, "geometry": { "type": "Point", "coordinates": [ 73.435213439448717, 31.105938484273679, -0.000041442866291 ] } },
{ "type": "Feature", "properties": { "OBJECTID_1": 167, "Join_Count": 1, "TARGET_FID": 167, "Lattitude": 30.9979166667, "Longitude": 73.339583333600004, "Priority": 2.0, "ADM3_EN": "Tandlian Wala", "ADM2_EN": "Faisalabad", "ADM1_EN": "Punjab", "ADM0_EN": "Pakistan" }, "geometry": { "type": "Point", "coordinates": [ 73.339583333604025, 30.997916666720869, -0.000041442866291 ] } },
{ "type": "Feature", "properties": { "OBJECTID_1": 168, "Join_Count": 1, "TARGET_FID": 168, "Lattitude": 30.991252031199998, "Longitude": 70.819973316499997, "Priority": 2.0, "ADM3_EN": "Leiah", "ADM2_EN": "Leiah", "ADM1_EN": "Punjab", "ADM0_EN": "Pakistan" }, "geometry": { "type": "Point", "coordinates": [ 70.819973316515416, 30.991252031156364, -0.000041442866291 ] } },
{ "type": "Feature", "properties": { "OBJECTID_1": 169, "Join_Count": 1, "TARGET_FID": 169, "Lattitude": 30.934379979700001, "Longitude": 70.805759142200003, "Priority": 2.0, "ADM3_EN": "Leiah", "ADM2_EN": "Leiah", "ADM1_EN": "Punjab", "ADM0_EN": "Pakistan" }, "geometry": { "type": "Point", "coordinates": [ 70.805759142170757, 30.934379979652363, -0.000041442866291 ] } },
{ "type": "Feature", "properties": { "OBJECTID_1": 170, "Join_Count": 1, "TARGET_FID": 170, "Lattitude": 30.918493654500001, "Longitude": 74.363814279899998, "Priority": 2.0, "ADM3_EN": "Kasur", "ADM2_EN": "Kasur", "ADM1_EN": "Punjab", "ADM0_EN": "Pakistan" }, "geometry": { "type": "Point", "coordinates": [ 74.363814279905171, 30.918493654458644, -0.000041442866291 ] } },
{ "type": "Feature", "properties": { "OBJECTID_1": 171, "Join_Count": 1, "TARGET_FID": 171, "Lattitude": 30.861913302600001, "Longitude": 71.975669510299994, "Priority": 2.0, "ADM3_EN": "Ahmadpur Sial", "ADM2_EN": "Jhang", "ADM1_EN": "Punjab", "ADM0_EN": "Pakistan" }, "geometry": { "type": "Point", "coordinates": [ 71.975669510339685, 30.8619133025569, -0.000041442866291 ] } },
{ "type": "Feature", "properties": { "OBJECTID_1": 172, "Join_Count": 1, "TARGET_FID": 172, "Lattitude": 30.864583333100001, "Longitude": 74.322916666500006, "Priority": 2.0, "ADM3_EN": "Kasur", "ADM2_EN": "Kasur", "ADM1_EN": "Punjab", "ADM0_EN": "Pakistan" }, "geometry": { "type": "Point", "coordinates": [ 74.322916666471031, 30.864583333054441, -0.000041442866291 ] } },
{ "type": "Feature", "properties": { "OBJECTID_1": 173, "Join_Count": 1, "TARGET_FID": 173, "Lattitude": 30.769112695899999, "Longitude": 74.250057578300002, "Priority": 2.0, "ADM3_EN": "Chunian", "ADM2_EN": "Kasur", "ADM1_EN": "Punjab", "ADM0_EN": "Pakistan" }, "geometry": { "type": "Point", "coordinates": [ 74.250057578294673, 30.76911269589425, -0.000041442866291 ] } },
{ "type": "Feature", "properties": { "OBJECTID_1": 174, "Join_Count": 1, "TARGET_FID": 174, "Lattitude": 30.754290303800001, "Longitude": 72.968861167399993, "Priority": 2.0, "ADM3_EN": "Sahiwal", "ADM2_EN": "Sahiwal", "ADM1_EN": "Punjab", "ADM0_EN": "Pakistan" }, "geometry": { "type": "Point", "coordinates": [ 72.968861167408988, 30.754290303754544, -0.000041442866291 ] } },
{ "type": "Feature", "properties": { "OBJECTID_1": 175, "Join_Count": 1, "TARGET_FID": 175, "Lattitude": 30.684226993799999, "Longitude": 70.767415405500003, "Priority": 2.0, "ADM3_EN": "Taunsa", "ADM2_EN": "Dera Ghazi Khan", "ADM1_EN": "Punjab", "ADM0_EN": "Pakistan" }, "geometry": { "type": "Point", "coordinates": [ 70.767415405496649, 30.684226993780783, -0.000041442866291 ] } },
{ "type": "Feature", "properties": { "OBJECTID_1": 176, "Join_Count": 1, "TARGET_FID": 176, "Lattitude": 30.631455474, "Longitude": 71.917763956100003, "Priority": 2.0, "ADM3_EN": "Kabirwala", "ADM2_EN": "Khanewal", "ADM1_EN": "Punjab", "ADM0_EN": "Pakistan" }, "geometry": { "type": "Point", "coordinates": [ 71.917763956141698, 30.631455473990968, -0.000041442866291 ] } },
{ "type": "Feature", "properties": { "OBJECTID_1": 177, "Join_Count": 1, "TARGET_FID": 177, "Lattitude": 30.6475856126, "Longitude": 74.098990122000004, "Priority": 2.0, "ADM3_EN": "Depalpur", "ADM2_EN": "Okara", "ADM1_EN": "Punjab", "ADM0_EN": "Pakistan" }, "geometry": { "type": "Point", "coordinates": [ 74.098990121996565, 30.647585612585999, -0.000041442866291 ] } },
{ "type": "Feature", "properties": { "OBJECTID_1": 178, "Join_Count": 1, "TARGET_FID": 178, "Lattitude": 30.597731098699999, "Longitude": 72.550606821900004, "Priority": 2.0, "ADM3_EN": "Chichawatni", "ADM2_EN": "Sahiwal", "ADM1_EN": "Punjab", "ADM0_EN": "Pakistan" }, "geometry": { "type": "Point", "coordinates": [ 72.550606821947326, 30.597731098711279, -0.000041442866291 ] } },
{ "type": "Feature", "properties": { "OBJECTID_1": 179, "Join_Count": 1, "TARGET_FID": 179, "Lattitude": 30.570117346, "Longitude": 72.365577295099996, "Priority": 2.0, "ADM3_EN": "Mian Channu", "ADM2_EN": "Khanewal", "ADM1_EN": "Punjab", "ADM0_EN": "Pakistan" }, "geometry": { "type": "Point", "coordinates": [ 72.365577295056198, 30.570117346038728, -0.000041442866291 ] } },
{ "type": "Feature", "properties": { "OBJECTID_1": 180, "Join_Count": 1, "TARGET_FID": 180, "Lattitude": 30.5618948041, "Longitude": 72.295160296999995, "Priority": 2.0, "ADM3_EN": "Kamalia", "ADM2_EN": "Toba Tek Singh", "ADM1_EN": "Punjab", "ADM0_EN": "Pakistan" }, "geometry": { "type": "Point", "coordinates": [ 72.29516029701017, 30.561894804101996, -0.000041442866291 ] } },
{ "type": "Feature", "properties": { "OBJECTID_1": 181, "Join_Count": 1, "TARGET_FID": 181, "Lattitude": 30.541131409599998, "Longitude": 71.595060929599995, "Priority": 2.0, "ADM3_EN": "Muzaffargarh", "ADM2_EN": "Muzaffargarh", "ADM1_EN": "Punjab", "ADM0_EN": "Pakistan" }, "geometry": { "type": "Point", "coordinates": [ 71.595060929618285, 30.54113140958691, -0.000041442866291 ] } },
{ "type": "Feature", "properties": { "OBJECTID_1": 182, "Join_Count": 1, "TARGET_FID": 182, "Lattitude": 30.5178262252, "Longitude": 73.996147237499997, "Priority": 2.0, "ADM3_EN": "Depalpur", "ADM2_EN": "Okara", "ADM1_EN": "Punjab", "ADM0_EN": "Pakistan" }, "geometry": { "type": "Point", "coordinates": [ 73.996147237505056, 30.517826225200167, -0.000041442866291 ] } },
{ "type": "Feature", "properties": { "OBJECTID_1": 183, "Join_Count": 1, "TARGET_FID": 183, "Lattitude": 30.4592638763, "Longitude": 70.863477180499999, "Priority": 2.0, "ADM3_EN": "Kot Addu", "ADM2_EN": "Muzaffargarh", "ADM1_EN": "Punjab", "ADM0_EN": "Pakistan" }, "geometry": { "type": "Point", "coordinates": [ 70.863477180527525, 30.459263876326872, -0.000041442866291 ] } },
{ "type": "Feature", "properties": { "OBJECTID_1": 184, "Join_Count": 1, "TARGET_FID": 184, "Lattitude": 30.391766115399999, "Longitude": 73.861826924, "Priority": 2.0, "ADM3_EN": "Depalpur", "ADM2_EN": "Okara", "ADM1_EN": "Punjab", "ADM0_EN": "Pakistan" }, "geometry": { "type": "Point", "coordinates": [ 73.86182692397341, 30.39176611541393, -0.000041442866291 ] } },
{ "type": "Feature", "properties": { "OBJECTID_1": 185, "Join_Count": 1, "TARGET_FID": 185, "Lattitude": 30.364583333199999, "Longitude": 73.810416666600005, "Priority": 2.0, "ADM3_EN": "Depalpur", "ADM2_EN": "Okara", "ADM1_EN": "Punjab", "ADM0_EN": "Pakistan" }, "geometry": { "type": "Point", "coordinates": [ 73.810416666595927, 30.364583333154371, -0.000041442866291 ] } },
{ "type": "Feature", "properties": { "OBJECTID_1": 186, "Join_Count": 1, "TARGET_FID": 186, "Lattitude": 30.352353814200001, "Longitude": 73.786701170100002, "Priority": 2.0, "ADM3_EN": "Depalpur", "ADM2_EN": "Okara", "ADM1_EN": "Punjab", "ADM0_EN": "Pakistan" }, "geometry": { "type": "Point", "coordinates": [ 73.786701170122967, 30.352353814177206, -0.000041442866291 ] } },
{ "type": "Feature", "properties": { "OBJECTID_1": 187, "Join_Count": 1, "TARGET_FID": 187, "Lattitude": 30.311326950200002, "Longitude": 73.654756145099995, "Priority": 2.0, "ADM3_EN": "Depalpur", "ADM2_EN": "Okara", "ADM1_EN": "Punjab", "ADM0_EN": "Pakistan" }, "geometry": { "type": "Point", "coordinates": [ 73.654756145080114, 30.311326950178682, -0.000041442866291 ] } },
{ "type": "Feature", "properties": { "OBJECTID_1": 189, "Join_Count": 1, "TARGET_FID": 189, "Lattitude": 30.314261315700001, "Longitude": 70.799362288699996, "Priority": 2.0, "ADM3_EN": "Dera Ghazi Khan", "ADM2_EN": "Dera Ghazi Khan", "ADM1_EN": "Punjab", "ADM0_EN": "Pakistan" }, "geometry": { "type": "Point", "coordinates": [ 70.799362288738678, 30.314261315707199, -0.000041442866291 ] } },
{ "type": "Feature", "properties": { "OBJECTID_1": 191, "Join_Count": 1, "TARGET_FID": 191, "Lattitude": 30.247913752599999, "Longitude": 73.429697989100006, "Priority": 2.0, "ADM3_EN": "Pakpattan", "ADM2_EN": "Pakpattan", "ADM1_EN": "Punjab", "ADM0_EN": "Pakistan" }, "geometry": { "type": "Point", "coordinates": [ 73.429697989070974, 30.247913752617649, -0.000041442866291 ] } },
{ "type": "Feature", "properties": { "OBJECTID_1": 193, "Join_Count": 1, "TARGET_FID": 193, "Lattitude": 30.153310274100001, "Longitude": 71.308978537800002, "Priority": 2.0, "ADM3_EN": "Multan Saddar", "ADM2_EN": "Multan", "ADM1_EN": "Punjab", "ADM0_EN": "Pakistan" }, "geometry": { "type": "Point", "coordinates": [ 71.308978537829319, 30.153310274149874, -0.000041442866291 ] } },
{ "type": "Feature", "properties": { "OBJECTID_1": 194, "Join_Count": 1, "TARGET_FID": 194, "Lattitude": 30.088108751299998, "Longitude": 73.222343731300001, "Priority": 2.0, "ADM3_EN": "Arif Wala", "ADM2_EN": "Pakpattan", "ADM1_EN": "Punjab", "ADM0_EN": "Pakistan" }, "geometry": { "type": "Point", "coordinates": [ 73.222343731278215, 30.088108751317861, -0.000041442866291 ] } },
{ "type": "Feature", "properties": { "OBJECTID_1": 195, "Join_Count": 1, "TARGET_FID": 195, "Lattitude": 30.071287824599999, "Longitude": 73.144523217400007, "Priority": 2.0, "ADM3_EN": "Arif Wala", "ADM2_EN": "Pakpattan", "ADM1_EN": "Punjab", "ADM0_EN": "Pakistan" }, "geometry": { "type": "Point", "coordinates": [ 73.144523217372637, 30.071287824573517, -0.000041442866291 ] } },
{ "type": "Feature", "properties": { "OBJECTID_1": 196, "Join_Count": 1, "TARGET_FID": 196, "Lattitude": 30.077083333699999, "Longitude": 73.172916666999996, "Priority": 2.0, "ADM3_EN": "Arif Wala", "ADM2_EN": "Pakpattan", "ADM1_EN": "Punjab", "ADM0_EN": "Pakistan" }, "geometry": { "type": "Point", "coordinates": [ 73.17291666697065, 30.077083333728922, -0.000041442866291 ] } },
{ "type": "Feature", "properties": { "OBJECTID_1": 197, "Join_Count": 1, "TARGET_FID": 197, "Lattitude": 29.999451891500001, "Longitude": 72.906182028000003, "Priority": 2.0, "ADM3_EN": "Bahawalnagar", "ADM2_EN": "Bahawalnagar", "ADM1_EN": "Punjab", "ADM0_EN": "Pakistan" }, "geometry": { "type": "Point", "coordinates": [ 72.906182027978275, 29.999451891491674, -0.000041442866291 ] } },
{ "type": "Feature", "properties": { "OBJECTID_1": 198, "Join_Count": 1, "TARGET_FID": 198, "Lattitude": 30.007766289300001, "Longitude": 70.830436150599994, "Priority": 2.0, "ADM3_EN": "Dera Ghazi Khan", "ADM2_EN": "Dera Ghazi Khan", "ADM1_EN": "Punjab", "ADM0_EN": "Pakistan" }, "geometry": { "type": "Point", "coordinates": [ 70.830436150607909, 30.00776628928287, -0.000041442866291 ] } },
{ "type": "Feature", "properties": { "OBJECTID_1": 199, "Join_Count": 1, "TARGET_FID": 199, "Lattitude": 29.926092925900001, "Longitude": 72.770673101200003, "Priority": 2.0, "ADM3_EN": "Chishtian", "ADM2_EN": "Bahawalnagar", "ADM1_EN": "Punjab", "ADM0_EN": "Pakistan" }, "geometry": { "type": "Point", "coordinates": [ 72.770673101182751, 29.926092925947842, -0.000041442866291 ] } },
{ "type": "Feature", "properties": { "OBJECTID_1": 200, "Join_Count": 1, "TARGET_FID": 200, "Lattitude": 29.949842869200001, "Longitude": 72.820667927299993, "Priority": 2.0, "ADM3_EN": "Chishtian", "ADM2_EN": "Bahawalnagar", "ADM1_EN": "Punjab", "ADM0_EN": "Pakistan" }, "geometry": { "type": "Point", "coordinates": [ 72.820667927283068, 29.949842869153144, -0.000041442866291 ] } },
{ "type": "Feature", "properties": { "OBJECTID_1": 201, "Join_Count": 1, "TARGET_FID": 201, "Lattitude": 29.905004811400001, "Longitude": 72.741540021299997, "Priority": 2.0, "ADM3_EN": "Burewala", "ADM2_EN": "Vehari", "ADM1_EN": "Punjab", "ADM0_EN": "Pakistan" }, "geometry": { "type": "Point", "coordinates": [ 72.741540021255048, 29.905004811422941, -0.000041442866291 ] } },
{ "type": "Feature", "properties": { "OBJECTID_1": 202, "Join_Count": 1, "TARGET_FID": 202, "Lattitude": 29.865076356, "Longitude": 72.621443871699995, "Priority": 2.0, "ADM3_EN": "Vehari", "ADM2_EN": "Vehari", "ADM1_EN": "Punjab", "ADM0_EN": "Pakistan" }, "geometry": { "type": "Point", "coordinates": [ 72.62144387173737, 29.865076355989061, -0.000041442866291 ] } },
{ "type": "Feature", "properties": { "OBJECTID_1": 203, "Join_Count": 1, "TARGET_FID": 203, "Lattitude": 29.861692702700001, "Longitude": 72.659036646600001, "Priority": 2.0, "ADM3_EN": "Chishtian", "ADM2_EN": "Bahawalnagar", "ADM1_EN": "Punjab", "ADM0_EN": "Pakistan" }, "geometry": { "type": "Point", "coordinates": [ 72.659036646623974, 29.861692702656171, -0.000041442866291 ] } },
{ "type": "Feature", "properties": { "OBJECTID_1": 204, "Join_Count": 1, "TARGET_FID": 204, "Lattitude": 29.873912046699999, "Longitude": 70.811668214099996, "Priority": 2.0, "ADM3_EN": "Kot Chatta", "ADM2_EN": "Dera Ghazi Khan", "ADM1_EN": "Punjab", "ADM0_EN": "Pakistan" }, "geometry": { "type": "Point", "coordinates": [ 70.811668214116821, 29.873912046703651, -0.000041442866291 ] } },
{ "type": "Feature", "properties": { "OBJECTID_1": 205, "Join_Count": 1, "TARGET_FID": 205, "Lattitude": 29.884702636899998, "Longitude": 70.841021462499995, "Priority": 2.0, "ADM3_EN": "Kot Chatta", "ADM2_EN": "Dera Ghazi Khan", "ADM1_EN": "Punjab", "ADM0_EN": "Pakistan" }, "geometry": { "type": "Point", "coordinates": [ 70.841021462470565, 29.884702636917211, -0.000041442866291 ] } },
{ "type": "Feature", "properties": { "OBJECTID_1": 206, "Join_Count": 1, "TARGET_FID": 206, "Lattitude": 29.819383676099999, "Longitude": 72.468440834299997, "Priority": 2.0, "ADM3_EN": "Hasilpur", "ADM2_EN": "Bahawalpur", "ADM1_EN": "Punjab", "ADM0_EN": "Pakistan" }, "geometry": { "type": "Point", "coordinates": [ 72.468440834277146, 29.81938367611582, -0.000041442866291 ] } },
{ "type": "Feature", "properties": { "OBJECTID_1": 207, "Join_Count": 1, "TARGET_FID": 207, "Lattitude": 29.849880997, "Longitude": 72.425314133300006, "Priority": 2.0, "ADM3_EN": "Vehari", "ADM2_EN": "Vehari", "ADM1_EN": "Punjab", "ADM0_EN": "Pakistan" }, "geometry": { "type": "Point", "coordinates": [ 72.425314133340635, 29.849880997010473, -0.000041442866291 ] } },
{ "type": "Feature", "properties": { "OBJECTID_1": 208, "Join_Count": 1, "TARGET_FID": 208, "Lattitude": 29.842529757800001, "Longitude": 72.3652495929, "Priority": 2.0, "ADM3_EN": "Mailsi", "ADM2_EN": "Vehari", "ADM1_EN": "Punjab", "ADM0_EN": "Pakistan" }, "geometry": { "type": "Point", "coordinates": [ 72.365249592894429, 29.842529757842101, -0.000041442866291 ] } },
{ "type": "Feature", "properties": { "OBJECTID_1": 209, "Join_Count": 1, "TARGET_FID": 209, "Lattitude": 29.824696289799999, "Longitude": 72.523171098199995, "Priority": 2.0, "ADM3_EN": "Hasilpur", "ADM2_EN": "Bahawalpur", "ADM1_EN": "Punjab", "ADM0_EN": "Pakistan" }, "geometry": { "type": "Point", "coordinates": [ 72.523171098167722, 29.824696289801977, -0.000041442866291 ] } },
{ "type": "Feature", "properties": { "OBJECTID_1": 210, "Join_Count": 1, "TARGET_FID": 210, "Lattitude": 29.746070741499999, "Longitude": 72.261200785, "Priority": 2.0, "ADM3_EN": "Khairpur Tamewali", "ADM2_EN": "Bahawalpur", "ADM1_EN": "Punjab", "ADM0_EN": "Pakistan" }, "geometry": { "type": "Point", "coordinates": [ 72.261200784988318, 29.746070741471613, -0.000041442866291 ] } },
{ "type": "Feature", "properties": { "OBJECTID_1": 211, "Join_Count": 1, "TARGET_FID": 211, "Lattitude": 29.797916666399999, "Longitude": 72.310416666899997, "Priority": 2.0, "ADM3_EN": "Hasilpur", "ADM2_EN": "Bahawalpur", "ADM1_EN": "Punjab", "ADM0_EN": "Pakistan" }, "geometry": { "type": "Point", "coordinates": [ 72.310416666895719, 29.797916666421088, -0.000041442866291 ] } },
{ "type": "Feature", "properties": { "OBJECTID_1": 212, "Join_Count": 1, "TARGET_FID": 212, "Lattitude": 29.772566630499998, "Longitude": 72.282685208299995, "Priority": 2.0, "ADM3_EN": "Khairpur Tamewali", "ADM2_EN": "Bahawalpur", "ADM1_EN": "Punjab", "ADM0_EN": "Pakistan" }, "geometry": { "type": "Point", "coordinates": [ 72.282685208255828, 29.772566630545612, -0.000041442866291 ] } },
{ "type": "Feature", "properties": { "OBJECTID_1": 213, "Join_Count": 1, "TARGET_FID": 213, "Lattitude": 29.7146362029, "Longitude": 71.156096242399997, "Priority": 2.0, "ADM3_EN": "Muzaffargarh", "ADM2_EN": "Muzaffargarh", "ADM1_EN": "Punjab", "ADM0_EN": "Pakistan" }, "geometry": { "type": "Point", "coordinates": [ 71.156096242447688, 29.714636202898475, -0.000041442866291 ] } },
{ "type": "Feature", "properties": { "OBJECTID_1": 214, "Join_Count": 1, "TARGET_FID": 214, "Lattitude": 29.676272513000001, "Longitude": 71.144726568899998, "Priority": 2.0, "ADM3_EN": "Jalalpur Pirwala", "ADM2_EN": "Multan", "ADM1_EN": "Punjab", "ADM0_EN": "Pakistan" }, "geometry": { "type": "Point", "coordinates": [ 71.144726568876081, 29.676272512966136, -0.000041442866291 ] } },
{ "type": "Feature", "properties": { "OBJECTID_1": 215, "Join_Count": 1, "TARGET_FID": 215, "Lattitude": 29.599564681699999, "Longitude": 71.051971726900007, "Priority": 2.0, "ADM3_EN": "Jalalpur Pirwala", "ADM2_EN": "Multan", "ADM1_EN": "Punjab", "ADM0_EN": "Pakistan" }, "geometry": { "type": "Point", "coordinates": [ 71.051971726913735, 29.599564681664788, -0.000041442866291 ] } },
{ "type": "Feature", "properties": { "OBJECTID_1": 217, "Join_Count": 1, "TARGET_FID": 217, "Lattitude": 29.599759222100001, "Longitude": 71.094933935599997, "Priority": 2.0, "ADM3_EN": "Jalalpur Pirwala", "ADM2_EN": "Multan", "ADM1_EN": "Punjab", "ADM0_EN": "Pakistan" }, "geometry": { "type": "Point", "coordinates": [ 71.094933935552717, 29.599759222110436, -0.000041442866291 ] } },
{ "type": "Feature", "properties": { "OBJECTID_1": 218, "Join_Count": 1, "TARGET_FID": 218, "Lattitude": 29.596566791600001, "Longitude": 72.131317908100002, "Priority": 2.0, "ADM3_EN": "Khairpur Tamewali", "ADM2_EN": "Bahawalpur", "ADM1_EN": "Punjab", "ADM0_EN": "Pakistan" }, "geometry": { "type": "Point", "coordinates": [ 72.131317908095014, 29.596566791624184, -0.000041442866291 ] } },
{ "type": "Feature", "properties": { "OBJECTID_1": 219, "Join_Count": 1, "TARGET_FID": 219, "Lattitude": 29.614067474500001, "Longitude": 72.161008774500004, "Priority": 2.0, "ADM3_EN": "Khairpur Tamewali", "ADM2_EN": "Bahawalpur", "ADM1_EN": "Punjab", "ADM0_EN": "Pakistan" }, "geometry": { "type": "Point", "coordinates": [ 72.161008774535389, 29.614067474534352, -0.000041442866291 ] } },
{ "type": "Feature", "properties": { "OBJECTID_1": 220, "Join_Count": 1, "TARGET_FID": 220, "Lattitude": 29.538087730800001, "Longitude": 72.076459730899998, "Priority": 2.0, "ADM3_EN": "Khairpur Tamewali", "ADM2_EN": "Bahawalpur", "ADM1_EN": "Punjab", "ADM0_EN": "Pakistan" }, "geometry": { "type": "Point", "coordinates": [ 72.076459730931902, 29.538087730764232, -0.000041442866291 ] } },
{ "type": "Feature", "properties": { "OBJECTID_1": 221, "Join_Count": 1, "TARGET_FID": 221, "Lattitude": 29.4999999996, "Longitude": 71.950000000200006, "Priority": 2.0, "ADM3_EN": "Khairpur Tamewali", "ADM2_EN": "Bahawalpur", "ADM1_EN": "Punjab", "ADM0_EN": "Pakistan" }, "geometry": { "type": "Point", "coordinates": [ 71.950000000199907, 29.499999999600334, -0.000041442866291 ] } },
{ "type": "Feature", "properties": { "OBJECTID_1": 222, "Join_Count": 1, "TARGET_FID": 222, "Lattitude": 29.457112685599999, "Longitude": 70.710219799499995, "Priority": 2.0, "ADM3_EN": "Jatoi", "ADM2_EN": "Muzaffargarh", "ADM1_EN": "Punjab", "ADM0_EN": "Pakistan" }, "geometry": { "type": "Point", "coordinates": [ 70.710219799504216, 29.457112685601999, -0.000041442866291 ] } },
{ "type": "Feature", "properties": { "OBJECTID_1": 223, "Join_Count": 1, "TARGET_FID": 223, "Lattitude": 29.510416667000001, "Longitude": 70.685416666500004, "Priority": 2.0, "ADM3_EN": "Jampur", "ADM2_EN": "Rajanpur", "ADM1_EN": "Punjab", "ADM0_EN": "Pakistan" }, "geometry": { "type": "Point", "coordinates": [ 70.685416666545962, 29.510416666995638, -0.000041442866291 ] } },
{ "type": "Feature", "properties": { "OBJECTID_1": 224, "Join_Count": 1, "TARGET_FID": 224, "Lattitude": 29.491982235999998, "Longitude": 71.976020049900001, "Priority": 2.0, "ADM3_EN": "Khairpur Tamewali", "ADM2_EN": "Bahawalpur", "ADM1_EN": "Punjab", "ADM0_EN": "Pakistan" }, "geometry": { "type": "Point", "coordinates": [ 71.976020049885449, 29.491982235991429, -0.000041442866291 ] } },
{ "type": "Feature", "properties": { "OBJECTID_1": 225, "Join_Count": 1, "TARGET_FID": 225, "Lattitude": 29.4793980703, "Longitude": 71.721405559700003, "Priority": 2.0, "ADM3_EN": "Bahawalpur", "ADM2_EN": "Bahawalpur", "ADM1_EN": "Punjab", "ADM0_EN": "Pakistan" }, "geometry": { "type": "Point", "coordinates": [ 71.721405559718846, 29.479398070264779, -0.000041442866291 ] } },
{ "type": "Feature", "properties": { "OBJECTID_1": 226, "Join_Count": 1, "TARGET_FID": 226, "Lattitude": 29.454451509799998, "Longitude": 71.770172669100006, "Priority": 2.0, "ADM3_EN": "Bahawalpur", "ADM2_EN": "Bahawalpur", "ADM1_EN": "Punjab", "ADM0_EN": "Pakistan" }, "geometry": { "type": "Point", "coordinates": [ 71.770172669133444, 29.454451509829369, -0.000041442866291 ] } },
{ "type": "Feature", "properties": { "OBJECTID_1": 227, "Join_Count": 1, "TARGET_FID": 227, "Lattitude": 29.428382173700001, "Longitude": 71.168507721300003, "Priority": 2.0, "ADM3_EN": "Ahmadpur East", "ADM2_EN": "Bahawalpur", "ADM1_EN": "Punjab", "ADM0_EN": "Pakistan" }, "geometry": { "type": "Point", "coordinates": [ 71.1685077212544, 29.428382173698424, -0.000041442866291 ] } },
{ "type": "Feature", "properties": { "OBJECTID_1": 228, "Join_Count": 1, "TARGET_FID": 228, "Lattitude": 29.4244082351, "Longitude": 71.260039914199993, "Priority": 2.0, "ADM3_EN": "Ahmadpur East", "ADM2_EN": "Bahawalpur", "ADM1_EN": "Punjab", "ADM0_EN": "Pakistan" }, "geometry": { "type": "Point", "coordinates": [ 71.260039914210722, 29.424408235052056, -0.000041442866291 ] } },
{ "type": "Feature", "properties": { "OBJECTID_1": 229, "Join_Count": 1, "TARGET_FID": 229, "Lattitude": 29.414583333300001, "Longitude": 71.193750000400001, "Priority": 2.0, "ADM3_EN": "Ahmadpur East", "ADM2_EN": "Bahawalpur", "ADM1_EN": "Punjab", "ADM0_EN": "Pakistan" }, "geometry": { "type": "Point", "coordinates": [ 71.193750000362286, 29.414583333254257, -0.000041442866291 ] } },
{ "type": "Feature", "properties": { "OBJECTID_1": 230, "Join_Count": 1, "TARGET_FID": 230, "Lattitude": 29.343186810700001, "Longitude": 71.018215753099994, "Priority": 2.0, "ADM3_EN": "Ahmadpur East", "ADM2_EN": "Bahawalpur", "ADM1_EN": "Punjab", "ADM0_EN": "Pakistan" }, "geometry": { "type": "Point", "coordinates": [ 71.018215753054619, 29.343186810722784, -0.000041442866291 ] } },
{ "type": "Feature", "properties": { "OBJECTID_1": 231, "Join_Count": 1, "TARGET_FID": 231, "Lattitude": 29.1452111752, "Longitude": 70.668544478399994, "Priority": 2.0, "ADM3_EN": "Alipur", "ADM2_EN": "Muzaffargarh", "ADM1_EN": "Punjab", "ADM0_EN": "Pakistan" }, "geometry": { "type": "Point", "coordinates": [ 70.668544478444971, 29.14521117515568, -0.000041442866291 ] } },
{ "type": "Feature", "properties": { "OBJECTID_1": 232, "Join_Count": 1, "TARGET_FID": 232, "Lattitude": 28.8800245041, "Longitude": 70.490671482099998, "Priority": 2.0, "ADM3_EN": "Khanpur", "ADM2_EN": "Rahim Yar Khan", "ADM1_EN": "Punjab", "ADM0_EN": "Pakistan" }, "geometry": { "type": "Point", "coordinates": [ 70.490671482103266, 28.880024504127618, -0.000041442866291 ] } },
{ "type": "Feature", "properties": { "OBJECTID_1": 233, "Join_Count": 1, "TARGET_FID": 233, "Lattitude": 28.903832394199998, "Longitude": 70.420541842600002, "Priority": 2.0, "ADM3_EN": "Khanpur", "ADM2_EN": "Rahim Yar Khan", "ADM1_EN": "Punjab", "ADM0_EN": "Pakistan" }, "geometry": { "type": "Point", "coordinates": [ 70.420541842631962, 28.903832394249662, -0.000041442866291 ] } },
{ "type": "Feature", "properties": { "OBJECTID_1": 234, "Join_Count": 1, "TARGET_FID": 234, "Lattitude": 28.521858612100001, "Longitude": 69.918220511800001, "Priority": 2.0, "ADM3_EN": "Rojhan", "ADM2_EN": "Rajanpur", "ADM1_EN": "Punjab", "ADM0_EN": "Pakistan" }, "geometry": { "type": "Point", "coordinates": [ 69.918220511767288, 28.521858612085339, -0.000041442866291 ] } },
{ "type": "Feature", "properties": { "OBJECTID_1": 235, "Join_Count": 1, "TARGET_FID": 235, "Lattitude": 28.4876899339, "Longitude": 69.806451312799993, "Priority": 2.0, "ADM3_EN": "Rojhan", "ADM2_EN": "Rajanpur", "ADM1_EN": "Punjab", "ADM0_EN": "Pakistan" }, "geometry": { "type": "Point", "coordinates": [ 69.806451312777938, 28.487689933943329, -0.000041442866291 ] } },
{ "type": "Feature", "properties": { "OBJECTID_1": 236, "Join_Count": 1, "TARGET_FID": 236, "Lattitude": 28.452083333400001, "Longitude": 69.7437499997, "Priority": 2.0, "ADM3_EN": "Rojhan", "ADM2_EN": "Rajanpur", "ADM1_EN": "Punjab", "ADM0_EN": "Pakistan" }, "geometry": { "type": "Point", "coordinates": [ 69.743749999662782, 28.452083333379164, -0.000041442866291 ] } },
{ "type": "Feature", "properties": { "OBJECTID_1": 237, "Join_Count": 1, "TARGET_FID": 237, "Lattitude": 28.389583333499999, "Longitude": 69.702083333700003, "Priority": 2.0, "ADM3_EN": "Kashmore", "ADM2_EN": "Kashmore", "ADM1_EN": "Sindh", "ADM0_EN": "Pakistan" }, "geometry": { "type": "Point", "coordinates": [ 69.702083333678956, 28.389583333504106, -0.000041442866291 ] } },
{ "type": "Feature", "properties": { "OBJECTID_1": 238, "Join_Count": 1, "TARGET_FID": 238, "Lattitude": 28.077083333200001, "Longitude": 69.14375, "Priority": 2.0, "ADM3_EN": "Kandh Kot", "ADM2_EN": "Kashmore", "ADM1_EN": "Sindh", "ADM0_EN": "Pakistan" }, "geometry": { "type": "Point", "coordinates": [ 69.143749999962608, 28.077083333229268, -0.000041442866291 ] } },
{ "type": "Feature", "properties": { "OBJECTID_1": 239, "Join_Count": 1, "TARGET_FID": 239, "Lattitude": 27.919400464, "Longitude": 68.932758883800005, "Priority": 2.0, "ADM3_EN": "Pano Aqil", "ADM2_EN": "Sukkur", "ADM1_EN": "Sindh", "ADM0_EN": "Pakistan" }, "geometry": { "type": "Point", "coordinates": [ 68.932758883815495, 27.919400463960301, -0.000041442866291 ] } },
{ "type": "Feature", "properties": { "OBJECTID_1": 240, "Join_Count": 1, "TARGET_FID": 240, "Lattitude": 27.731184848600002, "Longitude": 68.675496910999996, "Priority": 2.0, "ADM3_EN": "Kingri", "ADM2_EN": "Khairpur", "ADM1_EN": "Sindh", "ADM0_EN": "Pakistan" }, "geometry": { "type": "Point", "coordinates": [ 68.675496910953711, 27.731184848601913, -0.000041442866291 ] } },
{ "type": "Feature", "properties": { "OBJECTID_1": 241, "Join_Count": 1, "TARGET_FID": 241, "Lattitude": 27.701108570500001, "Longitude": 68.451929475699998, "Priority": 2.0, "ADM3_EN": "Garhi Yasin", "ADM2_EN": "Shikarpur", "ADM1_EN": "Sindh", "ADM0_EN": "Pakistan" }, "geometry": { "type": "Point", "coordinates": [ 68.451929475664826, 27.701108570504175, -0.000041442866291 ] } },
{ "type": "Feature", "properties": { "OBJECTID_1": 242, "Join_Count": 1, "TARGET_FID": 242, "Lattitude": 27.3520833338, "Longitude": 68.197916667000001, "Priority": 2.0, "ADM3_EN": "Baqrani", "ADM2_EN": "Larkana", "ADM1_EN": "Sindh", "ADM0_EN": "Pakistan" }, "geometry": { "type": "Point", "coordinates": [ 68.19791666702065, 27.352083333778864, -0.000041442866291 ] } },
{ "type": "Feature", "properties": { "OBJECTID_1": 243, "Join_Count": 1, "TARGET_FID": 243, "Lattitude": 26.947916666699999, "Longitude": 67.9312499997, "Priority": 2.0, "ADM3_EN": "Kandiaro", "ADM2_EN": "Naushahro Feroze", "ADM1_EN": "Sindh", "ADM0_EN": "Pakistan" }, "geometry": { "type": "Point", "coordinates": [ 67.931249999687793, 26.947916666720857, -0.000041442866291 ] } },
{ "type": "Feature", "properties": { "OBJECTID_1": 244, "Join_Count": 1, "TARGET_FID": 244, "Lattitude": 26.556588833599999, "Longitude": 67.925567903100003, "Priority": 2.0, "ADM3_EN": "Moro", "ADM2_EN": "Naushahro Feroze", "ADM1_EN": "Sindh", "ADM0_EN": "Pakistan" }, "geometry": { "type": "Point", "coordinates": [ 67.925567903136255, 26.556588833607861, -0.000041442866291 ] } },
{ "type": "Feature", "properties": { "OBJECTID_1": 245, "Join_Count": 1, "TARGET_FID": 245, "Lattitude": 26.572162728, "Longitude": 67.876938265000007, "Priority": 2.0, "ADM3_EN": "Moro", "ADM2_EN": "Naushahro Feroze", "ADM1_EN": "Sindh", "ADM0_EN": "Pakistan" }, "geometry": { "type": "Point", "coordinates": [ 67.876938264989008, 26.572162728027536, -0.000041442866291 ] } },
{ "type": "Feature", "properties": { "OBJECTID_1": 246, "Join_Count": 1, "TARGET_FID": 246, "Lattitude": 26.410573002300001, "Longitude": 67.8773343732, "Priority": 2.0, "ADM3_EN": "Sehwan Sharif", "ADM2_EN": "Jamshoro", "ADM1_EN": "Sindh", "ADM0_EN": "Pakistan" }, "geometry": { "type": "Point", "coordinates": [ 67.877334373182805, 26.410573002342232, -0.000041442866291 ] } },
{ "type": "Feature", "properties": { "OBJECTID_1": 247, "Join_Count": 1, "TARGET_FID": 247, "Lattitude": 26.177083333399999, "Longitude": 68.0270833334, "Priority": 2.0, "ADM3_EN": "Sakrand", "ADM2_EN": "Shaheed Benazir Abad", "ADM1_EN": "Sindh", "ADM0_EN": "Pakistan" }, "geometry": { "type": "Point", "coordinates": [ 68.027083333429175, 26.177083333429152, -0.000041442866291 ] } },
{ "type": "Feature", "properties": { "OBJECTID_1": 248, "Join_Count": 1, "TARGET_FID": 248, "Lattitude": 26.0562499997, "Longitude": 68.127083333200005, "Priority": 2.0, "ADM3_EN": "Sakrand", "ADM2_EN": "Shaheed Benazir Abad", "ADM1_EN": "Sindh", "ADM0_EN": "Pakistan" }, "geometry": { "type": "Point", "coordinates": [ 68.12708333322928, 26.056249999737759, -0.000041442866291 ] } },
{ "type": "Feature", "properties": { "OBJECTID_1": 249, "Join_Count": 1, "TARGET_FID": 249, "Lattitude": 25.924225850500001, "Longitude": 68.270891175100004, "Priority": 2.0, "ADM3_EN": "Hala", "ADM2_EN": "Matiari", "ADM1_EN": "Sindh", "ADM0_EN": "Pakistan" }, "geometry": { "type": "Point", "coordinates": [ 68.270891175087741, 25.924225850542598, -0.000041442866291 ] } },
{ "type": "Feature", "properties": { "OBJECTID_1": 250, "Join_Count": 1, "TARGET_FID": 250, "Lattitude": 25.8770833331, "Longitude": 68.343749999799996, "Priority": 2.0, "ADM3_EN": "Hala", "ADM2_EN": "Matiari", "ADM1_EN": "Sindh", "ADM0_EN": "Pakistan" }, "geometry": { "type": "Point", "coordinates": [ 68.343749999762736, 25.877083333129349, -0.000041442866291 ] } },
{ "type": "Feature", "properties": { "OBJECTID_1": 251, "Join_Count": 1, "TARGET_FID": 251, "Lattitude": 25.701120804399999, "Longitude": 68.334619036399999, "Priority": 2.0, "ADM3_EN": "Manjhand", "ADM2_EN": "Jamshoro", "ADM1_EN": "Sindh", "ADM0_EN": "Pakistan" }, "geometry": { "type": "Point", "coordinates": [ 68.334619036439449, 25.701120804381674, -0.000041442866291 ] } },
{ "type": "Feature", "properties": { "OBJECTID_1": 252, "Join_Count": 1, "TARGET_FID": 252, "Lattitude": 25.6854166665, "Longitude": 68.406249999600007, "Priority": 2.0, "ADM3_EN": "Kotri", "ADM2_EN": "Jamshoro", "ADM1_EN": "Sindh", "ADM0_EN": "Pakistan" }, "geometry": { "type": "Point", "coordinates": [ 68.406249999637851, 25.685416666545962, -0.000041442866291 ] } },
{ "type": "Feature", "properties": { "OBJECTID_1": 253, "Join_Count": 1, "TARGET_FID": 253, "Lattitude": 25.598794689199998, "Longitude": 68.364570342899995, "Priority": 2.0, "ADM3_EN": "Matiari", "ADM2_EN": "Matiari", "ADM1_EN": "Sindh", "ADM0_EN": "Pakistan" }, "geometry": { "type": "Point", "coordinates": [ 68.364570342947047, 25.598794689223553, -0.000041442866291 ] } },
{ "type": "Feature", "properties": { "OBJECTID_1": 254, "Join_Count": 1, "TARGET_FID": 254, "Lattitude": 25.229690955599999, "Longitude": 68.322506427500002, "Priority": 2.0, "ADM3_EN": "Thatta", "ADM2_EN": "Thatta", "ADM1_EN": "Sindh", "ADM0_EN": "Pakistan" }, "geometry": { "type": "Point", "coordinates": [ 68.322506427529675, 25.229690955573176, -0.000041442866291 ] } },
{ "type": "Feature", "properties": { "OBJECTID_1": 255, "Join_Count": 1, "TARGET_FID": 255, "Lattitude": 24.981250000100001, "Longitude": 68.268749999899995, "Priority": 2.0, "ADM3_EN": "Mirpur Bathoro", "ADM2_EN": "Sujawal", "ADM1_EN": "Sindh", "ADM0_EN": "Pakistan" }, "geometry": { "type": "Point", "coordinates": [ 68.268749999912643, 24.981250000087471, -0.000041442866291 ] } },
{ "type": "Feature", "properties": { "OBJECTID_1": 256, "Join_Count": 1, "TARGET_FID": 256, "Lattitude": 24.851625031699999, "Longitude": 68.067080054599998, "Priority": 2.0, "ADM3_EN": "Sujawal", "ADM2_EN": "Sujawal", "ADM1_EN": "Sindh", "ADM0_EN": "Pakistan" }, "geometry": { "type": "Point", "coordinates": [ 68.067080054600922, 24.851625031669926, -0.000041442866291 ] } },
{ "type": "Feature", "properties": { "OBJECTID_1": 257, "Join_Count": 1, "TARGET_FID": 257, "Lattitude": 24.6393799224, "Longitude": 67.991583442800007, "Priority": 2.0, "ADM3_EN": "Sujawal", "ADM2_EN": "Sujawal", "ADM1_EN": "Sindh", "ADM0_EN": "Pakistan" }, "geometry": { "type": "Point", "coordinates": [ 67.991583442821707, 24.639379922445528, -0.000041442866291 ] } },
{ "type": "Feature", "properties": { "OBJECTID_1": 258, "Join_Count": 1, "TARGET_FID": 258, "Lattitude": 24.419080116300002, "Longitude": 67.848865346400004, "Priority": 2.0, "ADM3_EN": "Shah Bunder", "ADM2_EN": "Sujawal", "ADM1_EN": "Sindh", "ADM0_EN": "Pakistan" }, "geometry": { "type": "Point", "coordinates": [ 67.848865346358707, 24.419080116254406, -0.000041442866291 ] } }
]
}
