{"type": "FeatureCollection", "name": "final_300_points", "crs": {"type": "name", "properties": {"name": "urn:ogc:def:crs:OGC:1.3:CRS84"}}, "features": [{"type": "Feature", "properties": {"OBJECTID_1": 259, "Join_Count": 1, "TARGET_FID": 259, "Lattitude": 36.0653072301, "Longitude": 72.0360892389, "Priority": 1.0, "ADM3_EN": "Lotkoh", "ADM2_EN": "Chitral Lower", "ADM1_EN": "Khyber Pakhtunkhwa", "ADM0_EN": "Pakistan"}, "geometry": {"type": "Point", "coordinates": [72.03608923892727, 36.06530723014458, -4.144286629070848e-05]}}, {"type": "Feature", "properties": {"OBJECTID_1": 260, "Join_Count": 1, "TARGET_FID": 260, "Lattitude": 35.5191116324, "Longitude": 71.7510524583, "Priority": 1.0, "ADM3_EN": "Drosh", "ADM2_EN": "Chitral Lower", "ADM1_EN": "Khyber Pakhtunkhwa", "ADM0_EN": "Pakistan"}, "geometry": {"type": "Point", "coordinates": [71.75105245830434, 35.51911163239595, -4.144286629070848e-05]}}, {"type": "Feature", "properties": {"OBJECTID_1": 261, "Join_Count": 1, "TARGET_FID": 261, "Lattitude": 35.458669222, "Longitude": 71.7239675358, "Priority": 1.0, "ADM3_EN": "Drosh", "ADM2_EN": "Chitral Lower", "ADM1_EN": "Khyber Pakhtunkhwa", "ADM0_EN": "Pakistan"}, "geometry": {"type": "Point", "coordinates": [71.72396753577323, 35.45866922200702, -4.144286629070848e-05]}}, {"type": "Feature", "properties": {"OBJECTID_1": 262, "Join_Count": 1, "TARGET_FID": 262, "Lattitude": 35.5319495427, "Longitude": 73.7256377581, "Priority": 1.0, "ADM3_EN": "Darel", "ADM2_EN": "Darel", "ADM1_EN": "Gilgit Baltistan", "ADM0_EN": "Pakistan"}, "geometry": {"type": "Point", "coordinates": [73.72563775807612, 35.531949542737266, -4.144286629070848e-05]}}, {"type": "Feature", "properties": {"OBJECTID_1": 263, "Join_Count": 1, "TARGET_FID": 263, "Lattitude": 35.4846294461, "Longitude": 73.2871414576, "Priority": 1.0, "ADM3_EN": "Seo", "ADM2_EN": "Kohistan Upper", "ADM1_EN": "Khyber Pakhtunkhwa", "ADM0_EN": "Pakistan"}, "geometry": {"type": "Point", "coordinates": [73.28714145761222, 35.48462944609213, -4.144286629070848e-05]}}, {"type": "Feature", "properties": {"OBJECTID_1": 264, "Join_Count": 1, "TARGET_FID": 264, "Lattitude": 35.4117697832, "Longitude": 74.3075435493, "Priority": 1.0, "ADM3_EN": "Chilas", "ADM2_EN": "Diamir", "ADM1_EN": "Gilgit Baltistan", "ADM0_EN": "Pakistan"}, "geometry": {"type": "Point", "coordinates": [74.30754354929542, 35.41176978324893, -4.144286629070848e-05]}}, {"type": "Feature", "properties": {"OBJECTID_1": 265, "Join_Count": 1, "TARGET_FID": 265, "Lattitude": 34.7164726517, "Longitude": 72.2626027273, "Priority": 1.0, "ADM3_EN": "Barikot", "ADM2_EN": "Swat", "ADM1_EN": "Khyber Pakhtunkhwa", "ADM0_EN": "Pakistan"}, "geometry": {"type": "Point", "coordinates": [72.26260272733407, 34.71647265169156, -4.144286629070848e-05]}}, {"type": "Feature", "properties": {"OBJECTID_1": 266, "Join_Count": 1, "TARGET_FID": 266, "Lattitude": 34.6354167377, "Longitude": 71.997710587, "Priority": 1.0, "ADM3_EN": "Adenzai", "ADM2_EN": "Lower Dir", "ADM1_EN": "Khyber Pakhtunkhwa", "ADM0_EN": "Pakistan"}, "geometry": {"type": "Point", "coordinates": [71.99771058697405, 34.63541673769237, -4.144286629070848e-05]}}, {"type": "Feature", "properties": {"OBJECTID_1": 267, "Join_Count": 1, "TARGET_FID": 267, "Lattitude": 34.3297548612, "Longitude": 71.5704179156, "Priority": 1.0, "ADM3_EN": "Shabqadar", "ADM2_EN": "Charsadda", "ADM1_EN": "Khyber Pakhtunkhwa", "ADM0_EN": "Pakistan"}, "geometry": {"type": "Point", "coordinates": [71.5704179155544, 34.329754861197955, -4.144286629070848e-05]}}, {"type": "Feature", "properties": {"OBJECTID_1": 268, "Join_Count": 1, "TARGET_FID": 268, "Lattitude": 34.0948190222, "Longitude": 71.6993452115, "Priority": 1.0, "ADM3_EN": "Town-Ii", "ADM2_EN": "Peshawar", "ADM1_EN": "Khyber Pakhtunkhwa", "ADM0_EN": "Pakistan"}, "geometry": {"type": "Point", "coordinates": [71.69934521151237, 34.09481902218016, -4.144286629070848e-05]}}, {"type": "Feature", "properties": {"OBJECTID_1": 269, "Join_Count": 1, "TARGET_FID": 269, "Lattitude": 34.0703093011, "Longitude": 71.7823053824, "Priority": 1.0, "ADM3_EN": "Pabbi", "ADM2_EN": "Nowshera", "ADM1_EN": "Khyber Pakhtunkhwa", "ADM0_EN": "Pakistan"}, "geometry": {"type": "Point", "coordinates": [71.78230538238756, 34.07030930113342, -4.144286629070848e-05]}}, {"type": "Feature", "properties": {"OBJECTID_1": 270, "Join_Count": 1, "TARGET_FID": 270, "Lattitude": 34.03125, "Longitude": 71.84375, "Priority": 1.0, "ADM3_EN": "Nowshera", "ADM2_EN": "Nowshera", "ADM1_EN": "Khyber Pakhtunkhwa", "ADM0_EN": "Pakistan"}, "geometry": {"type": "Point", "coordinates": [71.8437499999626, 34.03124999998755, -4.144286629070848e-05]}}, {"type": "Feature", "properties": {"OBJECTID_1": 271, "Join_Count": 1, "TARGET_FID": 271, "Lattitude": 33.0229166663, "Longitude": 71.7187500002, "Priority": 1.0, "ADM3_EN": "Isakhel", "ADM2_EN": "Mianwali", "ADM1_EN": "Punjab", "ADM0_EN": "Pakistan"}, "geometry": {"type": "Point", "coordinates": [71.71875000021242, 33.02291666627116, -4.144286629070848e-05]}}, {"type": "Feature", "properties": {"OBJECTID_1": 272, "Join_Count": 1, "TARGET_FID": 272, "Lattitude": 32.9229166665, "Longitude": 71.5312499997, "Priority": 1.0, "ADM3_EN": "Isakhel", "ADM2_EN": "Mianwali", "ADM1_EN": "Punjab", "ADM0_EN": "Pakistan"}, "geometry": {"type": "Point", "coordinates": [71.53124999968782, 32.92291666647105, -4.144286629070848e-05]}}, {"type": "Feature", "properties": {"OBJECTID_1": 273, "Join_Count": 1, "TARGET_FID": 273, "Lattitude": 32.7088321775, "Longitude": 74.4850631247, "Priority": 1.0, "ADM3_EN": "Sialkot", "ADM2_EN": "Sialkot", "ADM1_EN": "Punjab", "ADM0_EN": "Pakistan"}, "geometry": {"type": "Point", "coordinates": [74.48506312466355, 32.70883217746308, -4.144286629070848e-05]}}, {"type": "Feature", "properties": {"OBJECTID_1": 274, "Join_Count": 1, "TARGET_FID": 274, "Lattitude": 32.4639131722, "Longitude": 74.0722016304, "Priority": 1.0, "ADM3_EN": "Wazirabad", "ADM2_EN": "Gujranwala", "ADM1_EN": "Punjab", "ADM0_EN": "Pakistan"}, "geometry": {"type": "Point", "coordinates": [74.07220163040097, 32.46391317215523, -4.144286629070848e-05]}}, {"type": "Feature", "properties": {"OBJECTID_1": 275, "Join_Count": 1, "TARGET_FID": 275, "Lattitude": 32.3779877207, "Longitude": 72.513337106, "Priority": 1.0, "ADM3_EN": "Khushab", "ADM2_EN": "Khushab", "ADM1_EN": "Punjab", "ADM0_EN": "Pakistan"}, "geometry": {"type": "Point", "coordinates": [72.51333710602268, 32.37798772065685, -4.144286629070848e-05]}}, {"type": "Feature", "properties": {"OBJECTID_1": 276, "Join_Count": 1, "TARGET_FID": 276, "Lattitude": 32.4449048361, "Longitude": 74.006424885, "Priority": 1.0, "ADM3_EN": "Gujrat", "ADM2_EN": "Gujrat", "ADM1_EN": "Punjab", "ADM0_EN": "Pakistan"}, "geometry": {"type": "Point", "coordinates": [74.00642488500051, 32.44490483608939, -4.144286629070848e-05]}}, {"type": "Feature", "properties": {"OBJECTID_1": 277, "Join_Count": 1, "TARGET_FID": 277, "Lattitude": 32.322709606, "Longitude": 72.465863201, "Priority": 1.0, "ADM3_EN": "Khushab", "ADM2_EN": "Khushab", "ADM1_EN": "Punjab", "ADM0_EN": "Pakistan"}, "geometry": {"type": "Point", "coordinates": [72.46586320102597, 32.32270960596361, -4.144286629070848e-05]}}, {"type": "Feature", "properties": {"OBJECTID_1": 278, "Join_Count": 1, "TARGET_FID": 278, "Lattitude": 32.326539975, "Longitude": 73.7101765415, "Priority": 1.0, "ADM3_EN": "Wazirabad", "ADM2_EN": "Gujranwala", "ADM1_EN": "Punjab", "ADM0_EN": "Pakistan"}, "geometry": {"type": "Point", "coordinates": [73.71017654151422, 32.32653997503985, -4.144286629070848e-05]}}, {"type": "Feature", "properties": {"OBJECTID_1": 279, "Join_Count": 1, "TARGET_FID": 279, "Lattitude": 32.2086850071, "Longitude": 73.4258438311, "Priority": 1.0, "ADM3_EN": "Phalia", "ADM2_EN": "Mandi Bahauddin", "ADM1_EN": "Punjab", "ADM0_EN": "Pakistan"}, "geometry": {"type": "Point", "coordinates": [73.42584383112796, 32.20868500710742, -4.144286629070848e-05]}}, {"type": "Feature", "properties": {"OBJECTID_1": 280, "Join_Count": 1, "TARGET_FID": 280, "Lattitude": 31.9779727774, "Longitude": 71.0473398865, "Priority": 1.0, "ADM3_EN": "Paharpur", "ADM2_EN": "D. I. Khan", "ADM1_EN": "Khyber Pakhtunkhwa", "ADM0_EN": "Pakistan"}, "geometry": {"type": "Point", "coordinates": [71.04733988652657, 31.97797277742177, -4.144286629070848e-05]}}, {"type": "Feature", "properties": {"OBJECTID_1": 281, "Join_Count": 1, "TARGET_FID": 281, "Lattitude": 31.9267291491, "Longitude": 72.2346917505, "Priority": 1.0, "ADM3_EN": "Noorpur", "ADM2_EN": "Khushab", "ADM1_EN": "Punjab", "ADM0_EN": "Pakistan"}, "geometry": {"type": "Point", "coordinates": [72.23469175052395, 31.926729149131006, -4.144286629070848e-05]}}, {"type": "Feature", "properties": {"OBJECTID_1": 282, "Join_Count": 1, "TARGET_FID": 282, "Lattitude": 31.7928007287, "Longitude": 73.0061689094, "Priority": 1.0, "ADM3_EN": "Chiniot", "ADM2_EN": "Chiniot", "ADM1_EN": "Punjab", "ADM0_EN": "Pakistan"}, "geometry": {"type": "Point", "coordinates": [73.00616890936772, 31.792800728670727, -4.144286629070848e-05]}}, {"type": "Feature", "properties": {"OBJECTID_1": 283, "Join_Count": 1, "TARGET_FID": 283, "Lattitude": 31.3104839884, "Longitude": 70.7298577869, "Priority": 1.0, "ADM3_EN": "Taunsa", "ADM2_EN": "Dera Ghazi Khan", "ADM1_EN": "Punjab", "ADM0_EN": "Pakistan"}, "geometry": {"type": "Point", "coordinates": [70.72985778690742, 31.310483988445355, -4.144286629070848e-05]}}, {"type": "Feature", "properties": {"OBJECTID_1": 284, "Join_Count": 1, "TARGET_FID": 284, "Lattitude": 31.229068253, "Longitude": 72.2209199932, "Priority": 1.0, "ADM3_EN": "Jhang", "ADM2_EN": "Jhang", "ADM1_EN": "Punjab", "ADM0_EN": "Pakistan"}, "geometry": {"type": "Point", "coordinates": [72.22091999316319, 31.229068252997536, -4.144286629070848e-05]}}, {"type": "Feature", "properties": {"OBJECTID_1": 285, "Join_Count": 1, "TARGET_FID": 285, "Lattitude": 31.168002598, "Longitude": 72.1393327003, "Priority": 1.0, "ADM3_EN": "Athara Hazari", "ADM2_EN": "Jhang", "ADM1_EN": "Punjab", "ADM0_EN": "Pakistan"}, "geometry": {"type": "Point", "coordinates": [72.13933270034391, 31.16800259804154, -4.144286629070848e-05]}}, {"type": "Feature", "properties": {"OBJECTID_1": 286, "Join_Count": 1, "TARGET_FID": 286, "Lattitude": 31.1979166663, "Longitude": 73.7270833337, "Priority": 1.0, "ADM3_EN": "Nankana Sahib", "ADM2_EN": "Nankana Sahib", "ADM1_EN": "Punjab", "ADM0_EN": "Pakistan"}, "geometry": {"type": "Point", "coordinates": [73.7270833337289, 31.197916666321134, -4.144286629070848e-05]}}, {"type": "Feature", "properties": {"OBJECTID_1": 287, "Join_Count": 1, "TARGET_FID": 287, "Lattitude": 31.1187500004, "Longitude": 73.5187500002, "Priority": 1.0, "ADM3_EN": "Nankana Sahib", "ADM2_EN": "Nankana Sahib", "ADM1_EN": "Punjab", "ADM0_EN": "Pakistan"}, "geometry": {"type": "Point", "coordinates": [73.51875000021238, 31.118750000412263, -4.144286629070848e-05]}}, {"type": "Feature", "properties": {"OBJECTID_1": 288, "Join_Count": 1, "TARGET_FID": 288, "Lattitude": 30.6881796509, "Longitude": 70.7986041495, "Priority": 1.0, "ADM3_EN": "Leiah", "ADM2_EN": "Leiah", "ADM1_EN": "Punjab", "ADM0_EN": "Pakistan"}, "geometry": {"type": "Point", "coordinates": [70.798604149462, 30.688179650870268, -4.144286629070848e-05]}}, {"type": "Feature", "properties": {"OBJECTID_1": 289, "Join_Count": 1, "TARGET_FID": 289, "Lattitude": 30.7798968119, "Longitude": 73.0041943597, "Priority": 1.0, "ADM3_EN": "Sahiwal", "ADM2_EN": "Sahiwal", "ADM1_EN": "Punjab", "ADM0_EN": "Pakistan"}, "geometry": {"type": "Point", "coordinates": [73.004194359682, 30.77989681188842, -4.144286629070848e-05]}}, {"type": "Feature", "properties": {"OBJECTID_1": 290, "Join_Count": 1, "TARGET_FID": 290, "Lattitude": 30.6270833335, "Longitude": 71.822916667, "Priority": 1.0, "ADM3_EN": "Kabirwala", "ADM2_EN": "Khanewal", "ADM1_EN": "Punjab", "ADM0_EN": "Pakistan"}, "geometry": {"type": "Point", "coordinates": [71.82291666697068, 30.62708333352907, -4.144286629070848e-05]}}, {"type": "Feature", "properties": {"OBJECTID_1": 291, "Join_Count": 1, "TARGET_FID": 291, "Lattitude": 30.6480338347, "Longitude": 72.746406216, "Priority": 1.0, "ADM3_EN": "Kamalia", "ADM2_EN": "Toba Tek Singh", "ADM1_EN": "Punjab", "ADM0_EN": "Pakistan"}, "geometry": {"type": "Point", "coordinates": [72.74640621597416, 30.648033834693763, -4.144286629070848e-05]}}, {"type": "Feature", "properties": {"OBJECTID_1": 292, "Join_Count": 1, "TARGET_FID": 292, "Lattitude": 30.5702905851, "Longitude": 72.2008840459, "Priority": 1.0, "ADM3_EN": "Kamalia", "ADM2_EN": "Toba Tek Singh", "ADM1_EN": "Punjab", "ADM0_EN": "Pakistan"}, "geometry": {"type": "Point", "coordinates": [72.2008840458621, 30.57029058514246, -4.144286629070848e-05]}}, {"type": "Feature", "properties": {"OBJECTID_1": 293, "Join_Count": 1, "TARGET_FID": 293, "Lattitude": 30.2562500003, "Longitude": 71.377083333, "Priority": 1.0, "ADM3_EN": "Multan Saddar", "ADM2_EN": "Multan", "ADM1_EN": "Punjab", "ADM0_EN": "Pakistan"}, "geometry": {"type": "Point", "coordinates": [71.37708333302947, 30.256250000337275, -4.144286629070848e-05]}}, {"type": "Feature", "properties": {"OBJECTID_1": 294, "Join_Count": 1, "TARGET_FID": 294, "Lattitude": 30.3270833332, "Longitude": 73.6854166668, "Priority": 1.0, "ADM3_EN": "Depalpur", "ADM2_EN": "Okara", "ADM1_EN": "Punjab", "ADM0_EN": "Pakistan"}, "geometry": {"type": "Point", "coordinates": [73.68541666684575, 30.327083333229268, -4.144286629070848e-05]}}, {"type": "Feature", "properties": {"OBJECTID_1": 295, "Join_Count": 1, "TARGET_FID": 295, "Lattitude": 30.2503062595, "Longitude": 73.4152613153, "Priority": 1.0, "ADM3_EN": "Pakpattan", "ADM2_EN": "Pakpattan", "ADM1_EN": "Punjab", "ADM0_EN": "Pakistan"}, "geometry": {"type": "Point", "coordinates": [73.41526131525757, 30.250306259526326, -4.144286629070848e-05]}}, {"type": "Feature", "properties": {"OBJECTID_1": 296, "Join_Count": 1, "TARGET_FID": 296, "Lattitude": 30.0354169645, "Longitude": 71.2498675225, "Priority": 1.0, "ADM3_EN": "Muzaffargarh", "ADM2_EN": "Muzaffargarh", "ADM1_EN": "Punjab", "ADM0_EN": "Pakistan"}, "geometry": {"type": "Point", "coordinates": [71.24986752246826, 30.035416964521346, -4.144286629070848e-05]}}, {"type": "Feature", "properties": {"OBJECTID_1": 297, "Join_Count": 1, "TARGET_FID": 297, "Lattitude": 29.9518034128, "Longitude": 71.2208943537, "Priority": 1.0, "ADM3_EN": "Shujabad", "ADM2_EN": "Multan", "ADM1_EN": "Punjab", "ADM0_EN": "Pakistan"}, "geometry": {"type": "Point", "coordinates": [71.2208943536915, 29.95180341279729, -4.144286629070848e-05]}}, {"type": "Feature", "properties": {"OBJECTID_1": 298, "Join_Count": 1, "TARGET_FID": 298, "Lattitude": 29.9534603417, "Longitude": 72.804507111, "Priority": 1.0, "ADM3_EN": "Chishtian", "ADM2_EN": "Bahawalnagar", "ADM1_EN": "Punjab", "ADM0_EN": "Pakistan"}, "geometry": {"type": "Point", "coordinates": [72.8045071110144, 29.95346034172144, -4.144286629070848e-05]}}, {"type": "Feature", "properties": {"OBJECTID_1": 299, "Join_Count": 1, "TARGET_FID": 299, "Lattitude": 29.8354166663, "Longitude": 72.5854166663, "Priority": 1.0, "ADM3_EN": "Chishtian", "ADM2_EN": "Bahawalnagar", "ADM1_EN": "Punjab", "ADM0_EN": "Pakistan"}, "geometry": {"type": "Point", "coordinates": [72.58541666634613, 29.835416666346134, -4.144286629070848e-05]}}, {"type": "Feature", "properties": {"OBJECTID_1": 300, "Join_Count": 1, "TARGET_FID": 300, "Lattitude": 29.4598192969, "Longitude": 71.7599414294, "Priority": 1.0, "ADM3_EN": "Bahawalpur", "ADM2_EN": "Bahawalpur", "ADM1_EN": "Punjab", "ADM0_EN": "Pakistan"}, "geometry": {"type": "Point", "coordinates": [71.75994142935355, 29.459819296923058, -4.144286629070848e-05]}}, {"type": "Feature", "properties": {"OBJECTID_1": 301, "Join_Count": 1, "TARGET_FID": 301, "Lattitude": 29.3835097151, "Longitude": 71.0390540467, "Priority": 1.0, "ADM3_EN": "Ahmadpur East", "ADM2_EN": "Bahawalpur", "ADM1_EN": "Punjab", "ADM0_EN": "Pakistan"}, "geometry": {"type": "Point", "coordinates": [71.03905404670695, 29.383509715101297, -4.144286629070848e-05]}}, {"type": "Feature", "properties": {"OBJECTID_1": 302, "Join_Count": 1, "TARGET_FID": 302, "Lattitude": 29.1914438646, "Longitude": 70.8245499421, "Priority": 1.0, "ADM3_EN": "Liaqatpur", "ADM2_EN": "Rahim Yar Khan", "ADM1_EN": "Punjab", "ADM0_EN": "Pakistan"}, "geometry": {"type": "Point", "coordinates": [70.82454994212617, 29.19144386464268, -4.144286629070848e-05]}}, {"type": "Feature", "properties": {"OBJECTID_1": 303, "Join_Count": 1, "TARGET_FID": 303, "Lattitude": 28.9979166662, "Longitude": 70.5812499998, "Priority": 1.0, "ADM3_EN": "Khanpur", "ADM2_EN": "Rahim Yar Khan", "ADM1_EN": "Punjab", "ADM0_EN": "Pakistan"}, "geometry": {"type": "Point", "coordinates": [70.5812499997877, 28.997916666221215, -4.144286629070848e-05]}}, {"type": "Feature", "properties": {"OBJECTID_1": 304, "Join_Count": 1, "TARGET_FID": 304, "Lattitude": 28.6345335102, "Longitude": 70.0358937285, "Priority": 1.0, "ADM3_EN": "Rojhan", "ADM2_EN": "Rajanpur", "ADM1_EN": "Punjab", "ADM0_EN": "Pakistan"}, "geometry": {"type": "Point", "coordinates": [70.0358937285128, 28.634533510213373, -4.144286629070848e-05]}}, {"type": "Feature", "properties": {"OBJECTID_1": 1, "Join_Count": 1, "TARGET_FID": 1, "Lattitude": 30.4315268257, "Longitude": 73.9110821692, "Priority": 2.0, "ADM3_EN": "Depalpur", "ADM2_EN": "Okara", "ADM1_EN": "Punjab", "ADM0_EN": "Pakistan"}, "geometry": {"type": "Point", "coordinates": [73.9110821692068, 30.43152682570252, 204.85665855713376]}}, {"type": "Feature", "properties": {"OBJECTID_1": 2, "Join_Count": 1, "TARGET_FID": 2, "Lattitude": 24.5114628646, "Longitude": 67.9348561093, "Priority": 2.0, "ADM3_EN": "Ghorabari", "ADM2_EN": "Thatta", "ADM1_EN": "Sindh", "ADM0_EN": "Pakistan"}, "geometry": {"type": "Point", "coordinates": [67.93485610932203, 24.511462864619546, 6.993558557133724]}}, {"type": "Feature", "properties": {"OBJECTID_1": 3, "Join_Count": 1, "TARGET_FID": 3, "Lattitude": 24.738215668, "Longitude": 67.9937080426, "Priority": 2.0, "ADM3_EN": "Thatta", "ADM2_EN": "Thatta", "ADM1_EN": "Sindh", "ADM0_EN": "Pakistan"}, "geometry": {"type": "Point", "coordinates": [67.99370804259217, 24.73821566801871, 11.487358557133803]}}, {"type": "Feature", "properties": {"OBJECTID_1": 4, "Join_Count": 1, "TARGET_FID": 4, "Lattitude": 24.7640445434, "Longitude": 68.0626692352, "Priority": 2.0, "ADM3_EN": "Sujawal", "ADM2_EN": "Sujawal", "ADM1_EN": "Sindh", "ADM0_EN": "Pakistan"}, "geometry": {"type": "Point", "coordinates": [68.06266923519712, 24.764044543420994, 6.987158557133739]}}, {"type": "Feature", "properties": {"OBJECTID_1": 5, "Join_Count": 1, "TARGET_FID": 5, "Lattitude": 24.7978307822, "Longitude": 68.0206570506, "Priority": 2.0, "ADM3_EN": "Thatta", "ADM2_EN": "Thatta", "ADM1_EN": "Sindh", "ADM0_EN": "Pakistan"}, "geometry": {"type": "Point", "coordinates": [68.02065705058249, 24.797830782164908, 10.215558557133704]}}, {"type": "Feature", "properties": {"OBJECTID_1": 6, "Join_Count": 1, "TARGET_FID": 6, "Lattitude": 24.9532068319, "Longitude": 68.2216855517, "Priority": 2.0, "ADM3_EN": "Mirpur Bathoro", "ADM2_EN": "Sujawal", "ADM1_EN": "Sindh", "ADM0_EN": "Pakistan"}, "geometry": {"type": "Point", "coordinates": [68.22168555174687, 24.953206831929776, 18.61965855713379]}}, {"type": "Feature", "properties": {"OBJECTID_1": 7, "Join_Count": 1, "TARGET_FID": 7, "Lattitude": 25.1349868412, "Longitude": 68.324460934, "Priority": 2.0, "ADM3_EN": "Thatta", "ADM2_EN": "Thatta", "ADM1_EN": "Sindh", "ADM0_EN": "Pakistan"}, "geometry": {"type": "Point", "coordinates": [68.32446093402496, 25.134986841169848, 16.457158557133766]}}, {"type": "Feature", "properties": {"OBJECTID_1": 8, "Join_Count": 1, "TARGET_FID": 8, "Lattitude": 28.5917015414, "Longitude": 69.9895065778, "Priority": 2.0, "ADM3_EN": "Rojhan", "ADM2_EN": "Rajanpur", "ADM1_EN": "Punjab", "ADM0_EN": "Pakistan"}, "geometry": {"type": "Point", "coordinates": [69.9895065777664, 28.591701541393093, 86.36395855713374]}}, {"type": "Feature", "properties": {"OBJECTID_1": 19, "Join_Count": 1, "TARGET_FID": 19, "Lattitude": 32.9345793823, "Longitude": 71.5174721557, "Priority": 2.0, "ADM3_EN": "Isakhel", "ADM2_EN": "Mianwali", "ADM1_EN": "Punjab", "ADM0_EN": "Pakistan"}, "geometry": {"type": "Point", "coordinates": [71.5174721557155, 32.934579382332686, -4.144286629070848e-05]}}, {"type": "Feature", "properties": {"OBJECTID_1": 26, "Join_Count": 1, "TARGET_FID": 26, "Lattitude": 31.7837952199, "Longitude": 73.0107634009, "Priority": 2.0, "ADM3_EN": "Chiniot", "ADM2_EN": "Chiniot", "ADM1_EN": "Punjab", "ADM0_EN": "Pakistan"}, "geometry": {"type": "Point", "coordinates": [73.01076340091026, 31.783795219873525, -4.144286629070848e-05]}}, {"type": "Feature", "properties": {"OBJECTID_1": 28, "Join_Count": 1, "TARGET_FID": 28, "Lattitude": 30.7105192188, "Longitude": 70.7954744026, "Priority": 2.0, "ADM3_EN": "Leiah", "ADM2_EN": "Leiah", "ADM1_EN": "Punjab", "ADM0_EN": "Pakistan"}, "geometry": {"type": "Point", "coordinates": [70.79547440262166, 30.710519218786942, -4.144286629070848e-05]}}, {"type": "Feature", "properties": {"OBJECTID_1": 30, "Join_Count": 1, "TARGET_FID": 30, "Lattitude": 30.621430938, "Longitude": 71.8386615729, "Priority": 2.0, "ADM3_EN": "Kabirwala", "ADM2_EN": "Khanewal", "ADM1_EN": "Punjab", "ADM0_EN": "Pakistan"}, "geometry": {"type": "Point", "coordinates": [71.83866157287332, 30.62143093798744, -4.144286629070848e-05]}}, {"type": "Feature", "properties": {"OBJECTID_1": 34, "Join_Count": 1, "TARGET_FID": 34, "Lattitude": 30.2405025718, "Longitude": 73.3946045075, "Priority": 2.0, "ADM3_EN": "Pakpattan", "ADM2_EN": "Pakpattan", "ADM1_EN": "Punjab", "ADM0_EN": "Pakistan"}, "geometry": {"type": "Point", "coordinates": [73.39460450749209, 30.24050257183626, -4.144286629070848e-05]}}, {"type": "Feature", "properties": {"OBJECTID_1": 35, "Join_Count": 1, "TARGET_FID": 35, "Lattitude": 30.0237864543, "Longitude": 71.2456286678, "Priority": 2.0, "ADM3_EN": "Muzaffargarh", "ADM2_EN": "Muzaffargarh", "ADM1_EN": "Punjab", "ADM0_EN": "Pakistan"}, "geometry": {"type": "Point", "coordinates": [71.24562866782884, 30.023786454281492, -4.144286629070848e-05]}}, {"type": "Feature", "properties": {"OBJECTID_1": 36, "Join_Count": 1, "TARGET_FID": 36, "Lattitude": 29.9611889508, "Longitude": 71.2250130814, "Priority": 2.0, "ADM3_EN": "Shujabad", "ADM2_EN": "Multan", "ADM1_EN": "Punjab", "ADM0_EN": "Pakistan"}, "geometry": {"type": "Point", "coordinates": [71.22501308138862, 29.961188950809458, -4.144286629070848e-05]}}, {"type": "Feature", "properties": {"OBJECTID_1": 41, "Join_Count": 1, "TARGET_FID": 41, "Lattitude": 28.9668756251, "Longitude": 70.6073699866, "Priority": 2.0, "ADM3_EN": "Liaqatpur", "ADM2_EN": "Rahim Yar Khan", "ADM1_EN": "Punjab", "ADM0_EN": "Pakistan"}, "geometry": {"type": "Point", "coordinates": [70.6073699866356, 28.96687562511005, -4.144286629070848e-05]}}, {"type": "Feature", "properties": {"OBJECTID_1": 42, "Join_Count": 1, "TARGET_FID": 42, "Lattitude": 28.6296750991, "Longitude": 70.02638588, "Priority": 2.0, "ADM3_EN": "Rojhan", "ADM2_EN": "Rajanpur", "ADM1_EN": "Punjab", "ADM0_EN": "Pakistan"}, "geometry": {"type": "Point", "coordinates": [70.0263858800044, 28.629675099126587, -4.144286629070848e-05]}}, {"type": "Feature", "properties": {"OBJECTID_1": 43, "Join_Count": 1, "TARGET_FID": 43, "Lattitude": 35.8479166669, "Longitude": 74.7395833335, "Priority": 2.0, "ADM3_EN": "Astore", "ADM2_EN": "Astore", "ADM1_EN": "Gilgit Baltistan", "ADM0_EN": "Pakistan"}, "geometry": {"type": "Point", "coordinates": [74.73958333350407, 35.847916666920696, -4.144286629070848e-05]}}, {"type": "Feature", "properties": {"OBJECTID_1": 44, "Join_Count": 1, "TARGET_FID": 44, "Lattitude": 35.7447569917, "Longitude": 74.6267091456, "Priority": 2.0, "ADM3_EN": "Gilgit", "ADM2_EN": "Gilgit", "ADM1_EN": "Gilgit Baltistan", "ADM0_EN": "Pakistan"}, "geometry": {"type": "Point", "coordinates": [74.62670914561062, 35.74475699174184, -4.144286629070848e-05]}}, {"type": "Feature", "properties": {"OBJECTID_1": 45, "Join_Count": 1, "TARGET_FID": 45, "Lattitude": 35.6645833334, "Longitude": 74.6270833337, "Priority": 2.0, "ADM3_EN": "Astore", "ADM2_EN": "Astore", "ADM1_EN": "Gilgit Baltistan", "ADM0_EN": "Pakistan"}, "geometry": {"type": "Point", "coordinates": [74.62708333372893, 35.66458333335419, -4.144286629070848e-05]}}, {"type": "Feature", "properties": {"OBJECTID_1": 46, "Join_Count": 1, "TARGET_FID": 46, "Lattitude": 35.6312500004, "Longitude": 75.0270833329, "Priority": 2.0, "ADM3_EN": "Rondu", "ADM2_EN": "Rondu", "ADM1_EN": "Gilgit Baltistan", "ADM0_EN": "Pakistan"}, "geometry": {"type": "Point", "coordinates": [75.02708333292952, 35.63125000038724, -4.144286629070848e-05]}}, {"type": "Feature", "properties": {"OBJECTID_1": 47, "Join_Count": 1, "TARGET_FID": 47, "Lattitude": 35.6037211158, "Longitude": 75.1473063012, "Priority": 2.0, "ADM3_EN": "Rondu", "ADM2_EN": "Rondu", "ADM1_EN": "Gilgit Baltistan", "ADM0_EN": "Pakistan"}, "geometry": {"type": "Point", "coordinates": [75.14730630124484, 35.60372111583689, -4.144286629070848e-05]}}, {"type": "Feature", "properties": {"OBJECTID_1": 48, "Join_Count": 1, "TARGET_FID": 48, "Lattitude": 35.5895833335, "Longitude": 75.2229166665, "Priority": 2.0, "ADM3_EN": "Rondu", "ADM2_EN": "Rondu", "ADM1_EN": "Gilgit Baltistan", "ADM0_EN": "Pakistan"}, "geometry": {"type": "Point", "coordinates": [75.22291666647106, 35.589583333504095, -4.144286629070848e-05]}}, {"type": "Feature", "properties": {"OBJECTID_1": 49, "Join_Count": 1, "TARGET_FID": 49, "Lattitude": 35.5887146442, "Longitude": 75.3128019804, "Priority": 2.0, "ADM3_EN": "Rondu", "ADM2_EN": "Rondu", "ADM1_EN": "Gilgit Baltistan", "ADM0_EN": "Pakistan"}, "geometry": {"type": "Point", "coordinates": [75.31280198042714, 35.58871464416552, -4.144286629070848e-05]}}, {"type": "Feature", "properties": {"OBJECTID_1": 50, "Join_Count": 1, "TARGET_FID": 50, "Lattitude": 35.5702081595, "Longitude": 74.6493437037, "Priority": 2.0, "ADM3_EN": "Chilas", "ADM2_EN": "Diamir", "ADM1_EN": "Gilgit Baltistan", "ADM0_EN": "Pakistan"}, "geometry": {"type": "Point", "coordinates": [74.64934370374897, 35.57020815947902, -4.144286629070848e-05]}}, {"type": "Feature", "properties": {"OBJECTID_1": 51, "Join_Count": 1, "TARGET_FID": 51, "Lattitude": 35.5372278707, "Longitude": 73.5776780836, "Priority": 2.0, "ADM3_EN": "Harban Basha", "ADM2_EN": "Kohistan Upper", "ADM1_EN": "Khyber Pakhtunkhwa", "ADM0_EN": "Pakistan"}, "geometry": {"type": "Point", "coordinates": [73.57767808357676, 35.53722787066977, -4.144286629070848e-05]}}, {"type": "Feature", "properties": {"OBJECTID_1": 52, "Join_Count": 1, "TARGET_FID": 52, "Lattitude": 35.5362663281, "Longitude": 73.5171412282, "Priority": 2.0, "ADM3_EN": "Tangir", "ADM2_EN": "Tangir", "ADM1_EN": "Gilgit Baltistan", "ADM0_EN": "Pakistan"}, "geometry": {"type": "Point", "coordinates": [73.51714122818521, 35.53626632812859, -4.144286629070848e-05]}}, {"type": "Feature", "properties": {"OBJECTID_1": 53, "Join_Count": 1, "TARGET_FID": 53, "Lattitude": 35.5171981035, "Longitude": 73.7811519925, "Priority": 2.0, "ADM3_EN": "Harban Basha", "ADM2_EN": "Kohistan Upper", "ADM1_EN": "Khyber Pakhtunkhwa", "ADM0_EN": "Pakistan"}, "geometry": {"type": "Point", "coordinates": [73.78115199247054, 35.51719810350971, -4.144286629070848e-05]}}, {"type": "Feature", "properties": {"OBJECTID_1": 54, "Join_Count": 1, "TARGET_FID": 54, "Lattitude": 35.4943410396, "Longitude": 74.6097375069, "Priority": 2.0, "ADM3_EN": "Chilas", "ADM2_EN": "Diamir", "ADM1_EN": "Gilgit Baltistan", "ADM0_EN": "Pakistan"}, "geometry": {"type": "Point", "coordinates": [74.60973750688049, 35.49434103960732, -4.144286629070848e-05]}}, {"type": "Feature", "properties": {"OBJECTID_1": 55, "Join_Count": 1, "TARGET_FID": 55, "Lattitude": 35.4833765907, "Longitude": 73.9703430008, "Priority": 2.0, "ADM3_EN": "Chilas", "ADM2_EN": "Diamir", "ADM1_EN": "Gilgit Baltistan", "ADM0_EN": "Pakistan"}, "geometry": {"type": "Point", "coordinates": [73.9703430008289, 35.4833765906572, -4.144286629070848e-05]}}, {"type": "Feature", "properties": {"OBJECTID_1": 56, "Join_Count": 1, "TARGET_FID": 56, "Lattitude": 35.4876701304, "Longitude": 73.9015752992, "Priority": 2.0, "ADM3_EN": "Chilas", "ADM2_EN": "Diamir", "ADM1_EN": "Gilgit Baltistan", "ADM0_EN": "Pakistan"}, "geometry": {"type": "Point", "coordinates": [73.90157529916081, 35.487670130372294, -4.144286629070848e-05]}}, {"type": "Feature", "properties": {"OBJECTID_1": 57, "Join_Count": 1, "TARGET_FID": 57, "Lattitude": 35.4687499998, "Longitude": 75.3645833332, "Priority": 2.0, "ADM3_EN": "Rondu", "ADM2_EN": "Rondu", "ADM1_EN": "Gilgit Baltistan", "ADM0_EN": "Pakistan"}, "geometry": {"type": "Point", "coordinates": [75.36458333315437, 35.4687499998127, -4.144286629070848e-05]}}, {"type": "Feature", "properties": {"OBJECTID_1": 58, "Join_Count": 1, "TARGET_FID": 58, "Lattitude": 35.4354166668, "Longitude": 75.464583333, "Priority": 2.0, "ADM3_EN": "Gamba", "ADM2_EN": "Skardu", "ADM1_EN": "Gilgit Baltistan", "ADM0_EN": "Pakistan"}, "geometry": {"type": "Point", "coordinates": [75.46458333295453, 35.435416666845754, -4.144286629070848e-05]}}, {"type": "Feature", "properties": {"OBJECTID_1": 59, "Join_Count": 1, "TARGET_FID": 59, "Lattitude": 35.4284797732, "Longitude": 74.1148954598, "Priority": 2.0, "ADM3_EN": "Chilas", "ADM2_EN": "Diamir", "ADM1_EN": "Gilgit Baltistan", "ADM0_EN": "Pakistan"}, "geometry": {"type": "Point", "coordinates": [74.11489545975769, 35.42847977322299, -4.144286629070848e-05]}}, {"type": "Feature", "properties": {"OBJECTID_1": 60, "Join_Count": 1, "TARGET_FID": 60, "Lattitude": 35.4053139712, "Longitude": 74.1578099953, "Priority": 2.0, "ADM3_EN": "Chilas", "ADM2_EN": "Diamir", "ADM1_EN": "Gilgit Baltistan", "ADM0_EN": "Pakistan"}, "geometry": {"type": "Point", "coordinates": [74.15780999533507, 35.40531397116291, -4.144286629070848e-05]}}, {"type": "Feature", "properties": {"OBJECTID_1": 61, "Join_Count": 1, "TARGET_FID": 61, "Lattitude": 35.4110989753, "Longitude": 74.3518405335, "Priority": 2.0, "ADM3_EN": "Chilas", "ADM2_EN": "Diamir", "ADM1_EN": "Gilgit Baltistan", "ADM0_EN": "Pakistan"}, "geometry": {"type": "Point", "coordinates": [74.3518405335139, 35.411098975337495, -4.144286629070848e-05]}}, {"type": "Feature", "properties": {"OBJECTID_1": 62, "Join_Count": 1, "TARGET_FID": 62, "Lattitude": 35.3244675057, "Longitude": 75.6398150411, "Priority": 2.0, "ADM3_EN": "Skardu", "ADM2_EN": "Skardu", "ADM1_EN": "Gilgit Baltistan", "ADM0_EN": "Pakistan"}, "geometry": {"type": "Point", "coordinates": [75.63981504113133, 35.324467505670896, -4.144286629070848e-05]}}, {"type": "Feature", "properties": {"OBJECTID_1": 63, "Join_Count": 1, "TARGET_FID": 63, "Lattitude": 35.3388079556, "Longitude": 75.5999083034, "Priority": 2.0, "ADM3_EN": "Skardu", "ADM2_EN": "Skardu", "ADM1_EN": "Gilgit Baltistan", "ADM0_EN": "Pakistan"}, "geometry": {"type": "Point", "coordinates": [75.59990830342554, 35.33880795562271, -4.144286629070848e-05]}}, {"type": "Feature", "properties": {"OBJECTID_1": 64, "Join_Count": 1, "TARGET_FID": 64, "Lattitude": 35.2270833333, "Longitude": 75.914583333, "Priority": 2.0, "ADM3_EN": "Daghoni", "ADM2_EN": "Ghanche", "ADM1_EN": "Gilgit Baltistan", "ADM0_EN": "Pakistan"}, "geometry": {"type": "Point", "coordinates": [75.91458333295452, 35.22708333332923, -4.144286629070848e-05]}}, {"type": "Feature", "properties": {"OBJECTID_1": 65, "Join_Count": 1, "TARGET_FID": 65, "Lattitude": 35.1851349772, "Longitude": 75.910609969, "Priority": 2.0, "ADM3_EN": "Skardu", "ADM2_EN": "Skardu", "ADM1_EN": "Gilgit Baltistan", "ADM0_EN": "Pakistan"}, "geometry": {"type": "Point", "coordinates": [75.91060996897494, 35.18513497719749, -4.144286629070848e-05]}}, {"type": "Feature", "properties": {"OBJECTID_1": 66, "Join_Count": 1, "TARGET_FID": 66, "Lattitude": 35.1051867159, "Longitude": 75.979783255, "Priority": 2.0, "ADM3_EN": "Kharmang", "ADM2_EN": "Kharmang", "ADM1_EN": "Gilgit Baltistan", "ADM0_EN": "Pakistan"}, "geometry": {"type": "Point", "coordinates": [75.97978325499327, 35.10518671589426, -4.144286629070848e-05]}}, {"type": "Feature", "properties": {"OBJECTID_1": 67, "Join_Count": 1, "TARGET_FID": 67, "Lattitude": 34.939583333, "Longitude": 76.2270833332, "Priority": 2.0, "ADM3_EN": "Kharmang", "ADM2_EN": "Kharmang", "ADM1_EN": "Gilgit Baltistan", "ADM0_EN": "Pakistan"}, "geometry": {"type": "Point", "coordinates": [76.2270833332293, 34.939583333004464, -4.144286629070848e-05]}}, {"type": "Feature", "properties": {"OBJECTID_1": 68, "Join_Count": 1, "TARGET_FID": 68, "Lattitude": 34.7481770732, "Longitude": 76.216864407, "Priority": 2.0, "ADM3_EN": "Kharmang", "ADM2_EN": "Kharmang", "ADM1_EN": "Gilgit Baltistan", "ADM0_EN": "Pakistan"}, "geometry": {"type": "Point", "coordinates": [76.21686440696686, 34.74817707321341, -4.144286629070848e-05]}}, {"type": "Feature", "properties": {"OBJECTID_1": 69, "Join_Count": 1, "TARGET_FID": 69, "Lattitude": 34.5089359871, "Longitude": 71.5771435207, "Priority": 2.0, "ADM3_EN": "Prang Ghar", "ADM2_EN": "Mohmand", "ADM1_EN": "Khyber Pakhtunkhwa", "ADM0_EN": "Pakistan"}, "geometry": {"type": "Point", "coordinates": [71.57714352065699, 34.508935987106156, -4.144286629070848e-05]}}, {"type": "Feature", "properties": {"OBJECTID_1": 70, "Join_Count": 1, "TARGET_FID": 70, "Lattitude": 34.3824680528, "Longitude": 73.4715172196, "Priority": 2.0, "ADM3_EN": "Muzaffarabad", "ADM2_EN": "Muzaffarabad", "ADM1_EN": "Azad Kashmir", "ADM0_EN": "Pakistan"}, "geometry": {"type": "Point", "coordinates": [73.471517219644, 34.3824680527585, -4.144286629070848e-05]}}, {"type": "Feature", "properties": {"OBJECTID_1": 71, "Join_Count": 1, "TARGET_FID": 71, "Lattitude": 34.2931268277, "Longitude": 73.4751374235, "Priority": 2.0, "ADM3_EN": "Muzaffarabad", "ADM2_EN": "Muzaffarabad", "ADM1_EN": "Azad Kashmir", "ADM0_EN": "Pakistan"}, "geometry": {"type": "Point", "coordinates": [73.47513742345336, 34.293126827740934, -4.144286629070848e-05]}}, {"type": "Feature", "properties": {"OBJECTID_1": 73, "Join_Count": 1, "TARGET_FID": 73, "Lattitude": 34.2062499996, "Longitude": 73.4979166663, "Priority": 2.0, "ADM3_EN": "Muzaffarabad", "ADM2_EN": "Muzaffarabad", "ADM1_EN": "Azad Kashmir", "ADM0_EN": "Pakistan"}, "geometry": {"type": "Point", "coordinates": [73.49791666632115, 34.206249999637805, -4.144286629070848e-05]}}, {"type": "Feature", "properties": {"OBJECTID_1": 74, "Join_Count": 1, "TARGET_FID": 74, "Lattitude": 34.1561950638, "Longitude": 73.8443577407, "Priority": 2.0, "ADM3_EN": "Hattian", "ADM2_EN": "Jhelum Valley", "ADM1_EN": "Azad Kashmir", "ADM0_EN": "Pakistan"}, "geometry": {"type": "Point", "coordinates": [73.84435774071721, 34.15619506375123, -4.144286629070848e-05]}}, {"type": "Feature", "properties": {"OBJECTID_1": 76, "Join_Count": 1, "TARGET_FID": 76, "Lattitude": 34.1138421512, "Longitude": 71.703192478, "Priority": 2.0, "ADM3_EN": "Charsadda", "ADM2_EN": "Charsadda", "ADM1_EN": "Khyber Pakhtunkhwa", "ADM0_EN": "Pakistan"}, "geometry": {"type": "Point", "coordinates": [71.70319247795055, 34.113842151194376, -4.144286629070848e-05]}}, {"type": "Feature", "properties": {"OBJECTID_1": 78, "Join_Count": 1, "TARGET_FID": 78, "Lattitude": 33.9180799549, "Longitude": 73.5854835523, "Priority": 2.0, "ADM3_EN": "Dhir Kot", "ADM2_EN": "Bagh", "ADM1_EN": "Azad Kashmir", "ADM0_EN": "Pakistan"}, "geometry": {"type": "Point", "coordinates": [73.58548355232415, 33.91807995492604, -4.144286629070848e-05]}}, {"type": "Feature", "properties": {"OBJECTID_1": 79, "Join_Count": 1, "TARGET_FID": 79, "Lattitude": 33.9091785687, "Longitude": 73.5823704025, "Priority": 2.0, "ADM3_EN": "Thorar", "ADM2_EN": "Poonch", "ADM1_EN": "Azad Kashmir", "ADM0_EN": "Pakistan"}, "geometry": {"type": "Point", "coordinates": [73.58237040247218, 33.909178568736024, -4.144286629070848e-05]}}, {"type": "Feature", "properties": {"OBJECTID_1": 80, "Join_Count": 1, "TARGET_FID": 80, "Lattitude": 33.9159729333, "Longitude": 72.2382326845, "Priority": 2.0, "ADM3_EN": "Lahor", "ADM2_EN": "Swabi", "ADM1_EN": "Khyber Pakhtunkhwa", "ADM0_EN": "Pakistan"}, "geometry": {"type": "Point", "coordinates": [72.23823268449087, 33.91597293330426, -4.144286629070848e-05]}}, {"type": "Feature", "properties": {"OBJECTID_1": 81, "Join_Count": 1, "TARGET_FID": 81, "Lattitude": 33.7479166666, "Longitude": 73.6020833331, "Priority": 2.0, "ADM3_EN": "Mong", "ADM2_EN": "Sudhnoti", "ADM1_EN": "Azad Kashmir", "ADM0_EN": "Pakistan"}, "geometry": {"type": "Point", "coordinates": [73.6020833330794, 33.74791666662094, -4.144286629070848e-05]}}, {"type": "Feature", "properties": {"OBJECTID_1": 82, "Join_Count": 1, "TARGET_FID": 82, "Lattitude": 33.7604166666, "Longitude": 72.2437500001, "Priority": 2.0, "ADM3_EN": "Attock", "ADM2_EN": "Attock", "ADM1_EN": "Punjab", "ADM0_EN": "Pakistan"}, "geometry": {"type": "Point", "coordinates": [72.2437500000625, 33.760416666595916, -4.144286629070848e-05]}}, {"type": "Feature", "properties": {"OBJECTID_1": 84, "Join_Count": 1, "TARGET_FID": 84, "Lattitude": 33.6648737105, "Longitude": 71.9855237921, "Priority": 2.0, "ADM3_EN": "Jand", "ADM2_EN": "Attock", "ADM1_EN": "Punjab", "ADM0_EN": "Pakistan"}, "geometry": {"type": "Point", "coordinates": [71.9855237920894, 33.664873710453435, -4.144286629070848e-05]}}, {"type": "Feature", "properties": {"OBJECTID_1": 85, "Join_Count": 1, "TARGET_FID": 85, "Lattitude": 33.6245100659, "Longitude": 71.9758409418, "Priority": 2.0, "ADM3_EN": "Gumbat", "ADM2_EN": "Kohat", "ADM1_EN": "Khyber Pakhtunkhwa", "ADM0_EN": "Pakistan"}, "geometry": {"type": "Point", "coordinates": [71.9758409418061, 33.62451006588691, -4.144286629070848e-05]}}, {"type": "Feature", "properties": {"OBJECTID_1": 86, "Join_Count": 1, "TARGET_FID": 86, "Lattitude": 33.572916667, "Longitude": 73.627083333, "Priority": 2.0, "ADM3_EN": "Sehnsa", "ADM2_EN": "Kotli", "ADM1_EN": "Azad Kashmir", "ADM0_EN": "Pakistan"}, "geometry": {"type": "Point", "coordinates": [73.62708333302947, 33.572916666970684, -4.144286629070848e-05]}}, {"type": "Feature", "properties": {"OBJECTID_1": 88, "Join_Count": 1, "TARGET_FID": 88, "Lattitude": 33.4144026533, "Longitude": 71.8688334705, "Priority": 2.0, "ADM3_EN": "Gumbat", "ADM2_EN": "Kohat", "ADM1_EN": "Khyber Pakhtunkhwa", "ADM0_EN": "Pakistan"}, "geometry": {"type": "Point", "coordinates": [71.86883347048831, 33.41440265325991, -4.144286629070848e-05]}}, {"type": "Feature", "properties": {"OBJECTID_1": 89, "Join_Count": 1, "TARGET_FID": 89, "Lattitude": 33.2798132518, "Longitude": 71.7034460715, "Priority": 2.0, "ADM3_EN": "Lachi", "ADM2_EN": "Kohat", "ADM1_EN": "Khyber Pakhtunkhwa", "ADM0_EN": "Pakistan"}, "geometry": {"type": "Point", "coordinates": [71.70344607147905, 33.27981325178018, -4.144286629070848e-05]}}, {"type": "Feature", "properties": {"OBJECTID_1": 90, "Join_Count": 1, "TARGET_FID": 90, "Lattitude": 33.2298796174, "Longitude": 71.7325128426, "Priority": 2.0, "ADM3_EN": "Jand", "ADM2_EN": "Attock", "ADM1_EN": "Punjab", "ADM0_EN": "Pakistan"}, "geometry": {"type": "Point", "coordinates": [71.73251284259368, 33.22987961735049, -4.144286629070848e-05]}}, {"type": "Feature", "properties": {"OBJECTID_1": 91, "Join_Count": 1, "TARGET_FID": 91, "Lattitude": 33.2400898562, "Longitude": 73.5899376363, "Priority": 2.0, "ADM3_EN": "Gujar Khan", "ADM2_EN": "Rawalpindi", "ADM1_EN": "Punjab", "ADM0_EN": "Pakistan"}, "geometry": {"type": "Point", "coordinates": [73.58993763631292, 33.240089856162, -4.144286629070848e-05]}}, {"type": "Feature", "properties": {"OBJECTID_1": 92, "Join_Count": 1, "TARGET_FID": 92, "Lattitude": 33.2167525372, "Longitude": 73.6700507074, "Priority": 2.0, "ADM3_EN": "Mirpur", "ADM2_EN": "Mirpur", "ADM1_EN": "Azad Kashmir", "ADM0_EN": "Pakistan"}, "geometry": {"type": "Point", "coordinates": [73.67005070737429, 33.21675253719991, -4.144286629070848e-05]}}, {"type": "Feature", "properties": {"OBJECTID_1": 93, "Join_Count": 1, "TARGET_FID": 93, "Lattitude": 33.1408783298, "Longitude": 73.6418368902, "Priority": 2.0, "ADM3_EN": "Dina", "ADM2_EN": "Jhelum", "ADM1_EN": "Punjab", "ADM0_EN": "Pakistan"}, "geometry": {"type": "Point", "coordinates": [73.64183689016039, 33.14087832977117, -4.144286629070848e-05]}}, {"type": "Feature", "properties": {"OBJECTID_1": 94, "Join_Count": 1, "TARGET_FID": 94, "Lattitude": 33.1004598185, "Longitude": 71.7087491973, "Priority": 2.0, "ADM3_EN": "Lachi", "ADM2_EN": "Kohat", "ADM1_EN": "Khyber Pakhtunkhwa", "ADM0_EN": "Pakistan"}, "geometry": {"type": "Point", "coordinates": [71.70874919731767, 33.10045981846588, -4.144286629070848e-05]}}, {"type": "Feature", "properties": {"OBJECTID_1": 96, "Join_Count": 1, "TARGET_FID": 96, "Lattitude": 32.9775911121, "Longitude": 73.7759554417, "Priority": 2.0, "ADM3_EN": "Jhelum", "ADM2_EN": "Jhelum", "ADM1_EN": "Punjab", "ADM0_EN": "Pakistan"}, "geometry": {"type": "Point", "coordinates": [73.77595544169031, 32.977591112140146, -4.144286629070848e-05]}}, {"type": "Feature", "properties": {"OBJECTID_1": 97, "Join_Count": 1, "TARGET_FID": 97, "Lattitude": 32.9715775812, "Longitude": 73.7869447605, "Priority": 2.0, "ADM3_EN": "Sarai Alamgir", "ADM2_EN": "Gujrat", "ADM1_EN": "Punjab", "ADM0_EN": "Pakistan"}, "geometry": {"type": "Point", "coordinates": [73.78694476049236, 32.97157758124041, -4.144286629070848e-05]}}, {"type": "Feature", "properties": {"OBJECTID_1": 98, "Join_Count": 1, "TARGET_FID": 98, "Lattitude": 32.9678730534, "Longitude": 71.5766896247, "Priority": 2.0, "ADM3_EN": "Mianwali", "ADM2_EN": "Mianwali", "ADM1_EN": "Punjab", "ADM0_EN": "Pakistan"}, "geometry": {"type": "Point", "coordinates": [71.57668962472644, 32.96787305339876, -4.144286629070848e-05]}}, {"type": "Feature", "properties": {"OBJECTID_1": 99, "Join_Count": 1, "TARGET_FID": 99, "Lattitude": 32.9607382936, "Longitude": 71.5618448512, "Priority": 2.0, "ADM3_EN": "Isakhel", "ADM2_EN": "Mianwali", "ADM1_EN": "Punjab", "ADM0_EN": "Pakistan"}, "geometry": {"type": "Point", "coordinates": [71.56184485115904, 32.960738293637405, -4.144286629070848e-05]}}, {"type": "Feature", "properties": {"OBJECTID_1": 100, "Join_Count": 1, "TARGET_FID": 100, "Lattitude": 32.9568090828, "Longitude": 73.7744552016, "Priority": 2.0, "ADM3_EN": "Sarai Alamgir", "ADM2_EN": "Gujrat", "ADM1_EN": "Punjab", "ADM0_EN": "Pakistan"}, "geometry": {"type": "Point", "coordinates": [73.77445520164628, 32.95680908277302, -4.144286629070848e-05]}}, {"type": "Feature", "properties": {"OBJECTID_1": 102, "Join_Count": 1, "TARGET_FID": 102, "Lattitude": 32.8797645057, "Longitude": 71.4582648697, "Priority": 2.0, "ADM3_EN": "Isakhel", "ADM2_EN": "Mianwali", "ADM1_EN": "Punjab", "ADM0_EN": "Pakistan"}, "geometry": {"type": "Point", "coordinates": [71.458264869728, 32.879764505727394, -4.144286629070848e-05]}}, {"type": "Feature", "properties": {"OBJECTID_1": 103, "Join_Count": 1, "TARGET_FID": 103, "Lattitude": 32.8936274148, "Longitude": 71.4948276736, "Priority": 2.0, "ADM3_EN": "Mianwali", "ADM2_EN": "Mianwali", "ADM1_EN": "Punjab", "ADM0_EN": "Pakistan"}, "geometry": {"type": "Point", "coordinates": [71.49482767355835, 32.89362741477345, -4.144286629070848e-05]}}, {"type": "Feature", "properties": {"OBJECTID_1": 104, "Join_Count": 1, "TARGET_FID": 104, "Lattitude": 32.8610223933, "Longitude": 73.6671755388, "Priority": 2.0, "ADM3_EN": "Sarai Alamgir", "ADM2_EN": "Gujrat", "ADM1_EN": "Punjab", "ADM0_EN": "Pakistan"}, "geometry": {"type": "Point", "coordinates": [73.66717553882012, 32.86102239326891, -4.144286629070848e-05]}}, {"type": "Feature", "properties": {"OBJECTID_1": 105, "Join_Count": 1, "TARGET_FID": 105, "Lattitude": 32.8606622337, "Longitude": 73.6791819198, "Priority": 2.0, "ADM3_EN": "Sarai Alamgir", "ADM2_EN": "Gujrat", "ADM1_EN": "Punjab", "ADM0_EN": "Pakistan"}, "geometry": {"type": "Point", "coordinates": [73.67918191980982, 32.860662233675214, -4.144286629070848e-05]}}, {"type": "Feature", "properties": {"OBJECTID_1": 106, "Join_Count": 1, "TARGET_FID": 106, "Lattitude": 32.7854166667, "Longitude": 71.4187499999, "Priority": 2.0, "ADM3_EN": "Mianwali", "ADM2_EN": "Mianwali", "ADM1_EN": "Punjab", "ADM0_EN": "Pakistan"}, "geometry": {"type": "Point", "coordinates": [71.41874999991262, 32.785416666745846, -4.144286629070848e-05]}}, {"type": "Feature", "properties": {"OBJECTID_1": 107, "Join_Count": 1, "TARGET_FID": 107, "Lattitude": 32.7614186635, "Longitude": 71.4363394144, "Priority": 2.0, "ADM3_EN": "Mianwali", "ADM2_EN": "Mianwali", "ADM1_EN": "Punjab", "ADM0_EN": "Pakistan"}, "geometry": {"type": "Point", "coordinates": [71.4363394144325, 32.76141866354055, -4.144286629070848e-05]}}, {"type": "Feature", "properties": {"OBJECTID_1": 108, "Join_Count": 1, "TARGET_FID": 108, "Lattitude": 32.7479166668, "Longitude": 73.5937500001, "Priority": 2.0, "ADM3_EN": "Sarai Alamgir", "ADM2_EN": "Gujrat", "ADM1_EN": "Punjab", "ADM0_EN": "Pakistan"}, "geometry": {"type": "Point", "coordinates": [73.59375000006253, 32.74791666682074, -4.144286629070848e-05]}}, {"type": "Feature", "properties": {"OBJECTID_1": 110, "Join_Count": 1, "TARGET_FID": 110, "Lattitude": 32.7408298769, "Longitude": 74.5191274167, "Priority": 2.0, "ADM3_EN": "Sialkot", "ADM2_EN": "Sialkot", "ADM1_EN": "Punjab", "ADM0_EN": "Pakistan"}, "geometry": {"type": "Point", "coordinates": [74.51912741669696, 32.74082987689735, -4.144286629070848e-05]}}, {"type": "Feature", "properties": {"OBJECTID_1": 111, "Join_Count": 1, "TARGET_FID": 111, "Lattitude": 32.70467937, "Longitude": 74.4965076479, "Priority": 2.0, "ADM3_EN": "Sialkot", "ADM2_EN": "Sialkot", "ADM1_EN": "Punjab", "ADM0_EN": "Pakistan"}, "geometry": {"type": "Point", "coordinates": [74.49650764790965, 32.704679369957034, -4.144286629070848e-05]}}, {"type": "Feature", "properties": {"OBJECTID_1": 112, "Join_Count": 1, "TARGET_FID": 112, "Lattitude": 32.6943656965, "Longitude": 74.4809711509, "Priority": 2.0, "ADM3_EN": "Sialkot", "ADM2_EN": "Sialkot", "ADM1_EN": "Punjab", "ADM0_EN": "Pakistan"}, "geometry": {"type": "Point", "coordinates": [74.48097115089797, 32.69436569651975, -4.144286629070848e-05]}}, {"type": "Feature", "properties": {"OBJECTID_1": 113, "Join_Count": 1, "TARGET_FID": 113, "Lattitude": 32.6857540773, "Longitude": 71.3903473781, "Priority": 2.0, "ADM3_EN": "Mianwali", "ADM2_EN": "Mianwali", "ADM1_EN": "Punjab", "ADM0_EN": "Pakistan"}, "geometry": {"type": "Point", "coordinates": [71.39034737812904, 32.68575407728889, -4.144286629070848e-05]}}, {"type": "Feature", "properties": {"OBJECTID_1": 114, "Join_Count": 1, "TARGET_FID": 114, "Lattitude": 32.677083333, "Longitude": 71.377083333, "Priority": 2.0, "ADM3_EN": "Isakhel", "ADM2_EN": "Mianwali", "ADM1_EN": "Punjab", "ADM0_EN": "Pakistan"}, "geometry": {"type": "Point", "coordinates": [71.37708333302947, 32.67708333302943, -4.144286629070848e-05]}}, {"type": "Feature", "properties": {"OBJECTID_1": 115, "Join_Count": 1, "TARGET_FID": 115, "Lattitude": 32.6312500001, "Longitude": 71.3020833332, "Priority": 2.0, "ADM3_EN": "Isakhel", "ADM2_EN": "Mianwali", "ADM1_EN": "Punjab", "ADM0_EN": "Pakistan"}, "geometry": {"type": "Point", "coordinates": [71.30208333317933, 32.631250000087505, -4.144286629070848e-05]}}, {"type": "Feature", "properties": {"OBJECTID_1": 116, "Join_Count": 1, "TARGET_FID": 116, "Lattitude": 32.602996842, "Longitude": 74.2767000937, "Priority": 2.0, "ADM3_EN": "Gujrat", "ADM2_EN": "Gujrat", "ADM1_EN": "Punjab", "ADM0_EN": "Pakistan"}, "geometry": {"type": "Point", "coordinates": [74.2767000937344, 32.60299684203068, -4.144286629070848e-05]}}, {"type": "Feature", "properties": {"OBJECTID_1": 117, "Join_Count": 1, "TARGET_FID": 117, "Lattitude": 32.5826167332, "Longitude": 74.2686060649, "Priority": 2.0, "ADM3_EN": "Sambrial", "ADM2_EN": "Sialkot", "ADM1_EN": "Punjab", "ADM0_EN": "Pakistan"}, "geometry": {"type": "Point", "coordinates": [74.268606064918, 32.58261673317577, -4.144286629070848e-05]}}, {"type": "Feature", "properties": {"OBJECTID_1": 118, "Join_Count": 1, "TARGET_FID": 118, "Lattitude": 32.5977777803, "Longitude": 73.2486111098, "Priority": 2.0, "ADM3_EN": "Pind Dadan Khan", "ADM2_EN": "Jhelum", "ADM1_EN": "Punjab", "ADM0_EN": "Pakistan"}, "geometry": {"type": "Point", "coordinates": [73.24861110981493, 32.59777778032037, -4.144286629070848e-05]}}, {"type": "Feature", "properties": {"OBJECTID_1": 119, "Join_Count": 1, "TARGET_FID": 119, "Lattitude": 32.60833333, "Longitude": 73.1219444397, "Priority": 2.0, "ADM3_EN": "Pind Dadan Khan", "ADM2_EN": "Jhelum", "ADM1_EN": "Punjab", "ADM0_EN": "Pakistan"}, "geometry": {"type": "Point", "coordinates": [73.12194443968423, 32.60833333001921, -4.144286629070848e-05]}}, {"type": "Feature", "properties": {"OBJECTID_1": 120, "Join_Count": 1, "TARGET_FID": 120, "Lattitude": 32.5688335994, "Longitude": 73.1458421883, "Priority": 2.0, "ADM3_EN": "Bhera", "ADM2_EN": "Sargodha", "ADM1_EN": "Punjab", "ADM0_EN": "Pakistan"}, "geometry": {"type": "Point", "coordinates": [73.14584218826644, 32.568833599391155, -4.144286629070848e-05]}}, {"type": "Feature", "properties": {"OBJECTID_1": 121, "Join_Count": 1, "TARGET_FID": 121, "Lattitude": 32.5808210335, "Longitude": 73.1460996777, "Priority": 2.0, "ADM3_EN": "Pind Dadan Khan", "ADM2_EN": "Jhelum", "ADM1_EN": "Punjab", "ADM0_EN": "Pakistan"}, "geometry": {"type": "Point", "coordinates": [73.14609967765807, 32.58082103346396, -4.144286629070848e-05]}}, {"type": "Feature", "properties": {"OBJECTID_1": 122, "Join_Count": 1, "TARGET_FID": 122, "Lattitude": 32.5474999996, "Longitude": 72.9241666703, "Priority": 2.0, "ADM3_EN": "Pind Dadan Khan", "ADM2_EN": "Jhelum", "ADM1_EN": "Punjab", "ADM0_EN": "Pakistan"}, "geometry": {"type": "Point", "coordinates": [72.92416667025566, 32.54749999962536, -4.144286629070848e-05]}}, {"type": "Feature", "properties": {"OBJECTID_1": 123, "Join_Count": 1, "TARGET_FID": 123, "Lattitude": 32.5145833334, "Longitude": 72.8895833336, "Priority": 2.0, "ADM3_EN": "Pind Dadan Khan", "ADM2_EN": "Jhelum", "ADM1_EN": "Punjab", "ADM0_EN": "Pakistan"}, "geometry": {"type": "Point", "coordinates": [72.88958333360404, 32.51458333335421, -4.144286629070848e-05]}}, {"type": "Feature", "properties": {"OBJECTID_1": 125, "Join_Count": 1, "TARGET_FID": 125, "Lattitude": 32.5003167321, "Longitude": 74.1487783756, "Priority": 2.0, "ADM3_EN": "Wazirabad", "ADM2_EN": "Gujranwala", "ADM1_EN": "Punjab", "ADM0_EN": "Pakistan"}, "geometry": {"type": "Point", "coordinates": [74.14877837562159, 32.50031673213152, -4.144286629070848e-05]}}, {"type": "Feature", "properties": {"OBJECTID_1": 126, "Join_Count": 1, "TARGET_FID": 126, "Lattitude": 32.4645833335, "Longitude": 74.047916667, "Priority": 2.0, "ADM3_EN": "Wazirabad", "ADM2_EN": "Gujranwala", "ADM1_EN": "Punjab", "ADM0_EN": "Pakistan"}, "geometry": {"type": "Point", "coordinates": [74.04791666702062, 32.46458333345413, -4.144286629070848e-05]}}, {"type": "Feature", "properties": {"OBJECTID_1": 127, "Join_Count": 1, "TARGET_FID": 127, "Lattitude": 32.4516593436, "Longitude": 72.7997956518, "Priority": 2.0, "ADM3_EN": "Pind Dadan Khan", "ADM2_EN": "Jhelum", "ADM1_EN": "Punjab", "ADM0_EN": "Pakistan"}, "geometry": {"type": "Point", "coordinates": [72.79979565184789, 32.451659343603865, -4.144286629070848e-05]}}, {"type": "Feature", "properties": {"OBJECTID_1": 128, "Join_Count": 1, "TARGET_FID": 128, "Lattitude": 32.4400448062, "Longitude": 74.0258729662, "Priority": 2.0, "ADM3_EN": "Wazirabad", "ADM2_EN": "Gujranwala", "ADM1_EN": "Punjab", "ADM0_EN": "Pakistan"}, "geometry": {"type": "Point", "coordinates": [74.02587296616451, 32.440044806222886, -4.144286629070848e-05]}}, {"type": "Feature", "properties": {"OBJECTID_1": 129, "Join_Count": 1, "TARGET_FID": 129, "Lattitude": 32.4395833335, "Longitude": 72.7979166668, "Priority": 2.0, "ADM3_EN": "Bhera", "ADM2_EN": "Sargodha", "ADM1_EN": "Punjab", "ADM0_EN": "Pakistan"}, "geometry": {"type": "Point", "coordinates": [72.79791666682075, 32.43958333350412, -4.144286629070848e-05]}}, {"type": "Feature", "properties": {"OBJECTID_1": 130, "Join_Count": 1, "TARGET_FID": 130, "Lattitude": 32.3798933436, "Longitude": 73.889900848, "Priority": 2.0, "ADM3_EN": "Wazirabad", "ADM2_EN": "Gujranwala", "ADM1_EN": "Punjab", "ADM0_EN": "Pakistan"}, "geometry": {"type": "Point", "coordinates": [73.88990084804578, 32.37989334360299, -4.144286629070848e-05]}}, {"type": "Feature", "properties": {"OBJECTID_1": 131, "Join_Count": 1, "TARGET_FID": 131, "Lattitude": 32.3846989564, "Longitude": 73.8368031082, "Priority": 2.0, "ADM3_EN": "Wazirabad", "ADM2_EN": "Gujranwala", "ADM1_EN": "Punjab", "ADM0_EN": "Pakistan"}, "geometry": {"type": "Point", "coordinates": [73.83680310817698, 32.38469895639179, -4.144286629070848e-05]}}, {"type": "Feature", "properties": {"OBJECTID_1": 133, "Join_Count": 1, "TARGET_FID": 133, "Lattitude": 32.239590426, "Longitude": 71.264171915, "Priority": 2.0, "ADM3_EN": "Piplan", "ADM2_EN": "Mianwali", "ADM1_EN": "Punjab", "ADM0_EN": "Pakistan"}, "geometry": {"type": "Point", "coordinates": [71.26417191500195, 32.23959042595743, -4.144286629070848e-05]}}, {"type": "Feature", "properties": {"OBJECTID_1": 134, "Join_Count": 1, "TARGET_FID": 134, "Lattitude": 32.2322604962, "Longitude": 73.4336838734, "Priority": 2.0, "ADM3_EN": "Phalia", "ADM2_EN": "Mandi Bahauddin", "ADM1_EN": "Punjab", "ADM0_EN": "Pakistan"}, "geometry": {"type": "Point", "coordinates": [73.43368387341206, 32.23226049622497, -4.144286629070848e-05]}}, {"type": "Feature", "properties": {"OBJECTID_1": 135, "Join_Count": 1, "TARGET_FID": 135, "Lattitude": 32.1749436805, "Longitude": 73.3669320498, "Priority": 2.0, "ADM3_EN": "Phalia", "ADM2_EN": "Mandi Bahauddin", "ADM1_EN": "Punjab", "ADM0_EN": "Pakistan"}, "geometry": {"type": "Point", "coordinates": [73.36693204977433, 32.17494368050649, -4.144286629070848e-05]}}, {"type": "Feature", "properties": {"OBJECTID_1": 136, "Join_Count": 1, "TARGET_FID": 136, "Lattitude": 32.1264828442, "Longitude": 71.1733547433, "Priority": 2.0, "ADM3_EN": "Kalur Kot", "ADM2_EN": "Bhakkar", "ADM1_EN": "Punjab", "ADM0_EN": "Pakistan"}, "geometry": {"type": "Point", "coordinates": [71.1733547433268, 32.12648284420794, -4.144286629070848e-05]}}, {"type": "Feature", "properties": {"OBJECTID_1": 137, "Join_Count": 1, "TARGET_FID": 137, "Lattitude": 32.0804478815, "Longitude": 75.0675091054, "Priority": 2.0, "ADM3_EN": "Shakargarh", "ADM2_EN": "Narowal", "ADM1_EN": "Punjab", "ADM0_EN": "Pakistan"}, "geometry": {"type": "Point", "coordinates": [75.06750910536095, 32.080447881464636, -4.144286629070848e-05]}}, {"type": "Feature", "properties": {"OBJECTID_1": 138, "Join_Count": 1, "TARGET_FID": 138, "Lattitude": 32.0678432382, "Longitude": 73.2618453082, "Priority": 2.0, "ADM3_EN": "Pindi Bhattian", "ADM2_EN": "Hafizabad", "ADM1_EN": "Punjab", "ADM0_EN": "Pakistan"}, "geometry": {"type": "Point", "coordinates": [73.26184530821445, 32.06784323817493, -4.144286629070848e-05]}}, {"type": "Feature", "properties": {"OBJECTID_1": 139, "Join_Count": 1, "TARGET_FID": 139, "Lattitude": 32.0562500003, "Longitude": 72.28125, "Priority": 2.0, "ADM3_EN": "Khushab", "ADM2_EN": "Khushab", "ADM1_EN": "Punjab", "ADM0_EN": "Pakistan"}, "geometry": {"type": "Point", "coordinates": [72.28124999998755, 32.056250000337286, -4.144286629070848e-05]}}, {"type": "Feature", "properties": {"OBJECTID_1": 141, "Join_Count": 1, "TARGET_FID": 141, "Lattitude": 31.9044762714, "Longitude": 72.2350901853, "Priority": 2.0, "ADM3_EN": "Noorpur", "ADM2_EN": "Khushab", "ADM1_EN": "Punjab", "ADM0_EN": "Pakistan"}, "geometry": {"type": "Point", "coordinates": [72.23509018526391, 31.90447627136291, -4.144286629070848e-05]}}, {"type": "Feature", "properties": {"OBJECTID_1": 143, "Join_Count": 1, "TARGET_FID": 143, "Lattitude": 31.8218197521, "Longitude": 73.0653109217, "Priority": 2.0, "ADM3_EN": "Lalian", "ADM2_EN": "Chiniot", "ADM1_EN": "Punjab", "ADM0_EN": "Pakistan"}, "geometry": {"type": "Point", "coordinates": [73.06531092166176, 31.821819752079932, -4.144286629070848e-05]}}, {"type": "Feature", "properties": {"OBJECTID_1": 144, "Join_Count": 1, "TARGET_FID": 144, "Lattitude": 31.7878398506, "Longitude": 72.2107204842, "Priority": 2.0, "ADM3_EN": "Noorpur", "ADM2_EN": "Khushab", "ADM1_EN": "Punjab", "ADM0_EN": "Pakistan"}, "geometry": {"type": "Point", "coordinates": [72.21072048416306, 31.787839850628643, -4.144286629070848e-05]}}, {"type": "Feature", "properties": {"OBJECTID_1": 145, "Join_Count": 1, "TARGET_FID": 145, "Lattitude": 31.8205006535, "Longitude": 72.2259722153, "Priority": 2.0, "ADM3_EN": "Noorpur", "ADM2_EN": "Khushab", "ADM1_EN": "Punjab", "ADM0_EN": "Pakistan"}, "geometry": {"type": "Point", "coordinates": [72.22597221534551, 31.82050065348244, -4.144286629070848e-05]}}, {"type": "Feature", "properties": {"OBJECTID_1": 146, "Join_Count": 1, "TARGET_FID": 146, "Lattitude": 31.7745223894, "Longitude": 74.5290387721, "Priority": 2.0, "ADM3_EN": "Muridke", "ADM2_EN": "Sheikhupura", "ADM1_EN": "Punjab", "ADM0_EN": "Pakistan"}, "geometry": {"type": "Point", "coordinates": [74.52903877212168, 31.774522389396793, -4.144286629070848e-05]}}, {"type": "Feature", "properties": {"OBJECTID_1": 147, "Join_Count": 1, "TARGET_FID": 147, "Lattitude": 31.7018126732, "Longitude": 74.4868176957, "Priority": 2.0, "ADM3_EN": "Lahore Cantt", "ADM2_EN": "Lahore", "ADM1_EN": "Punjab", "ADM0_EN": "Pakistan"}, "geometry": {"type": "Point", "coordinates": [74.48681769568014, 31.701812673216352, -4.144286629070848e-05]}}, {"type": "Feature", "properties": {"OBJECTID_1": 148, "Join_Count": 1, "TARGET_FID": 148, "Lattitude": 31.6627161042, "Longitude": 74.3829062223, "Priority": 2.0, "ADM3_EN": "Ferozewala", "ADM2_EN": "Sheikhupura", "ADM1_EN": "Punjab", "ADM0_EN": "Pakistan"}, "geometry": {"type": "Point", "coordinates": [74.38290622234433, 31.66271610416493, -4.144286629070848e-05]}}, {"type": "Feature", "properties": {"OBJECTID_1": 149, "Join_Count": 1, "TARGET_FID": 149, "Lattitude": 31.6929554518, "Longitude": 70.949512441, "Priority": 2.0, "ADM3_EN": "Bhakkar", "ADM2_EN": "Bhakkar", "ADM1_EN": "Punjab", "ADM0_EN": "Pakistan"}, "geometry": {"type": "Point", "coordinates": [70.94951244104635, 31.692955451832688, -4.144286629070848e-05]}}, {"type": "Feature", "properties": {"OBJECTID_1": 150, "Join_Count": 1, "TARGET_FID": 150, "Lattitude": 31.6509059022, "Longitude": 70.8905640258, "Priority": 2.0, "ADM3_EN": "Bhakkar", "ADM2_EN": "Bhakkar", "ADM1_EN": "Punjab", "ADM0_EN": "Pakistan"}, "geometry": {"type": "Point", "coordinates": [70.89056402580923, 31.650905902185684, -4.144286629070848e-05]}}, {"type": "Feature", "properties": {"OBJECTID_1": 151, "Join_Count": 1, "TARGET_FID": 151, "Lattitude": 31.6339853917, "Longitude": 74.3338690402, "Priority": 2.0, "ADM3_EN": "Lahore City", "ADM2_EN": "Lahore", "ADM1_EN": "Punjab", "ADM0_EN": "Pakistan"}, "geometry": {"type": "Point", "coordinates": [74.3338690402241, 31.633985391712486, -4.144286629070848e-05]}}, {"type": "Feature", "properties": {"OBJECTID_1": 152, "Join_Count": 1, "TARGET_FID": 152, "Lattitude": 31.6257212121, "Longitude": 72.5744550206, "Priority": 2.0, "ADM3_EN": "Lalian", "ADM2_EN": "Chiniot", "ADM1_EN": "Punjab", "ADM0_EN": "Pakistan"}, "geometry": {"type": "Point", "coordinates": [72.57445502058277, 31.62572121206432, -4.144286629070848e-05]}}, {"type": "Feature", "properties": {"OBJECTID_1": 153, "Join_Count": 1, "TARGET_FID": 153, "Lattitude": 31.6097594077, "Longitude": 72.1419434484, "Priority": 2.0, "ADM3_EN": "Jhang", "ADM2_EN": "Jhang", "ADM1_EN": "Punjab", "ADM0_EN": "Pakistan"}, "geometry": {"type": "Point", "coordinates": [72.14194344843145, 31.609759407670595, -4.144286629070848e-05]}}, {"type": "Feature", "properties": {"OBJECTID_1": 154, "Join_Count": 1, "TARGET_FID": 154, "Lattitude": 31.5996163545, "Longitude": 72.1456900043, "Priority": 2.0, "ADM3_EN": "Jhang", "ADM2_EN": "Jhang", "ADM1_EN": "Punjab", "ADM0_EN": "Pakistan"}, "geometry": {"type": "Point", "coordinates": [72.14569000429032, 31.599616354511227, -4.144286629070848e-05]}}, {"type": "Feature", "properties": {"OBJECTID_1": 155, "Join_Count": 1, "TARGET_FID": 155, "Lattitude": 31.5479166665, "Longitude": 72.1270833333, "Priority": 2.0, "ADM3_EN": "Jhang", "ADM2_EN": "Jhang", "ADM1_EN": "Punjab", "ADM0_EN": "Pakistan"}, "geometry": {"type": "Point", "coordinates": [72.12708333332921, 31.54791666652102, -4.144286629070848e-05]}}, {"type": "Feature", "properties": {"OBJECTID_1": 156, "Join_Count": 1, "TARGET_FID": 156, "Lattitude": 31.5506840369, "Longitude": 72.5089808512, "Priority": 2.0, "ADM3_EN": "Bhawana", "ADM2_EN": "Chiniot", "ADM1_EN": "Punjab", "ADM0_EN": "Pakistan"}, "geometry": {"type": "Point", "coordinates": [72.50898085118541, 31.550684036938833, -4.144286629070848e-05]}}, {"type": "Feature", "properties": {"OBJECTID_1": 157, "Join_Count": 1, "TARGET_FID": 157, "Lattitude": 31.4434169304, "Longitude": 74.1523309999, "Priority": 2.0, "ADM3_EN": "Lahore City", "ADM2_EN": "Lahore", "ADM1_EN": "Punjab", "ADM0_EN": "Pakistan"}, "geometry": {"type": "Point", "coordinates": [74.1523309998758, 31.44341693044703, -4.144286629070848e-05]}}, {"type": "Feature", "properties": {"OBJECTID_1": 158, "Join_Count": 1, "TARGET_FID": 158, "Lattitude": 31.3743028612, "Longitude": 74.0519824417, "Priority": 2.0, "ADM3_EN": "Sharak Pur", "ADM2_EN": "Sheikhupura", "ADM1_EN": "Punjab", "ADM0_EN": "Pakistan"}, "geometry": {"type": "Point", "coordinates": [74.05198244173636, 31.37430286118814, -4.144286629070848e-05]}}, {"type": "Feature", "properties": {"OBJECTID_1": 159, "Join_Count": 1, "TARGET_FID": 159, "Lattitude": 31.3810629301, "Longitude": 72.1009871524, "Priority": 2.0, "ADM3_EN": "Athara Hazari", "ADM2_EN": "Jhang", "ADM1_EN": "Punjab", "ADM0_EN": "Pakistan"}, "geometry": {"type": "Point", "coordinates": [72.10098715243521, 31.381062930110204, -4.144286629070848e-05]}}, {"type": "Feature", "properties": {"OBJECTID_1": 160, "Join_Count": 1, "TARGET_FID": 160, "Lattitude": 31.2895833331, "Longitude": 70.7687500003, "Priority": 2.0, "ADM3_EN": "Karor Lal Esan", "ADM2_EN": "Leiah", "ADM1_EN": "Punjab", "ADM0_EN": "Pakistan"}, "geometry": {"type": "Point", "coordinates": [70.76875000031231, 31.289583333104417, -4.144286629070848e-05]}}, {"type": "Feature", "properties": {"OBJECTID_1": 161, "Join_Count": 1, "TARGET_FID": 161, "Lattitude": 31.246024025, "Longitude": 70.7603258933, "Priority": 2.0, "ADM3_EN": "Taunsa", "ADM2_EN": "Dera Ghazi Khan", "ADM1_EN": "Punjab", "ADM0_EN": "Pakistan"}, "geometry": {"type": "Point", "coordinates": [70.76032589332539, 31.2460240249888, -4.144286629070848e-05]}}, {"type": "Feature", "properties": {"OBJECTID_1": 162, "Join_Count": 1, "TARGET_FID": 162, "Lattitude": 31.2128730736, "Longitude": 72.2239378652, "Priority": 2.0, "ADM3_EN": "Jhang", "ADM2_EN": "Jhang", "ADM1_EN": "Punjab", "ADM0_EN": "Pakistan"}, "geometry": {"type": "Point", "coordinates": [72.22393786524037, 31.21287307363349, -4.144286629070848e-05]}}, {"type": "Feature", "properties": {"OBJECTID_1": 163, "Join_Count": 1, "TARGET_FID": 163, "Lattitude": 31.207606239, "Longitude": 73.7257603348, "Priority": 2.0, "ADM3_EN": "Nankana Sahib", "ADM2_EN": "Nankana Sahib", "ADM1_EN": "Punjab", "ADM0_EN": "Pakistan"}, "geometry": {"type": "Point", "coordinates": [73.72576033477168, 31.20760623903675, -4.144286629070848e-05]}}, {"type": "Feature", "properties": {"OBJECTID_1": 166, "Join_Count": 1, "TARGET_FID": 166, "Lattitude": 31.1059384843, "Longitude": 73.4352134394, "Priority": 2.0, "ADM3_EN": "Nankana Sahib", "ADM2_EN": "Nankana Sahib", "ADM1_EN": "Punjab", "ADM0_EN": "Pakistan"}, "geometry": {"type": "Point", "coordinates": [73.43521343944872, 31.10593848427368, -4.144286629070848e-05]}}, {"type": "Feature", "properties": {"OBJECTID_1": 167, "Join_Count": 1, "TARGET_FID": 167, "Lattitude": 30.9979166667, "Longitude": 73.3395833336, "Priority": 2.0, "ADM3_EN": "Tandlian Wala", "ADM2_EN": "Faisalabad", "ADM1_EN": "Punjab", "ADM0_EN": "Pakistan"}, "geometry": {"type": "Point", "coordinates": [73.33958333360403, 30.99791666672087, -4.144286629070848e-05]}}, {"type": "Feature", "properties": {"OBJECTID_1": 168, "Join_Count": 1, "TARGET_FID": 168, "Lattitude": 30.9912520312, "Longitude": 70.8199733165, "Priority": 2.0, "ADM3_EN": "Leiah", "ADM2_EN": "Leiah", "ADM1_EN": "Punjab", "ADM0_EN": "Pakistan"}, "geometry": {"type": "Point", "coordinates": [70.81997331651542, 30.991252031156364, -4.144286629070848e-05]}}, {"type": "Feature", "properties": {"OBJECTID_1": 169, "Join_Count": 1, "TARGET_FID": 169, "Lattitude": 30.9343799797, "Longitude": 70.8057591422, "Priority": 2.0, "ADM3_EN": "Leiah", "ADM2_EN": "Leiah", "ADM1_EN": "Punjab", "ADM0_EN": "Pakistan"}, "geometry": {"type": "Point", "coordinates": [70.80575914217076, 30.934379979652363, -4.144286629070848e-05]}}, {"type": "Feature", "properties": {"OBJECTID_1": 170, "Join_Count": 1, "TARGET_FID": 170, "Lattitude": 30.9184936545, "Longitude": 74.3638142799, "Priority": 2.0, "ADM3_EN": "Kasur", "ADM2_EN": "Kasur", "ADM1_EN": "Punjab", "ADM0_EN": "Pakistan"}, "geometry": {"type": "Point", "coordinates": [74.36381427990517, 30.918493654458644, -4.144286629070848e-05]}}, {"type": "Feature", "properties": {"OBJECTID_1": 171, "Join_Count": 1, "TARGET_FID": 171, "Lattitude": 30.8619133026, "Longitude": 71.9756695103, "Priority": 2.0, "ADM3_EN": "Ahmadpur Sial", "ADM2_EN": "Jhang", "ADM1_EN": "Punjab", "ADM0_EN": "Pakistan"}, "geometry": {"type": "Point", "coordinates": [71.97566951033969, 30.8619133025569, -4.144286629070848e-05]}}, {"type": "Feature", "properties": {"OBJECTID_1": 172, "Join_Count": 1, "TARGET_FID": 172, "Lattitude": 30.8645833331, "Longitude": 74.3229166665, "Priority": 2.0, "ADM3_EN": "Kasur", "ADM2_EN": "Kasur", "ADM1_EN": "Punjab", "ADM0_EN": "Pakistan"}, "geometry": {"type": "Point", "coordinates": [74.32291666647103, 30.86458333305444, -4.144286629070848e-05]}}, {"type": "Feature", "properties": {"OBJECTID_1": 173, "Join_Count": 1, "TARGET_FID": 173, "Lattitude": 30.7691126959, "Longitude": 74.2500575783, "Priority": 2.0, "ADM3_EN": "Chunian", "ADM2_EN": "Kasur", "ADM1_EN": "Punjab", "ADM0_EN": "Pakistan"}, "geometry": {"type": "Point", "coordinates": [74.25005757829467, 30.76911269589425, -4.144286629070848e-05]}}, {"type": "Feature", "properties": {"OBJECTID_1": 174, "Join_Count": 1, "TARGET_FID": 174, "Lattitude": 30.7542903038, "Longitude": 72.9688611674, "Priority": 2.0, "ADM3_EN": "Sahiwal", "ADM2_EN": "Sahiwal", "ADM1_EN": "Punjab", "ADM0_EN": "Pakistan"}, "geometry": {"type": "Point", "coordinates": [72.96886116740899, 30.754290303754544, -4.144286629070848e-05]}}, {"type": "Feature", "properties": {"OBJECTID_1": 175, "Join_Count": 1, "TARGET_FID": 175, "Lattitude": 30.6842269938, "Longitude": 70.7674154055, "Priority": 2.0, "ADM3_EN": "Taunsa", "ADM2_EN": "Dera Ghazi Khan", "ADM1_EN": "Punjab", "ADM0_EN": "Pakistan"}, "geometry": {"type": "Point", "coordinates": [70.76741540549665, 30.684226993780783, -4.144286629070848e-05]}}, {"type": "Feature", "properties": {"OBJECTID_1": 176, "Join_Count": 1, "TARGET_FID": 176, "Lattitude": 30.631455474, "Longitude": 71.9177639561, "Priority": 2.0, "ADM3_EN": "Kabirwala", "ADM2_EN": "Khanewal", "ADM1_EN": "Punjab", "ADM0_EN": "Pakistan"}, "geometry": {"type": "Point", "coordinates": [71.9177639561417, 30.631455473990968, -4.144286629070848e-05]}}, {"type": "Feature", "properties": {"OBJECTID_1": 177, "Join_Count": 1, "TARGET_FID": 177, "Lattitude": 30.6475856126, "Longitude": 74.098990122, "Priority": 2.0, "ADM3_EN": "Depalpur", "ADM2_EN": "Okara", "ADM1_EN": "Punjab", "ADM0_EN": "Pakistan"}, "geometry": {"type": "Point", "coordinates": [74.09899012199656, 30.647585612586, -4.144286629070848e-05]}}, {"type": "Feature", "properties": {"OBJECTID_1": 178, "Join_Count": 1, "TARGET_FID": 178, "Lattitude": 30.5977310987, "Longitude": 72.5506068219, "Priority": 2.0, "ADM3_EN": "Chichawatni", "ADM2_EN": "Sahiwal", "ADM1_EN": "Punjab", "ADM0_EN": "Pakistan"}, "geometry": {"type": "Point", "coordinates": [72.55060682194733, 30.59773109871128, -4.144286629070848e-05]}}, {"type": "Feature", "properties": {"OBJECTID_1": 179, "Join_Count": 1, "TARGET_FID": 179, "Lattitude": 30.570117346, "Longitude": 72.3655772951, "Priority": 2.0, "ADM3_EN": "Mian Channu", "ADM2_EN": "Khanewal", "ADM1_EN": "Punjab", "ADM0_EN": "Pakistan"}, "geometry": {"type": "Point", "coordinates": [72.3655772950562, 30.570117346038728, -4.144286629070848e-05]}}, {"type": "Feature", "properties": {"OBJECTID_1": 180, "Join_Count": 1, "TARGET_FID": 180, "Lattitude": 30.5618948041, "Longitude": 72.295160297, "Priority": 2.0, "ADM3_EN": "Kamalia", "ADM2_EN": "Toba Tek Singh", "ADM1_EN": "Punjab", "ADM0_EN": "Pakistan"}, "geometry": {"type": "Point", "coordinates": [72.29516029701017, 30.561894804101996, -4.144286629070848e-05]}}, {"type": "Feature", "properties": {"OBJECTID_1": 181, "Join_Count": 1, "TARGET_FID": 181, "Lattitude": 30.5411314096, "Longitude": 71.5950609296, "Priority": 2.0, "ADM3_EN": "Muzaffargarh", "ADM2_EN": "Muzaffargarh", "ADM1_EN": "Punjab", "ADM0_EN": "Pakistan"}, "geometry": {"type": "Point", "coordinates": [71.59506092961828, 30.54113140958691, -4.144286629070848e-05]}}, {"type": "Feature", "properties": {"OBJECTID_1": 182, "Join_Count": 1, "TARGET_FID": 182, "Lattitude": 30.5178262252, "Longitude": 73.9961472375, "Priority": 2.0, "ADM3_EN": "Depalpur", "ADM2_EN": "Okara", "ADM1_EN": "Punjab", "ADM0_EN": "Pakistan"}, "geometry": {"type": "Point", "coordinates": [73.99614723750506, 30.517826225200167, -4.144286629070848e-05]}}, {"type": "Feature", "properties": {"OBJECTID_1": 183, "Join_Count": 1, "TARGET_FID": 183, "Lattitude": 30.4592638763, "Longitude": 70.8634771805, "Priority": 2.0, "ADM3_EN": "Kot Addu", "ADM2_EN": "Muzaffargarh", "ADM1_EN": "Punjab", "ADM0_EN": "Pakistan"}, "geometry": {"type": "Point", "coordinates": [70.86347718052752, 30.459263876326872, -4.144286629070848e-05]}}, {"type": "Feature", "properties": {"OBJECTID_1": 184, "Join_Count": 1, "TARGET_FID": 184, "Lattitude": 30.3917661154, "Longitude": 73.861826924, "Priority": 2.0, "ADM3_EN": "Depalpur", "ADM2_EN": "Okara", "ADM1_EN": "Punjab", "ADM0_EN": "Pakistan"}, "geometry": {"type": "Point", "coordinates": [73.86182692397341, 30.39176611541393, -4.144286629070848e-05]}}, {"type": "Feature", "properties": {"OBJECTID_1": 185, "Join_Count": 1, "TARGET_FID": 185, "Lattitude": 30.3645833332, "Longitude": 73.8104166666, "Priority": 2.0, "ADM3_EN": "Depalpur", "ADM2_EN": "Okara", "ADM1_EN": "Punjab", "ADM0_EN": "Pakistan"}, "geometry": {"type": "Point", "coordinates": [73.81041666659593, 30.36458333315437, -4.144286629070848e-05]}}, {"type": "Feature", "properties": {"OBJECTID_1": 186, "Join_Count": 1, "TARGET_FID": 186, "Lattitude": 30.3523538142, "Longitude": 73.7867011701, "Priority": 2.0, "ADM3_EN": "Depalpur", "ADM2_EN": "Okara", "ADM1_EN": "Punjab", "ADM0_EN": "Pakistan"}, "geometry": {"type": "Point", "coordinates": [73.78670117012297, 30.352353814177206, -4.144286629070848e-05]}}, {"type": "Feature", "properties": {"OBJECTID_1": 187, "Join_Count": 1, "TARGET_FID": 187, "Lattitude": 30.3113269502, "Longitude": 73.6547561451, "Priority": 2.0, "ADM3_EN": "Depalpur", "ADM2_EN": "Okara", "ADM1_EN": "Punjab", "ADM0_EN": "Pakistan"}, "geometry": {"type": "Point", "coordinates": [73.65475614508011, 30.31132695017868, -4.144286629070848e-05]}}, {"type": "Feature", "properties": {"OBJECTID_1": 189, "Join_Count": 1, "TARGET_FID": 189, "Lattitude": 30.3142613157, "Longitude": 70.7993622887, "Priority": 2.0, "ADM3_EN": "Dera Ghazi Khan", "ADM2_EN": "Dera Ghazi Khan", "ADM1_EN": "Punjab", "ADM0_EN": "Pakistan"}, "geometry": {"type": "Point", "coordinates": [70.79936228873868, 30.3142613157072, -4.144286629070848e-05]}}, {"type": "Feature", "properties": {"OBJECTID_1": 191, "Join_Count": 1, "TARGET_FID": 191, "Lattitude": 30.2479137526, "Longitude": 73.4296979891, "Priority": 2.0, "ADM3_EN": "Pakpattan", "ADM2_EN": "Pakpattan", "ADM1_EN": "Punjab", "ADM0_EN": "Pakistan"}, "geometry": {"type": "Point", "coordinates": [73.42969798907097, 30.24791375261765, -4.144286629070848e-05]}}, {"type": "Feature", "properties": {"OBJECTID_1": 193, "Join_Count": 1, "TARGET_FID": 193, "Lattitude": 30.1533102741, "Longitude": 71.3089785378, "Priority": 2.0, "ADM3_EN": "Multan Saddar", "ADM2_EN": "Multan", "ADM1_EN": "Punjab", "ADM0_EN": "Pakistan"}, "geometry": {"type": "Point", "coordinates": [71.30897853782932, 30.153310274149874, -4.144286629070848e-05]}}, {"type": "Feature", "properties": {"OBJECTID_1": 194, "Join_Count": 1, "TARGET_FID": 194, "Lattitude": 30.0881087513, "Longitude": 73.2223437313, "Priority": 2.0, "ADM3_EN": "Arif Wala", "ADM2_EN": "Pakpattan", "ADM1_EN": "Punjab", "ADM0_EN": "Pakistan"}, "geometry": {"type": "Point", "coordinates": [73.22234373127822, 30.08810875131786, -4.144286629070848e-05]}}, {"type": "Feature", "properties": {"OBJECTID_1": 195, "Join_Count": 1, "TARGET_FID": 195, "Lattitude": 30.0712878246, "Longitude": 73.1445232174, "Priority": 2.0, "ADM3_EN": "Arif Wala", "ADM2_EN": "Pakpattan", "ADM1_EN": "Punjab", "ADM0_EN": "Pakistan"}, "geometry": {"type": "Point", "coordinates": [73.14452321737264, 30.071287824573517, -4.144286629070848e-05]}}, {"type": "Feature", "properties": {"OBJECTID_1": 196, "Join_Count": 1, "TARGET_FID": 196, "Lattitude": 30.0770833337, "Longitude": 73.172916667, "Priority": 2.0, "ADM3_EN": "Arif Wala", "ADM2_EN": "Pakpattan", "ADM1_EN": "Punjab", "ADM0_EN": "Pakistan"}, "geometry": {"type": "Point", "coordinates": [73.17291666697065, 30.077083333728922, -4.144286629070848e-05]}}, {"type": "Feature", "properties": {"OBJECTID_1": 197, "Join_Count": 1, "TARGET_FID": 197, "Lattitude": 29.9994518915, "Longitude": 72.906182028, "Priority": 2.0, "ADM3_EN": "Bahawalnagar", "ADM2_EN": "Bahawalnagar", "ADM1_EN": "Punjab", "ADM0_EN": "Pakistan"}, "geometry": {"type": "Point", "coordinates": [72.90618202797828, 29.999451891491674, -4.144286629070848e-05]}}, {"type": "Feature", "properties": {"OBJECTID_1": 198, "Join_Count": 1, "TARGET_FID": 198, "Lattitude": 30.0077662893, "Longitude": 70.8304361506, "Priority": 2.0, "ADM3_EN": "Dera Ghazi Khan", "ADM2_EN": "Dera Ghazi Khan", "ADM1_EN": "Punjab", "ADM0_EN": "Pakistan"}, "geometry": {"type": "Point", "coordinates": [70.83043615060791, 30.00776628928287, -4.144286629070848e-05]}}, {"type": "Feature", "properties": {"OBJECTID_1": 199, "Join_Count": 1, "TARGET_FID": 199, "Lattitude": 29.9260929259, "Longitude": 72.7706731012, "Priority": 2.0, "ADM3_EN": "Chishtian", "ADM2_EN": "Bahawalnagar", "ADM1_EN": "Punjab", "ADM0_EN": "Pakistan"}, "geometry": {"type": "Point", "coordinates": [72.77067310118275, 29.92609292594784, -4.144286629070848e-05]}}, {"type": "Feature", "properties": {"OBJECTID_1": 200, "Join_Count": 1, "TARGET_FID": 200, "Lattitude": 29.9498428692, "Longitude": 72.8206679273, "Priority": 2.0, "ADM3_EN": "Chishtian", "ADM2_EN": "Bahawalnagar", "ADM1_EN": "Punjab", "ADM0_EN": "Pakistan"}, "geometry": {"type": "Point", "coordinates": [72.82066792728307, 29.949842869153144, -4.144286629070848e-05]}}, {"type": "Feature", "properties": {"OBJECTID_1": 201, "Join_Count": 1, "TARGET_FID": 201, "Lattitude": 29.9050048114, "Longitude": 72.7415400213, "Priority": 2.0, "ADM3_EN": "Burewala", "ADM2_EN": "Vehari", "ADM1_EN": "Punjab", "ADM0_EN": "Pakistan"}, "geometry": {"type": "Point", "coordinates": [72.74154002125505, 29.90500481142294, -4.144286629070848e-05]}}, {"type": "Feature", "properties": {"OBJECTID_1": 202, "Join_Count": 1, "TARGET_FID": 202, "Lattitude": 29.865076356, "Longitude": 72.6214438717, "Priority": 2.0, "ADM3_EN": "Vehari", "ADM2_EN": "Vehari", "ADM1_EN": "Punjab", "ADM0_EN": "Pakistan"}, "geometry": {"type": "Point", "coordinates": [72.62144387173737, 29.86507635598906, -4.144286629070848e-05]}}, {"type": "Feature", "properties": {"OBJECTID_1": 203, "Join_Count": 1, "TARGET_FID": 203, "Lattitude": 29.8616927027, "Longitude": 72.6590366466, "Priority": 2.0, "ADM3_EN": "Chishtian", "ADM2_EN": "Bahawalnagar", "ADM1_EN": "Punjab", "ADM0_EN": "Pakistan"}, "geometry": {"type": "Point", "coordinates": [72.65903664662397, 29.86169270265617, -4.144286629070848e-05]}}, {"type": "Feature", "properties": {"OBJECTID_1": 204, "Join_Count": 1, "TARGET_FID": 204, "Lattitude": 29.8739120467, "Longitude": 70.8116682141, "Priority": 2.0, "ADM3_EN": "Kot Chatta", "ADM2_EN": "Dera Ghazi Khan", "ADM1_EN": "Punjab", "ADM0_EN": "Pakistan"}, "geometry": {"type": "Point", "coordinates": [70.81166821411682, 29.87391204670365, -4.144286629070848e-05]}}, {"type": "Feature", "properties": {"OBJECTID_1": 205, "Join_Count": 1, "TARGET_FID": 205, "Lattitude": 29.8847026369, "Longitude": 70.8410214625, "Priority": 2.0, "ADM3_EN": "Kot Chatta", "ADM2_EN": "Dera Ghazi Khan", "ADM1_EN": "Punjab", "ADM0_EN": "Pakistan"}, "geometry": {"type": "Point", "coordinates": [70.84102146247056, 29.88470263691721, -4.144286629070848e-05]}}, {"type": "Feature", "properties": {"OBJECTID_1": 206, "Join_Count": 1, "TARGET_FID": 206, "Lattitude": 29.8193836761, "Longitude": 72.4684408343, "Priority": 2.0, "ADM3_EN": "Hasilpur", "ADM2_EN": "Bahawalpur", "ADM1_EN": "Punjab", "ADM0_EN": "Pakistan"}, "geometry": {"type": "Point", "coordinates": [72.46844083427715, 29.81938367611582, -4.144286629070848e-05]}}, {"type": "Feature", "properties": {"OBJECTID_1": 207, "Join_Count": 1, "TARGET_FID": 207, "Lattitude": 29.849880997, "Longitude": 72.4253141333, "Priority": 2.0, "ADM3_EN": "Vehari", "ADM2_EN": "Vehari", "ADM1_EN": "Punjab", "ADM0_EN": "Pakistan"}, "geometry": {"type": "Point", "coordinates": [72.42531413334063, 29.849880997010473, -4.144286629070848e-05]}}, {"type": "Feature", "properties": {"OBJECTID_1": 208, "Join_Count": 1, "TARGET_FID": 208, "Lattitude": 29.8425297578, "Longitude": 72.3652495929, "Priority": 2.0, "ADM3_EN": "Mailsi", "ADM2_EN": "Vehari", "ADM1_EN": "Punjab", "ADM0_EN": "Pakistan"}, "geometry": {"type": "Point", "coordinates": [72.36524959289443, 29.8425297578421, -4.144286629070848e-05]}}, {"type": "Feature", "properties": {"OBJECTID_1": 209, "Join_Count": 1, "TARGET_FID": 209, "Lattitude": 29.8246962898, "Longitude": 72.5231710982, "Priority": 2.0, "ADM3_EN": "Hasilpur", "ADM2_EN": "Bahawalpur", "ADM1_EN": "Punjab", "ADM0_EN": "Pakistan"}, "geometry": {"type": "Point", "coordinates": [72.52317109816772, 29.824696289801977, -4.144286629070848e-05]}}, {"type": "Feature", "properties": {"OBJECTID_1": 210, "Join_Count": 1, "TARGET_FID": 210, "Lattitude": 29.7460707415, "Longitude": 72.261200785, "Priority": 2.0, "ADM3_EN": "Khairpur Tamewali", "ADM2_EN": "Bahawalpur", "ADM1_EN": "Punjab", "ADM0_EN": "Pakistan"}, "geometry": {"type": "Point", "coordinates": [72.26120078498832, 29.746070741471613, -4.144286629070848e-05]}}, {"type": "Feature", "properties": {"OBJECTID_1": 211, "Join_Count": 1, "TARGET_FID": 211, "Lattitude": 29.7979166664, "Longitude": 72.3104166669, "Priority": 2.0, "ADM3_EN": "Hasilpur", "ADM2_EN": "Bahawalpur", "ADM1_EN": "Punjab", "ADM0_EN": "Pakistan"}, "geometry": {"type": "Point", "coordinates": [72.31041666689572, 29.797916666421088, -4.144286629070848e-05]}}, {"type": "Feature", "properties": {"OBJECTID_1": 212, "Join_Count": 1, "TARGET_FID": 212, "Lattitude": 29.7725666305, "Longitude": 72.2826852083, "Priority": 2.0, "ADM3_EN": "Khairpur Tamewali", "ADM2_EN": "Bahawalpur", "ADM1_EN": "Punjab", "ADM0_EN": "Pakistan"}, "geometry": {"type": "Point", "coordinates": [72.28268520825583, 29.77256663054561, -4.144286629070848e-05]}}, {"type": "Feature", "properties": {"OBJECTID_1": 213, "Join_Count": 1, "TARGET_FID": 213, "Lattitude": 29.7146362029, "Longitude": 71.1560962424, "Priority": 2.0, "ADM3_EN": "Muzaffargarh", "ADM2_EN": "Muzaffargarh", "ADM1_EN": "Punjab", "ADM0_EN": "Pakistan"}, "geometry": {"type": "Point", "coordinates": [71.15609624244769, 29.714636202898475, -4.144286629070848e-05]}}, {"type": "Feature", "properties": {"OBJECTID_1": 214, "Join_Count": 1, "TARGET_FID": 214, "Lattitude": 29.676272513, "Longitude": 71.1447265689, "Priority": 2.0, "ADM3_EN": "Jalalpur Pirwala", "ADM2_EN": "Multan", "ADM1_EN": "Punjab", "ADM0_EN": "Pakistan"}, "geometry": {"type": "Point", "coordinates": [71.14472656887608, 29.676272512966136, -4.144286629070848e-05]}}, {"type": "Feature", "properties": {"OBJECTID_1": 215, "Join_Count": 1, "TARGET_FID": 215, "Lattitude": 29.5995646817, "Longitude": 71.0519717269, "Priority": 2.0, "ADM3_EN": "Jalalpur Pirwala", "ADM2_EN": "Multan", "ADM1_EN": "Punjab", "ADM0_EN": "Pakistan"}, "geometry": {"type": "Point", "coordinates": [71.05197172691373, 29.599564681664788, -4.144286629070848e-05]}}, {"type": "Feature", "properties": {"OBJECTID_1": 217, "Join_Count": 1, "TARGET_FID": 217, "Lattitude": 29.5997592221, "Longitude": 71.0949339356, "Priority": 2.0, "ADM3_EN": "Jalalpur Pirwala", "ADM2_EN": "Multan", "ADM1_EN": "Punjab", "ADM0_EN": "Pakistan"}, "geometry": {"type": "Point", "coordinates": [71.09493393555272, 29.599759222110436, -4.144286629070848e-05]}}, {"type": "Feature", "properties": {"OBJECTID_1": 218, "Join_Count": 1, "TARGET_FID": 218, "Lattitude": 29.5965667916, "Longitude": 72.1313179081, "Priority": 2.0, "ADM3_EN": "Khairpur Tamewali", "ADM2_EN": "Bahawalpur", "ADM1_EN": "Punjab", "ADM0_EN": "Pakistan"}, "geometry": {"type": "Point", "coordinates": [72.13131790809501, 29.596566791624184, -4.144286629070848e-05]}}, {"type": "Feature", "properties": {"OBJECTID_1": 219, "Join_Count": 1, "TARGET_FID": 219, "Lattitude": 29.6140674745, "Longitude": 72.1610087745, "Priority": 2.0, "ADM3_EN": "Khairpur Tamewali", "ADM2_EN": "Bahawalpur", "ADM1_EN": "Punjab", "ADM0_EN": "Pakistan"}, "geometry": {"type": "Point", "coordinates": [72.16100877453539, 29.61406747453435, -4.144286629070848e-05]}}, {"type": "Feature", "properties": {"OBJECTID_1": 220, "Join_Count": 1, "TARGET_FID": 220, "Lattitude": 29.5380877308, "Longitude": 72.0764597309, "Priority": 2.0, "ADM3_EN": "Khairpur Tamewali", "ADM2_EN": "Bahawalpur", "ADM1_EN": "Punjab", "ADM0_EN": "Pakistan"}, "geometry": {"type": "Point", "coordinates": [72.0764597309319, 29.538087730764232, -4.144286629070848e-05]}}, {"type": "Feature", "properties": {"OBJECTID_1": 221, "Join_Count": 1, "TARGET_FID": 221, "Lattitude": 29.4999999996, "Longitude": 71.9500000002, "Priority": 2.0, "ADM3_EN": "Khairpur Tamewali", "ADM2_EN": "Bahawalpur", "ADM1_EN": "Punjab", "ADM0_EN": "Pakistan"}, "geometry": {"type": "Point", "coordinates": [71.9500000001999, 29.499999999600334, -4.144286629070848e-05]}}, {"type": "Feature", "properties": {"OBJECTID_1": 222, "Join_Count": 1, "TARGET_FID": 222, "Lattitude": 29.4571126856, "Longitude": 70.7102197995, "Priority": 2.0, "ADM3_EN": "Jatoi", "ADM2_EN": "Muzaffargarh", "ADM1_EN": "Punjab", "ADM0_EN": "Pakistan"}, "geometry": {"type": "Point", "coordinates": [70.71021979950422, 29.457112685602, -4.144286629070848e-05]}}, {"type": "Feature", "properties": {"OBJECTID_1": 223, "Join_Count": 1, "TARGET_FID": 223, "Lattitude": 29.510416667, "Longitude": 70.6854166665, "Priority": 2.0, "ADM3_EN": "Jampur", "ADM2_EN": "Rajanpur", "ADM1_EN": "Punjab", "ADM0_EN": "Pakistan"}, "geometry": {"type": "Point", "coordinates": [70.68541666654596, 29.51041666699564, -4.144286629070848e-05]}}, {"type": "Feature", "properties": {"OBJECTID_1": 224, "Join_Count": 1, "TARGET_FID": 224, "Lattitude": 29.491982236, "Longitude": 71.9760200499, "Priority": 2.0, "ADM3_EN": "Khairpur Tamewali", "ADM2_EN": "Bahawalpur", "ADM1_EN": "Punjab", "ADM0_EN": "Pakistan"}, "geometry": {"type": "Point", "coordinates": [71.97602004988545, 29.49198223599143, -4.144286629070848e-05]}}, {"type": "Feature", "properties": {"OBJECTID_1": 225, "Join_Count": 1, "TARGET_FID": 225, "Lattitude": 29.4793980703, "Longitude": 71.7214055597, "Priority": 2.0, "ADM3_EN": "Bahawalpur", "ADM2_EN": "Bahawalpur", "ADM1_EN": "Punjab", "ADM0_EN": "Pakistan"}, "geometry": {"type": "Point", "coordinates": [71.72140555971885, 29.47939807026478, -4.144286629070848e-05]}}, {"type": "Feature", "properties": {"OBJECTID_1": 226, "Join_Count": 1, "TARGET_FID": 226, "Lattitude": 29.4544515098, "Longitude": 71.7701726691, "Priority": 2.0, "ADM3_EN": "Bahawalpur", "ADM2_EN": "Bahawalpur", "ADM1_EN": "Punjab", "ADM0_EN": "Pakistan"}, "geometry": {"type": "Point", "coordinates": [71.77017266913344, 29.45445150982937, -4.144286629070848e-05]}}, {"type": "Feature", "properties": {"OBJECTID_1": 227, "Join_Count": 1, "TARGET_FID": 227, "Lattitude": 29.4283821737, "Longitude": 71.1685077213, "Priority": 2.0, "ADM3_EN": "Ahmadpur East", "ADM2_EN": "Bahawalpur", "ADM1_EN": "Punjab", "ADM0_EN": "Pakistan"}, "geometry": {"type": "Point", "coordinates": [71.1685077212544, 29.428382173698424, -4.144286629070848e-05]}}, {"type": "Feature", "properties": {"OBJECTID_1": 228, "Join_Count": 1, "TARGET_FID": 228, "Lattitude": 29.4244082351, "Longitude": 71.2600399142, "Priority": 2.0, "ADM3_EN": "Ahmadpur East", "ADM2_EN": "Bahawalpur", "ADM1_EN": "Punjab", "ADM0_EN": "Pakistan"}, "geometry": {"type": "Point", "coordinates": [71.26003991421072, 29.424408235052056, -4.144286629070848e-05]}}, {"type": "Feature", "properties": {"OBJECTID_1": 229, "Join_Count": 1, "TARGET_FID": 229, "Lattitude": 29.4145833333, "Longitude": 71.1937500004, "Priority": 2.0, "ADM3_EN": "Ahmadpur East", "ADM2_EN": "Bahawalpur", "ADM1_EN": "Punjab", "ADM0_EN": "Pakistan"}, "geometry": {"type": "Point", "coordinates": [71.19375000036229, 29.414583333254257, -4.144286629070848e-05]}}, {"type": "Feature", "properties": {"OBJECTID_1": 230, "Join_Count": 1, "TARGET_FID": 230, "Lattitude": 29.3431868107, "Longitude": 71.0182157531, "Priority": 2.0, "ADM3_EN": "Ahmadpur East", "ADM2_EN": "Bahawalpur", "ADM1_EN": "Punjab", "ADM0_EN": "Pakistan"}, "geometry": {"type": "Point", "coordinates": [71.01821575305462, 29.343186810722784, -4.144286629070848e-05]}}, {"type": "Feature", "properties": {"OBJECTID_1": 231, "Join_Count": 1, "TARGET_FID": 231, "Lattitude": 29.1452111752, "Longitude": 70.6685444784, "Priority": 2.0, "ADM3_EN": "Alipur", "ADM2_EN": "Muzaffargarh", "ADM1_EN": "Punjab", "ADM0_EN": "Pakistan"}, "geometry": {"type": "Point", "coordinates": [70.66854447844497, 29.14521117515568, -4.144286629070848e-05]}}, {"type": "Feature", "properties": {"OBJECTID_1": 232, "Join_Count": 1, "TARGET_FID": 232, "Lattitude": 28.8800245041, "Longitude": 70.4906714821, "Priority": 2.0, "ADM3_EN": "Khanpur", "ADM2_EN": "Rahim Yar Khan", "ADM1_EN": "Punjab", "ADM0_EN": "Pakistan"}, "geometry": {"type": "Point", "coordinates": [70.49067148210327, 28.88002450412762, -4.144286629070848e-05]}}, {"type": "Feature", "properties": {"OBJECTID_1": 233, "Join_Count": 1, "TARGET_FID": 233, "Lattitude": 28.9038323942, "Longitude": 70.4205418426, "Priority": 2.0, "ADM3_EN": "Khanpur", "ADM2_EN": "Rahim Yar Khan", "ADM1_EN": "Punjab", "ADM0_EN": "Pakistan"}, "geometry": {"type": "Point", "coordinates": [70.42054184263196, 28.90383239424966, -4.144286629070848e-05]}}, {"type": "Feature", "properties": {"OBJECTID_1": 234, "Join_Count": 1, "TARGET_FID": 234, "Lattitude": 28.5218586121, "Longitude": 69.9182205118, "Priority": 2.0, "ADM3_EN": "Rojhan", "ADM2_EN": "Rajanpur", "ADM1_EN": "Punjab", "ADM0_EN": "Pakistan"}, "geometry": {"type": "Point", "coordinates": [69.91822051176729, 28.52185861208534, -4.144286629070848e-05]}}, {"type": "Feature", "properties": {"OBJECTID_1": 235, "Join_Count": 1, "TARGET_FID": 235, "Lattitude": 28.4876899339, "Longitude": 69.8064513128, "Priority": 2.0, "ADM3_EN": "Rojhan", "ADM2_EN": "Rajanpur", "ADM1_EN": "Punjab", "ADM0_EN": "Pakistan"}, "geometry": {"type": "Point", "coordinates": [69.80645131277794, 28.48768993394333, -4.144286629070848e-05]}}, {"type": "Feature", "properties": {"OBJECTID_1": 236, "Join_Count": 1, "TARGET_FID": 236, "Lattitude": 28.4520833334, "Longitude": 69.7437499997, "Priority": 2.0, "ADM3_EN": "Rojhan", "ADM2_EN": "Rajanpur", "ADM1_EN": "Punjab", "ADM0_EN": "Pakistan"}, "geometry": {"type": "Point", "coordinates": [69.74374999966278, 28.452083333379164, -4.144286629070848e-05]}}, {"type": "Feature", "properties": {"OBJECTID_1": 237, "Join_Count": 1, "TARGET_FID": 237, "Lattitude": 28.3895833335, "Longitude": 69.7020833337, "Priority": 2.0, "ADM3_EN": "Kashmore", "ADM2_EN": "Kashmore", "ADM1_EN": "Sindh", "ADM0_EN": "Pakistan"}, "geometry": {"type": "Point", "coordinates": [69.70208333367896, 28.389583333504106, -4.144286629070848e-05]}}, {"type": "Feature", "properties": {"OBJECTID_1": 238, "Join_Count": 1, "TARGET_FID": 238, "Lattitude": 28.0770833332, "Longitude": 69.14375, "Priority": 2.0, "ADM3_EN": "Kandh Kot", "ADM2_EN": "Kashmore", "ADM1_EN": "Sindh", "ADM0_EN": "Pakistan"}, "geometry": {"type": "Point", "coordinates": [69.14374999996261, 28.077083333229268, -4.144286629070848e-05]}}, {"type": "Feature", "properties": {"OBJECTID_1": 239, "Join_Count": 1, "TARGET_FID": 239, "Lattitude": 27.919400464, "Longitude": 68.9327588838, "Priority": 2.0, "ADM3_EN": "Pano Aqil", "ADM2_EN": "Sukkur", "ADM1_EN": "Sindh", "ADM0_EN": "Pakistan"}, "geometry": {"type": "Point", "coordinates": [68.9327588838155, 27.9194004639603, -4.144286629070848e-05]}}, {"type": "Feature", "properties": {"OBJECTID_1": 240, "Join_Count": 1, "TARGET_FID": 240, "Lattitude": 27.7311848486, "Longitude": 68.675496911, "Priority": 2.0, "ADM3_EN": "Kingri", "ADM2_EN": "Khairpur", "ADM1_EN": "Sindh", "ADM0_EN": "Pakistan"}, "geometry": {"type": "Point", "coordinates": [68.67549691095371, 27.731184848601913, -4.144286629070848e-05]}}, {"type": "Feature", "properties": {"OBJECTID_1": 241, "Join_Count": 1, "TARGET_FID": 241, "Lattitude": 27.7011085705, "Longitude": 68.4519294757, "Priority": 2.0, "ADM3_EN": "Garhi Yasin", "ADM2_EN": "Shikarpur", "ADM1_EN": "Sindh", "ADM0_EN": "Pakistan"}, "geometry": {"type": "Point", "coordinates": [68.45192947566483, 27.701108570504175, -4.144286629070848e-05]}}, {"type": "Feature", "properties": {"OBJECTID_1": 242, "Join_Count": 1, "TARGET_FID": 242, "Lattitude": 27.3520833338, "Longitude": 68.197916667, "Priority": 2.0, "ADM3_EN": "Baqrani", "ADM2_EN": "Larkana", "ADM1_EN": "Sindh", "ADM0_EN": "Pakistan"}, "geometry": {"type": "Point", "coordinates": [68.19791666702065, 27.352083333778864, -4.144286629070848e-05]}}, {"type": "Feature", "properties": {"OBJECTID_1": 243, "Join_Count": 1, "TARGET_FID": 243, "Lattitude": 26.9479166667, "Longitude": 67.9312499997, "Priority": 2.0, "ADM3_EN": "Kandiaro", "ADM2_EN": "Naushahro Feroze", "ADM1_EN": "Sindh", "ADM0_EN": "Pakistan"}, "geometry": {"type": "Point", "coordinates": [67.9312499996878, 26.947916666720857, -4.144286629070848e-05]}}, {"type": "Feature", "properties": {"OBJECTID_1": 244, "Join_Count": 1, "TARGET_FID": 244, "Lattitude": 26.5565888336, "Longitude": 67.9255679031, "Priority": 2.0, "ADM3_EN": "Moro", "ADM2_EN": "Naushahro Feroze", "ADM1_EN": "Sindh", "ADM0_EN": "Pakistan"}, "geometry": {"type": "Point", "coordinates": [67.92556790313625, 26.55658883360786, -4.144286629070848e-05]}}, {"type": "Feature", "properties": {"OBJECTID_1": 245, "Join_Count": 1, "TARGET_FID": 245, "Lattitude": 26.572162728, "Longitude": 67.876938265, "Priority": 2.0, "ADM3_EN": "Moro", "ADM2_EN": "Naushahro Feroze", "ADM1_EN": "Sindh", "ADM0_EN": "Pakistan"}, "geometry": {"type": "Point", "coordinates": [67.87693826498901, 26.572162728027536, -4.144286629070848e-05]}}, {"type": "Feature", "properties": {"OBJECTID_1": 246, "Join_Count": 1, "TARGET_FID": 246, "Lattitude": 26.4105730023, "Longitude": 67.8773343732, "Priority": 2.0, "ADM3_EN": "Sehwan Sharif", "ADM2_EN": "Jamshoro", "ADM1_EN": "Sindh", "ADM0_EN": "Pakistan"}, "geometry": {"type": "Point", "coordinates": [67.8773343731828, 26.410573002342232, -4.144286629070848e-05]}}, {"type": "Feature", "properties": {"OBJECTID_1": 247, "Join_Count": 1, "TARGET_FID": 247, "Lattitude": 26.1770833334, "Longitude": 68.0270833334, "Priority": 2.0, "ADM3_EN": "Sakrand", "ADM2_EN": "Shaheed Benazir Abad", "ADM1_EN": "Sindh", "ADM0_EN": "Pakistan"}, "geometry": {"type": "Point", "coordinates": [68.02708333342918, 26.177083333429152, -4.144286629070848e-05]}}, {"type": "Feature", "properties": {"OBJECTID_1": 248, "Join_Count": 1, "TARGET_FID": 248, "Lattitude": 26.0562499997, "Longitude": 68.1270833332, "Priority": 2.0, "ADM3_EN": "Sakrand", "ADM2_EN": "Shaheed Benazir Abad", "ADM1_EN": "Sindh", "ADM0_EN": "Pakistan"}, "geometry": {"type": "Point", "coordinates": [68.12708333322928, 26.05624999973776, -4.144286629070848e-05]}}, {"type": "Feature", "properties": {"OBJECTID_1": 249, "Join_Count": 1, "TARGET_FID": 249, "Lattitude": 25.9242258505, "Longitude": 68.2708911751, "Priority": 2.0, "ADM3_EN": "Hala", "ADM2_EN": "Matiari", "ADM1_EN": "Sindh", "ADM0_EN": "Pakistan"}, "geometry": {"type": "Point", "coordinates": [68.27089117508774, 25.924225850542598, -4.144286629070848e-05]}}, {"type": "Feature", "properties": {"OBJECTID_1": 250, "Join_Count": 1, "TARGET_FID": 250, "Lattitude": 25.8770833331, "Longitude": 68.3437499998, "Priority": 2.0, "ADM3_EN": "Hala", "ADM2_EN": "Matiari", "ADM1_EN": "Sindh", "ADM0_EN": "Pakistan"}, "geometry": {"type": "Point", "coordinates": [68.34374999976274, 25.87708333312935, -4.144286629070848e-05]}}, {"type": "Feature", "properties": {"OBJECTID_1": 251, "Join_Count": 1, "TARGET_FID": 251, "Lattitude": 25.7011208044, "Longitude": 68.3346190364, "Priority": 2.0, "ADM3_EN": "Manjhand", "ADM2_EN": "Jamshoro", "ADM1_EN": "Sindh", "ADM0_EN": "Pakistan"}, "geometry": {"type": "Point", "coordinates": [68.33461903643945, 25.701120804381674, -4.144286629070848e-05]}}, {"type": "Feature", "properties": {"OBJECTID_1": 252, "Join_Count": 1, "TARGET_FID": 252, "Lattitude": 25.6854166665, "Longitude": 68.4062499996, "Priority": 2.0, "ADM3_EN": "Kotri", "ADM2_EN": "Jamshoro", "ADM1_EN": "Sindh", "ADM0_EN": "Pakistan"}, "geometry": {"type": "Point", "coordinates": [68.40624999963785, 25.68541666654596, -4.144286629070848e-05]}}, {"type": "Feature", "properties": {"OBJECTID_1": 253, "Join_Count": 1, "TARGET_FID": 253, "Lattitude": 25.5987946892, "Longitude": 68.3645703429, "Priority": 2.0, "ADM3_EN": "Matiari", "ADM2_EN": "Matiari", "ADM1_EN": "Sindh", "ADM0_EN": "Pakistan"}, "geometry": {"type": "Point", "coordinates": [68.36457034294705, 25.598794689223553, -4.144286629070848e-05]}}, {"type": "Feature", "properties": {"OBJECTID_1": 254, "Join_Count": 1, "TARGET_FID": 254, "Lattitude": 25.2296909556, "Longitude": 68.3225064275, "Priority": 2.0, "ADM3_EN": "Thatta", "ADM2_EN": "Thatta", "ADM1_EN": "Sindh", "ADM0_EN": "Pakistan"}, "geometry": {"type": "Point", "coordinates": [68.32250642752967, 25.229690955573176, -4.144286629070848e-05]}}, {"type": "Feature", "properties": {"OBJECTID_1": 255, "Join_Count": 1, "TARGET_FID": 255, "Lattitude": 24.9812500001, "Longitude": 68.2687499999, "Priority": 2.0, "ADM3_EN": "Mirpur Bathoro", "ADM2_EN": "Sujawal", "ADM1_EN": "Sindh", "ADM0_EN": "Pakistan"}, "geometry": {"type": "Point", "coordinates": [68.26874999991264, 24.98125000008747, -4.144286629070848e-05]}}, {"type": "Feature", "properties": {"OBJECTID_1": 256, "Join_Count": 1, "TARGET_FID": 256, "Lattitude": 24.8516250317, "Longitude": 68.0670800546, "Priority": 2.0, "ADM3_EN": "Sujawal", "ADM2_EN": "Sujawal", "ADM1_EN": "Sindh", "ADM0_EN": "Pakistan"}, "geometry": {"type": "Point", "coordinates": [68.06708005460092, 24.851625031669926, -4.144286629070848e-05]}}, {"type": "Feature", "properties": {"OBJECTID_1": 257, "Join_Count": 1, "TARGET_FID": 257, "Lattitude": 24.6393799224, "Longitude": 67.9915834428, "Priority": 2.0, "ADM3_EN": "Sujawal", "ADM2_EN": "Sujawal", "ADM1_EN": "Sindh", "ADM0_EN": "Pakistan"}, "geometry": {"type": "Point", "coordinates": [67.9915834428217, 24.639379922445528, -4.144286629070848e-05]}}, {"type": "Feature", "properties": {"OBJECTID_1": 258, "Join_Count": 1, "TARGET_FID": 258, "Lattitude": 24.4190801163, "Longitude": 67.8488653464, "Priority": 2.0, "ADM3_EN": "Shah Bunder", "ADM2_EN": "Sujawal", "ADM1_EN": "Sindh", "ADM0_EN": "Pakistan"}, "geometry": {"type": "Point", "coordinates": [67.8488653463587, 24.419080116254406, -4.144286629070848e-05]}}]}