{
"type": "FeatureCollection",
"name": "Monsoon_Basin1",
"crs": { "type": "name", "properties": { "name": "urn:ogc:def:crs:OGC:1.3:CRS84" } },
"features": [
{ "type": "Feature", "properties": { "Name": null, "descriptio": null, "timestamp": null, "begin": null, "end": null, "altitudeMo": null, "tessellate": -1, "extrude": 0, "visibility": -1, "drawOrder": null, "icon": null }, "geometry": { "type": "Point", "coordinates": [ 72.036089238927275, 36.065307230144583, 0.0 ] } },
{ "type": "Feature", "properties": { "Name": null, "descriptio": null, "timestamp": null, "begin": null, "end": null, "altitudeMo": null, "tessellate": -1, "extrude": 0, "visibility": -1, "drawOrder": null, "icon": null }, "geometry": { "type": "Point", "coordinates": [ 71.751242750697969, 35.518445217865477, 0.0 ] } },
{ "type": "Feature", "properties": { "Name": null, "descriptio": null, "timestamp": null, "begin": null, "end": null, "altitudeMo": null, "tessellate": -1, "extrude": 0, "visibility": -1, "drawOrder": null, "icon": null }, "geometry": { "type": "Point", "coordinates": [ 71.723705749472145, 35.458921379331059, 0.0 ] } },
{ "type": "Feature", "properties": { "Name": null, "descriptio": null, "timestamp": null, "begin": null, "end": null, "altitudeMo": null, "tessellate": -1, "extrude": 0, "visibility": -1, "drawOrder": null, "icon": null }, "geometry": { "type": "Point", "coordinates": [ 73.725637758076118, 35.531949542737273, 0.0 ] } },
{ "type": "Feature", "properties": { "Name": null, "descriptio": null, "timestamp": null, "begin": null, "end": null, "altitudeMo": null, "tessellate": -1, "extrude": 0, "visibility": -1, "drawOrder": null, "icon": null }, "geometry": { "type": "Point", "coordinates": [ 73.286574206400005, 35.484377552630058, 0.0 ] } },
{ "type": "Feature", "properties": { "Name": null, "descriptio": null, "timestamp": null, "begin": null, "end": null, "altitudeMo": null, "tessellate": -1, "extrude": 0, "visibility": -1, "drawOrder": null, "icon": null }, "geometry": { "type": "Point", "coordinates": [ 74.303325379886417, 35.413580829734123, 0.0 ] } },
{ "type": "Feature", "properties": { "Name": null, "descriptio": null, "timestamp": null, "begin": null, "end": null, "altitudeMo": null, "tessellate": -1, "extrude": 0, "visibility": -1, "drawOrder": null, "icon": null }, "geometry": { "type": "Point", "coordinates": [ 72.26260272733407, 34.716472651691561, 0.0 ] } },
{ "type": "Feature", "properties": { "Name": null, "descriptio": null, "timestamp": null, "begin": null, "end": null, "altitudeMo": null, "tessellate": -1, "extrude": 0, "visibility": -1, "drawOrder": null, "icon": null }, "geometry": { "type": "Point", "coordinates": [ 71.997710586974065, 34.63541673769236, 0.0 ] } },
{ "type": "Feature", "properties": { "Name": null, "descriptio": null, "timestamp": null, "begin": null, "end": null, "altitudeMo": null, "tessellate": -1, "extrude": 0, "visibility": -1, "drawOrder": null, "icon": null }, "geometry": { "type": "Point", "coordinates": [ 71.573001115337021, 34.32595143587924, 0.0 ] } },
{ "type": "Feature", "properties": { "Name": null, "descriptio": null, "timestamp": null, "begin": null, "end": null, "altitudeMo": null, "tessellate": -1, "extrude": 0, "visibility": -1, "drawOrder": null, "icon": null }, "geometry": { "type": "Point", "coordinates": [ 71.840793750891464, 34.03190643901236, 0.0 ] } },
{ "type": "Feature", "properties": { "Name": null, "descriptio": null, "timestamp": null, "begin": null, "end": null, "altitudeMo": null, "tessellate": -1, "extrude": 0, "visibility": -1, "drawOrder": null, "icon": null }, "geometry": { "type": "Point", "coordinates": [ 71.517472155703231, 32.934579382154773, 0.0 ] } },
{ "type": "Feature", "properties": { "Name": null, "descriptio": null, "timestamp": null, "begin": null, "end": null, "altitudeMo": null, "tessellate": -1, "extrude": 0, "visibility": -1, "drawOrder": null, "icon": null }, "geometry": { "type": "Point", "coordinates": [ 72.513337106022689, 32.377987720656861, 0.0 ] } },
{ "type": "Feature", "properties": { "Name": null, "descriptio": null, "timestamp": null, "begin": null, "end": null, "altitudeMo": null, "tessellate": -1, "extrude": 0, "visibility": -1, "drawOrder": null, "icon": null }, "geometry": { "type": "Point", "coordinates": [ 72.465863201025968, 32.322709605963617, 0.0 ] } },
{ "type": "Feature", "properties": { "Name": null, "descriptio": null, "timestamp": null, "begin": null, "end": null, "altitudeMo": null, "tessellate": -1, "extrude": 0, "visibility": -1, "drawOrder": null, "icon": null }, "geometry": { "type": "Point", "coordinates": [ 73.712639554279065, 32.324324629832638, 0.0 ] } },
{ "type": "Feature", "properties": { "Name": null, "descriptio": null, "timestamp": null, "begin": null, "end": null, "altitudeMo": null, "tessellate": -1, "extrude": 0, "visibility": -1, "drawOrder": null, "icon": null }, "geometry": { "type": "Point", "coordinates": [ 73.423647607003744, 32.208847614346929, 0.0 ] } },
{ "type": "Feature", "properties": { "Name": null, "descriptio": null, "timestamp": null, "begin": null, "end": null, "altitudeMo": null, "tessellate": -1, "extrude": 0, "visibility": -1, "drawOrder": null, "icon": null }, "geometry": { "type": "Point", "coordinates": [ 71.046719750187023, 31.977850887861919, 0.0 ] } },
{ "type": "Feature", "properties": { "Name": null, "descriptio": null, "timestamp": null, "begin": null, "end": null, "altitudeMo": null, "tessellate": -1, "extrude": 0, "visibility": -1, "drawOrder": null, "icon": null }, "geometry": { "type": "Point", "coordinates": [ 72.234691750523936, 31.926729149130999, 0.0 ] } },
{ "type": "Feature", "properties": { "Name": null, "descriptio": null, "timestamp": null, "begin": null, "end": null, "altitudeMo": null, "tessellate": -1, "extrude": 0, "visibility": -1, "drawOrder": null, "icon": null }, "geometry": { "type": "Point", "coordinates": [ 73.01076340084397, 31.783795219481728, 0.0 ] } },
{ "type": "Feature", "properties": { "Name": null, "descriptio": null, "timestamp": null, "begin": null, "end": null, "altitudeMo": null, "tessellate": -1, "extrude": 0, "visibility": -1, "drawOrder": null, "icon": null }, "geometry": { "type": "Point", "coordinates": [ 70.72985778780675, 31.310483988445359, 0.0 ] } },
{ "type": "Feature", "properties": { "Name": null, "descriptio": null, "timestamp": null, "begin": null, "end": null, "altitudeMo": null, "tessellate": -1, "extrude": 0, "visibility": -1, "drawOrder": null, "icon": null }, "geometry": { "type": "Point", "coordinates": [ 70.795474402705423, 30.710519218818408, 0.0 ] } },
{ "type": "Feature", "properties": { "Name": null, "descriptio": null, "timestamp": null, "begin": null, "end": null, "altitudeMo": null, "tessellate": -1, "extrude": 0, "visibility": -1, "drawOrder": null, "icon": null }, "geometry": { "type": "Point", "coordinates": [ 72.999887341358942, 30.78170178965151, 0.0 ] } },
{ "type": "Feature", "properties": { "Name": null, "descriptio": null, "timestamp": null, "begin": null, "end": null, "altitudeMo": null, "tessellate": -1, "extrude": 0, "visibility": -1, "drawOrder": null, "icon": null }, "geometry": { "type": "Point", "coordinates": [ 71.838661572619571, 30.621430938238191, 0.0 ] } },
{ "type": "Feature", "properties": { "Name": null, "descriptio": null, "timestamp": null, "begin": null, "end": null, "altitudeMo": null, "tessellate": -1, "extrude": 0, "visibility": -1, "drawOrder": null, "icon": null }, "geometry": { "type": "Point", "coordinates": [ 72.751624326087992, 30.64961033581114, 0.0 ] } },
{ "type": "Feature", "properties": { "Name": null, "descriptio": null, "timestamp": null, "begin": null, "end": null, "altitudeMo": null, "tessellate": -1, "extrude": 0, "visibility": -1, "drawOrder": null, "icon": null }, "geometry": { "type": "Point", "coordinates": [ 72.195129296867862, 30.571956436739441, 0.0 ] } },
{ "type": "Feature", "properties": { "Name": null, "descriptio": null, "timestamp": null, "begin": null, "end": null, "altitudeMo": null, "tessellate": -1, "extrude": 0, "visibility": -1, "drawOrder": null, "icon": null }, "geometry": { "type": "Point", "coordinates": [ 73.68541666684574, 30.327083333229279, 0.0 ] } },
{ "type": "Feature", "properties": { "Name": null, "descriptio": null, "timestamp": null, "begin": null, "end": null, "altitudeMo": null, "tessellate": -1, "extrude": 0, "visibility": -1, "drawOrder": null, "icon": null }, "geometry": { "type": "Point", "coordinates": [ 73.394604507754792, 30.240502571404029, 0.0 ] } },
{ "type": "Feature", "properties": { "Name": null, "descriptio": null, "timestamp": null, "begin": null, "end": null, "altitudeMo": null, "tessellate": -1, "extrude": 0, "visibility": -1, "drawOrder": null, "icon": null }, "geometry": { "type": "Point", "coordinates": [ 71.245628667648958, 30.023786454272241, 0.0 ] } },
{ "type": "Feature", "properties": { "Name": null, "descriptio": null, "timestamp": null, "begin": null, "end": null, "altitudeMo": null, "tessellate": -1, "extrude": 0, "visibility": -1, "drawOrder": null, "icon": null }, "geometry": { "type": "Point", "coordinates": [ 71.225013081111001, 29.96118895111832, 0.0 ] } },
{ "type": "Feature", "properties": { "Name": null, "descriptio": null, "timestamp": null, "begin": null, "end": null, "altitudeMo": null, "tessellate": -1, "extrude": 0, "visibility": -1, "drawOrder": null, "icon": null }, "geometry": { "type": "Point", "coordinates": [ 72.804507111913722, 29.953460342620769, 0.0 ] } },
{ "type": "Feature", "properties": { "Name": null, "descriptio": null, "timestamp": null, "begin": null, "end": null, "altitudeMo": null, "tessellate": -1, "extrude": 0, "visibility": -1, "drawOrder": null, "icon": null }, "geometry": { "type": "Point", "coordinates": [ 72.586927257584435, 29.837993101373812, 0.0 ] } },
{ "type": "Feature", "properties": { "Name": null, "descriptio": null, "timestamp": null, "begin": null, "end": null, "altitudeMo": null, "tessellate": -1, "extrude": 0, "visibility": -1, "drawOrder": null, "icon": null }, "geometry": { "type": "Point", "coordinates": [ 71.75994142935356, 29.459819296923051, 0.0 ] } },
{ "type": "Feature", "properties": { "Name": null, "descriptio": null, "timestamp": null, "begin": null, "end": null, "altitudeMo": null, "tessellate": -1, "extrude": 0, "visibility": -1, "drawOrder": null, "icon": null }, "geometry": { "type": "Point", "coordinates": [ 71.036640210568606, 29.38242129013171, 0.0 ] } },
{ "type": "Feature", "properties": { "Name": null, "descriptio": null, "timestamp": null, "begin": null, "end": null, "altitudeMo": null, "tessellate": -1, "extrude": 0, "visibility": -1, "drawOrder": null, "icon": null }, "geometry": { "type": "Point", "coordinates": [ 70.607369986401011, 28.966875625064631, 0.0 ] } },
{ "type": "Feature", "properties": { "Name": null, "descriptio": null, "timestamp": null, "begin": null, "end": null, "altitudeMo": null, "tessellate": -1, "extrude": 0, "visibility": -1, "drawOrder": null, "icon": null }, "geometry": { "type": "Point", "coordinates": [ 70.026385880103419, 28.629675098722821, 0.0 ] } },
{ "type": "Feature", "properties": { "Name": null, "descriptio": null, "timestamp": null, "begin": null, "end": null, "altitudeMo": null, "tessellate": -1, "extrude": 0, "visibility": -1, "drawOrder": null, "icon": null }, "geometry": { "type": "Point", "coordinates": [ 74.739583333504086, 35.847916666920682, 0.0 ] } },
{ "type": "Feature", "properties": { "Name": null, "descriptio": null, "timestamp": null, "begin": null, "end": null, "altitudeMo": null, "tessellate": -1, "extrude": 0, "visibility": -1, "drawOrder": null, "icon": null }, "geometry": { "type": "Point", "coordinates": [ 74.626709145532601, 35.744756992045623, 0.0 ] } },
{ "type": "Feature", "properties": { "Name": null, "descriptio": null, "timestamp": null, "begin": null, "end": null, "altitudeMo": null, "tessellate": -1, "extrude": 0, "visibility": -1, "drawOrder": null, "icon": null }, "geometry": { "type": "Point", "coordinates": [ 74.627083333728919, 35.664583333354173, 0.0 ] } },
{ "type": "Feature", "properties": { "Name": null, "descriptio": null, "timestamp": null, "begin": null, "end": null, "altitudeMo": null, "tessellate": -1, "extrude": 0, "visibility": -1, "drawOrder": null, "icon": null }, "geometry": { "type": "Point", "coordinates": [ 75.027083332929507, 35.631250000387247, 0.0 ] } },
{ "type": "Feature", "properties": { "Name": null, "descriptio": null, "timestamp": null, "begin": null, "end": null, "altitudeMo": null, "tessellate": -1, "extrude": 0, "visibility": -1, "drawOrder": null, "icon": null }, "geometry": { "type": "Point", "coordinates": [ 75.147306301199947, 35.603721116069529, 0.0 ] } },
{ "type": "Feature", "properties": { "Name": null, "descriptio": null, "timestamp": null, "begin": null, "end": null, "altitudeMo": null, "tessellate": -1, "extrude": 0, "visibility": -1, "drawOrder": null, "icon": null }, "geometry": { "type": "Point", "coordinates": [ 75.222916666471079, 35.589583333504081, 0.0 ] } },
{ "type": "Feature", "properties": { "Name": null, "descriptio": null, "timestamp": null, "begin": null, "end": null, "altitudeMo": null, "tessellate": -1, "extrude": 0, "visibility": -1, "drawOrder": null, "icon": null }, "geometry": { "type": "Point", "coordinates": [ 75.312801980127702, 35.58871464444448, 0.0 ] } },
{ "type": "Feature", "properties": { "Name": null, "descriptio": null, "timestamp": null, "begin": null, "end": null, "altitudeMo": null, "tessellate": -1, "extrude": 0, "visibility": -1, "drawOrder": null, "icon": null }, "geometry": { "type": "Point", "coordinates": [ 74.649343704018463, 35.570208159477822, 0.0 ] } },
{ "type": "Feature", "properties": { "Name": null, "descriptio": null, "timestamp": null, "begin": null, "end": null, "altitudeMo": null, "tessellate": -1, "extrude": 0, "visibility": -1, "drawOrder": null, "icon": null }, "geometry": { "type": "Point", "coordinates": [ 73.5776780834222, 35.537227870413517, 0.0 ] } },
{ "type": "Feature", "properties": { "Name": null, "descriptio": null, "timestamp": null, "begin": null, "end": null, "altitudeMo": null, "tessellate": -1, "extrude": 0, "visibility": -1, "drawOrder": null, "icon": null }, "geometry": { "type": "Point", "coordinates": [ 73.517141228619025, 35.536266328197598, 0.0 ] } },
{ "type": "Feature", "properties": { "Name": null, "descriptio": null, "timestamp": null, "begin": null, "end": null, "altitudeMo": null, "tessellate": -1, "extrude": 0, "visibility": -1, "drawOrder": null, "icon": null }, "geometry": { "type": "Point", "coordinates": [ 73.781151992291313, 35.517198103681508, 0.0 ] } },
{ "type": "Feature", "properties": { "Name": null, "descriptio": null, "timestamp": null, "begin": null, "end": null, "altitudeMo": null, "tessellate": -1, "extrude": 0, "visibility": -1, "drawOrder": null, "icon": null }, "geometry": { "type": "Point", "coordinates": [ 74.609737506712065, 35.494341039620771, 0.0 ] } },
{ "type": "Feature", "properties": { "Name": null, "descriptio": null, "timestamp": null, "begin": null, "end": null, "altitudeMo": null, "tessellate": -1, "extrude": 0, "visibility": -1, "drawOrder": null, "icon": null }, "geometry": { "type": "Point", "coordinates": [ 73.970343000843471, 35.483376590259219, 0.0 ] } },
{ "type": "Feature", "properties": { "Name": null, "descriptio": null, "timestamp": null, "begin": null, "end": null, "altitudeMo": null, "tessellate": -1, "extrude": 0, "visibility": -1, "drawOrder": null, "icon": null }, "geometry": { "type": "Point", "coordinates": [ 73.901575298966691, 35.487670130676342, 0.0 ] } },
{ "type": "Feature", "properties": { "Name": null, "descriptio": null, "timestamp": null, "begin": null, "end": null, "altitudeMo": null, "tessellate": -1, "extrude": 0, "visibility": -1, "drawOrder": null, "icon": null }, "geometry": { "type": "Point", "coordinates": [ 75.364583333154386, 35.468749999812722, 0.0 ] } },
{ "type": "Feature", "properties": { "Name": null, "descriptio": null, "timestamp": null, "begin": null, "end": null, "altitudeMo": null, "tessellate": -1, "extrude": 0, "visibility": -1, "drawOrder": null, "icon": null }, "geometry": { "type": "Point", "coordinates": [ 75.464583332954518, 35.435416666845747, 0.0 ] } },
{ "type": "Feature", "properties": { "Name": null, "descriptio": null, "timestamp": null, "begin": null, "end": null, "altitudeMo": null, "tessellate": -1, "extrude": 0, "visibility": -1, "drawOrder": null, "icon": null }, "geometry": { "type": "Point", "coordinates": [ 74.114895459923915, 35.428479772786417, 0.0 ] } },
{ "type": "Feature", "properties": { "Name": null, "descriptio": null, "timestamp": null, "begin": null, "end": null, "altitudeMo": null, "tessellate": -1, "extrude": 0, "visibility": -1, "drawOrder": null, "icon": null }, "geometry": { "type": "Point", "coordinates": [ 74.157809995772084, 35.405313970994541, 0.0 ] } },
{ "type": "Feature", "properties": { "Name": null, "descriptio": null, "timestamp": null, "begin": null, "end": null, "altitudeMo": null, "tessellate": -1, "extrude": 0, "visibility": -1, "drawOrder": null, "icon": null }, "geometry": { "type": "Point", "coordinates": [ 74.351840533262475, 35.411098975695872, 0.0 ] } },
{ "type": "Feature", "properties": { "Name": null, "descriptio": null, "timestamp": null, "begin": null, "end": null, "altitudeMo": null, "tessellate": -1, "extrude": 0, "visibility": -1, "drawOrder": null, "icon": null }, "geometry": { "type": "Point", "coordinates": [ 75.639815040710687, 35.324467505936283, 0.0 ] } },
{ "type": "Feature", "properties": { "Name": null, "descriptio": null, "timestamp": null, "begin": null, "end": null, "altitudeMo": null, "tessellate": -1, "extrude": 0, "visibility": -1, "drawOrder": null, "icon": null }, "geometry": { "type": "Point", "coordinates": [ 75.599908303025316, 35.338807955653067, 0.0 ] } },
{ "type": "Feature", "properties": { "Name": null, "descriptio": null, "timestamp": null, "begin": null, "end": null, "altitudeMo": null, "tessellate": -1, "extrude": 0, "visibility": -1, "drawOrder": null, "icon": null }, "geometry": { "type": "Point", "coordinates": [ 75.914583332954507, 35.22708333332924, 0.0 ] } },
{ "type": "Feature", "properties": { "Name": null, "descriptio": null, "timestamp": null, "begin": null, "end": null, "altitudeMo": null, "tessellate": -1, "extrude": 0, "visibility": -1, "drawOrder": null, "icon": null }, "geometry": { "type": "Point", "coordinates": [ 75.910609968955072, 35.1851349772733, 0.0 ] } },
{ "type": "Feature", "properties": { "Name": null, "descriptio": null, "timestamp": null, "begin": null, "end": null, "altitudeMo": null, "tessellate": -1, "extrude": 0, "visibility": -1, "drawOrder": null, "icon": null }, "geometry": { "type": "Point", "coordinates": [ 75.979783254834018, 35.105186715867568, 0.0 ] } },
{ "type": "Feature", "properties": { "Name": null, "descriptio": null, "timestamp": null, "begin": null, "end": null, "altitudeMo": null, "tessellate": -1, "extrude": 0, "visibility": -1, "drawOrder": null, "icon": null }, "geometry": { "type": "Point", "coordinates": [ 76.227083333229302, 34.939583333004457, 0.0 ] } },
{ "type": "Feature", "properties": { "Name": null, "descriptio": null, "timestamp": null, "begin": null, "end": null, "altitudeMo": null, "tessellate": -1, "extrude": 0, "visibility": -1, "drawOrder": null, "icon": null }, "geometry": { "type": "Point", "coordinates": [ 76.216864406606376, 34.748177072766723, 0.0 ] } },
{ "type": "Feature", "properties": { "Name": null, "descriptio": null, "timestamp": null, "begin": null, "end": null, "altitudeMo": null, "tessellate": -1, "extrude": 0, "visibility": -1, "drawOrder": null, "icon": null }, "geometry": { "type": "Point", "coordinates": [ 71.577143520685851, 34.508935987081308, 0.0 ] } },
{ "type": "Feature", "properties": { "Name": null, "descriptio": null, "timestamp": null, "begin": null, "end": null, "altitudeMo": null, "tessellate": -1, "extrude": 0, "visibility": -1, "drawOrder": null, "icon": null }, "geometry": { "type": "Point", "coordinates": [ 73.471517219513586, 34.382468052626812, 0.0 ] } },
{ "type": "Feature", "properties": { "Name": null, "descriptio": null, "timestamp": null, "begin": null, "end": null, "altitudeMo": null, "tessellate": -1, "extrude": 0, "visibility": -1, "drawOrder": null, "icon": null }, "geometry": { "type": "Point", "coordinates": [ 73.475137423541355, 34.293126827374479, 0.0 ] } },
{ "type": "Feature", "properties": { "Name": null, "descriptio": null, "timestamp": null, "begin": null, "end": null, "altitudeMo": null, "tessellate": -1, "extrude": 0, "visibility": -1, "drawOrder": null, "icon": null }, "geometry": { "type": "Point", "coordinates": [ 73.472135339268448, 34.285810193981469, 0.0 ] } },
{ "type": "Feature", "properties": { "Name": null, "descriptio": null, "timestamp": null, "begin": null, "end": null, "altitudeMo": null, "tessellate": -1, "extrude": 0, "visibility": -1, "drawOrder": null, "icon": null }, "geometry": { "type": "Point", "coordinates": [ 73.497916666321132, 34.206249999637819, 0.0 ] } },
{ "type": "Feature", "properties": { "Name": null, "descriptio": null, "timestamp": null, "begin": null, "end": null, "altitudeMo": null, "tessellate": -1, "extrude": 0, "visibility": -1, "drawOrder": null, "icon": null }, "geometry": { "type": "Point", "coordinates": [ 73.844357740502801, 34.156195063618362, 0.0 ] } },
{ "type": "Feature", "properties": { "Name": null, "descriptio": null, "timestamp": null, "begin": null, "end": null, "altitudeMo": null, "tessellate": -1, "extrude": 0, "visibility": -1, "drawOrder": null, "icon": null }, "geometry": { "type": "Point", "coordinates": [ 73.844719745558621, 34.148738196947413, 0.0 ] } },
{ "type": "Feature", "properties": { "Name": null, "descriptio": null, "timestamp": null, "begin": null, "end": null, "altitudeMo": null, "tessellate": -1, "extrude": 0, "visibility": -1, "drawOrder": null, "icon": null }, "geometry": { "type": "Point", "coordinates": [ 71.703192477620235, 34.113842151265011, 0.0 ] } },
{ "type": "Feature", "properties": { "Name": null, "descriptio": null, "timestamp": null, "begin": null, "end": null, "altitudeMo": null, "tessellate": -1, "extrude": 0, "visibility": -1, "drawOrder": null, "icon": null }, "geometry": { "type": "Point", "coordinates": [ 71.785562253322638, 34.070875267050091, 0.0 ] } },
{ "type": "Feature", "properties": { "Name": null, "descriptio": null, "timestamp": null, "begin": null, "end": null, "altitudeMo": null, "tessellate": -1, "extrude": 0, "visibility": -1, "drawOrder": null, "icon": null }, "geometry": { "type": "Point", "coordinates": [ 73.585483552530832, 33.918079955361968, 0.0 ] } },
{ "type": "Feature", "properties": { "Name": null, "descriptio": null, "timestamp": null, "begin": null, "end": null, "altitudeMo": null, "tessellate": -1, "extrude": 0, "visibility": -1, "drawOrder": null, "icon": null }, "geometry": { "type": "Point", "coordinates": [ 73.582370402801089, 33.909178568732401, 0.0 ] } },
{ "type": "Feature", "properties": { "Name": null, "descriptio": null, "timestamp": null, "begin": null, "end": null, "altitudeMo": null, "tessellate": -1, "extrude": 0, "visibility": -1, "drawOrder": null, "icon": null }, "geometry": { "type": "Point", "coordinates": [ 72.238232684490853, 33.915972933304253, 0.0 ] } },
{ "type": "Feature", "properties": { "Name": null, "descriptio": null, "timestamp": null, "begin": null, "end": null, "altitudeMo": null, "tessellate": -1, "extrude": 0, "visibility": -1, "drawOrder": null, "icon": null }, "geometry": { "type": "Point", "coordinates": [ 73.602083333079406, 33.747916666620952, 0.0 ] } },
{ "type": "Feature", "properties": { "Name": null, "descriptio": null, "timestamp": null, "begin": null, "end": null, "altitudeMo": null, "tessellate": -1, "extrude": 0, "visibility": -1, "drawOrder": null, "icon": null }, "geometry": { "type": "Point", "coordinates": [ 72.243750000062505, 33.76041666659593, 0.0 ] } },
{ "type": "Feature", "properties": { "Name": null, "descriptio": null, "timestamp": null, "begin": null, "end": null, "altitudeMo": null, "tessellate": -1, "extrude": 0, "visibility": -1, "drawOrder": null, "icon": null }, "geometry": { "type": "Point", "coordinates": [ 73.593750000062528, 33.752083333579051, 0.0 ] } },
{ "type": "Feature", "properties": { "Name": null, "descriptio": null, "timestamp": null, "begin": null, "end": null, "altitudeMo": null, "tessellate": -1, "extrude": 0, "visibility": -1, "drawOrder": null, "icon": null }, "geometry": { "type": "Point", "coordinates": [ 71.98552379194139, 33.664873710596211, 0.0 ] } },
{ "type": "Feature", "properties": { "Name": null, "descriptio": null, "timestamp": null, "begin": null, "end": null, "altitudeMo": null, "tessellate": -1, "extrude": 0, "visibility": -1, "drawOrder": null, "icon": null }, "geometry": { "type": "Point", "coordinates": [ 71.975840941366059, 33.624510065554098, 0.0 ] } },
{ "type": "Feature", "properties": { "Name": null, "descriptio": null, "timestamp": null, "begin": null, "end": null, "altitudeMo": null, "tessellate": -1, "extrude": 0, "visibility": -1, "drawOrder": null, "icon": null }, "geometry": { "type": "Point", "coordinates": [ 73.627083333029489, 33.572916666970677, 0.0 ] } },
{ "type": "Feature", "properties": { "Name": null, "descriptio": null, "timestamp": null, "begin": null, "end": null, "altitudeMo": null, "tessellate": -1, "extrude": 0, "visibility": -1, "drawOrder": null, "icon": null }, "geometry": { "type": "Point", "coordinates": [ 73.635416666945687, 33.568750000012543, 0.0 ] } },
{ "type": "Feature", "properties": { "Name": null, "descriptio": null, "timestamp": null, "begin": null, "end": null, "altitudeMo": null, "tessellate": -1, "extrude": 0, "visibility": -1, "drawOrder": null, "icon": null }, "geometry": { "type": "Point", "coordinates": [ 71.868833470746154, 33.414402653335543, 0.0 ] } },
{ "type": "Feature", "properties": { "Name": null, "descriptio": null, "timestamp": null, "begin": null, "end": null, "altitudeMo": null, "tessellate": -1, "extrude": 0, "visibility": -1, "drawOrder": null, "icon": null }, "geometry": { "type": "Point", "coordinates": [ 71.703446071266498, 33.279813251449788, 0.0 ] } },
{ "type": "Feature", "properties": { "Name": null, "descriptio": null, "timestamp": null, "begin": null, "end": null, "altitudeMo": null, "tessellate": -1, "extrude": 0, "visibility": -1, "drawOrder": null, "icon": null }, "geometry": { "type": "Point", "coordinates": [ 71.732512842926965, 33.229879617325892, 0.0 ] } },
{ "type": "Feature", "properties": { "Name": null, "descriptio": null, "timestamp": null, "begin": null, "end": null, "altitudeMo": null, "tessellate": -1, "extrude": 0, "visibility": -1, "drawOrder": null, "icon": null }, "geometry": { "type": "Point", "coordinates": [ 73.589937635960951, 33.240089856303847, 0.0 ] } },
{ "type": "Feature", "properties": { "Name": null, "descriptio": null, "timestamp": null, "begin": null, "end": null, "altitudeMo": null, "tessellate": -1, "extrude": 0, "visibility": -1, "drawOrder": null, "icon": null }, "geometry": { "type": "Point", "coordinates": [ 73.670050707054287, 33.216752537103268, 0.0 ] } },
{ "type": "Feature", "properties": { "Name": null, "descriptio": null, "timestamp": null, "begin": null, "end": null, "altitudeMo": null, "tessellate": -1, "extrude": 0, "visibility": -1, "drawOrder": null, "icon": null }, "geometry": { "type": "Point", "coordinates": [ 73.641836890160391, 33.140878329771162, 0.0 ] } },
{ "type": "Feature", "properties": { "Name": null, "descriptio": null, "timestamp": null, "begin": null, "end": null, "altitudeMo": null, "tessellate": -1, "extrude": 0, "visibility": -1, "drawOrder": null, "icon": null }, "geometry": { "type": "Point", "coordinates": [ 71.708749197620278, 33.100459818442189, 0.0 ] } },
{ "type": "Feature", "properties": { "Name": null, "descriptio": null, "timestamp": null, "begin": null, "end": null, "altitudeMo": null, "tessellate": -1, "extrude": 0, "visibility": -1, "drawOrder": null, "icon": null }, "geometry": { "type": "Point", "coordinates": [ 71.722776904453752, 33.027091891755788, 0.0 ] } },
{ "type": "Feature", "properties": { "Name": null, "descriptio": null, "timestamp": null, "begin": null, "end": null, "altitudeMo": null, "tessellate": -1, "extrude": 0, "visibility": -1, "drawOrder": null, "icon": null }, "geometry": { "type": "Point", "coordinates": [ 73.775955441252663, 32.977591111781777, 0.0 ] } },
{ "type": "Feature", "properties": { "Name": null, "descriptio": null, "timestamp": null, "begin": null, "end": null, "altitudeMo": null, "tessellate": -1, "extrude": 0, "visibility": -1, "drawOrder": null, "icon": null }, "geometry": { "type": "Point", "coordinates": [ 73.786944760695846, 32.971577580933882, 0.0 ] } },
{ "type": "Feature", "properties": { "Name": null, "descriptio": null, "timestamp": null, "begin": null, "end": null, "altitudeMo": null, "tessellate": -1, "extrude": 0, "visibility": -1, "drawOrder": null, "icon": null }, "geometry": { "type": "Point", "coordinates": [ 71.576689624347537, 32.967873053594921, 0.0 ] } },
{ "type": "Feature", "properties": { "Name": null, "descriptio": null, "timestamp": null, "begin": null, "end": null, "altitudeMo": null, "tessellate": -1, "extrude": 0, "visibility": -1, "drawOrder": null, "icon": null }, "geometry": { "type": "Point", "coordinates": [ 71.561844850900982, 32.960738293965477, 0.0 ] } },
{ "type": "Feature", "properties": { "Name": null, "descriptio": null, "timestamp": null, "begin": null, "end": null, "altitudeMo": null, "tessellate": -1, "extrude": 0, "visibility": -1, "drawOrder": null, "icon": null }, "geometry": { "type": "Point", "coordinates": [ 73.774455201223972, 32.956809082792923, 0.0 ] } },
{ "type": "Feature", "properties": { "Name": null, "descriptio": null, "timestamp": null, "begin": null, "end": null, "altitudeMo": null, "tessellate": -1, "extrude": 0, "visibility": -1, "drawOrder": null, "icon": null }, "geometry": { "type": "Point", "coordinates": [ 73.778554165672446, 32.950359377430502, 0.0 ] } },
{ "type": "Feature", "properties": { "Name": null, "descriptio": null, "timestamp": null, "begin": null, "end": null, "altitudeMo": null, "tessellate": -1, "extrude": 0, "visibility": -1, "drawOrder": null, "icon": null }, "geometry": { "type": "Point", "coordinates": [ 71.458264869639294, 32.879764505482292, 0.0 ] } },
{ "type": "Feature", "properties": { "Name": null, "descriptio": null, "timestamp": null, "begin": null, "end": null, "altitudeMo": null, "tessellate": -1, "extrude": 0, "visibility": -1, "drawOrder": null, "icon": null }, "geometry": { "type": "Point", "coordinates": [ 71.494827673971429, 32.893627414813672, 0.0 ] } },
{ "type": "Feature", "properties": { "Name": null, "descriptio": null, "timestamp": null, "begin": null, "end": null, "altitudeMo": null, "tessellate": -1, "extrude": 0, "visibility": -1, "drawOrder": null, "icon": null }, "geometry": { "type": "Point", "coordinates": [ 73.667175538415819, 32.861022393595981, 0.0 ] } },
{ "type": "Feature", "properties": { "Name": null, "descriptio": null, "timestamp": null, "begin": null, "end": null, "altitudeMo": null, "tessellate": -1, "extrude": 0, "visibility": -1, "drawOrder": null, "icon": null }, "geometry": { "type": "Point", "coordinates": [ 73.679181919695637, 32.860662233725989, 0.0 ] } },
{ "type": "Feature", "properties": { "Name": null, "descriptio": null, "timestamp": null, "begin": null, "end": null, "altitudeMo": null, "tessellate": -1, "extrude": 0, "visibility": -1, "drawOrder": null, "icon": null }, "geometry": { "type": "Point", "coordinates": [ 71.41874999991262, 32.78541666674586, 0.0 ] } },
{ "type": "Feature", "properties": { "Name": null, "descriptio": null, "timestamp": null, "begin": null, "end": null, "altitudeMo": null, "tessellate": -1, "extrude": 0, "visibility": -1, "drawOrder": null, "icon": null }, "geometry": { "type": "Point", "coordinates": [ 71.436339414713842, 32.76141866369629, 0.0 ] } },
{ "type": "Feature", "properties": { "Name": null, "descriptio": null, "timestamp": null, "begin": null, "end": null, "altitudeMo": null, "tessellate": -1, "extrude": 0, "visibility": -1, "drawOrder": null, "icon": null }, "geometry": { "type": "Point", "coordinates": [ 73.593750000062528, 32.747916666820757, 0.0 ] } },
{ "type": "Feature", "properties": { "Name": null, "descriptio": null, "timestamp": null, "begin": null, "end": null, "altitudeMo": null, "tessellate": -1, "extrude": 0, "visibility": -1, "drawOrder": null, "icon": null }, "geometry": { "type": "Point", "coordinates": [ 73.589583333104386, 32.743749999862651, 0.0 ] } },
{ "type": "Feature", "properties": { "Name": null, "descriptio": null, "timestamp": null, "begin": null, "end": null, "altitudeMo": null, "tessellate": -1, "extrude": 0, "visibility": -1, "drawOrder": null, "icon": null }, "geometry": { "type": "Point", "coordinates": [ 74.519127416313495, 32.740829876959587, 0.0 ] } },
{ "type": "Feature", "properties": { "Name": null, "descriptio": null, "timestamp": null, "begin": null, "end": null, "altitudeMo": null, "tessellate": -1, "extrude": 0, "visibility": -1, "drawOrder": null, "icon": null }, "geometry": { "type": "Point", "coordinates": [ 74.496507647598932, 32.704679370334247, 0.0 ] } },
{ "type": "Feature", "properties": { "Name": null, "descriptio": null, "timestamp": null, "begin": null, "end": null, "altitudeMo": null, "tessellate": -1, "extrude": 0, "visibility": -1, "drawOrder": null, "icon": null }, "geometry": { "type": "Point", "coordinates": [ 74.480971151033629, 32.69436569673956, 0.0 ] } },
{ "type": "Feature", "properties": { "Name": null, "descriptio": null, "timestamp": null, "begin": null, "end": null, "altitudeMo": null, "tessellate": -1, "extrude": 0, "visibility": -1, "drawOrder": null, "icon": null }, "geometry": { "type": "Point", "coordinates": [ 71.39034737857223, 32.68575407747835, 0.0 ] } },
{ "type": "Feature", "properties": { "Name": null, "descriptio": null, "timestamp": null, "begin": null, "end": null, "altitudeMo": null, "tessellate": -1, "extrude": 0, "visibility": -1, "drawOrder": null, "icon": null }, "geometry": { "type": "Point", "coordinates": [ 71.377083333029461, 32.677083333029437, 0.0 ] } },
{ "type": "Feature", "properties": { "Name": null, "descriptio": null, "timestamp": null, "begin": null, "end": null, "altitudeMo": null, "tessellate": -1, "extrude": 0, "visibility": -1, "drawOrder": null, "icon": null }, "geometry": { "type": "Point", "coordinates": [ 71.302083333179326, 32.631250000087498, 0.0 ] } },
{ "type": "Feature", "properties": { "Name": null, "descriptio": null, "timestamp": null, "begin": null, "end": null, "altitudeMo": null, "tessellate": -1, "extrude": 0, "visibility": -1, "drawOrder": null, "icon": null }, "geometry": { "type": "Point", "coordinates": [ 74.27670009348499, 32.602996842365357, 0.0 ] } },
{ "type": "Feature", "properties": { "Name": null, "descriptio": null, "timestamp": null, "begin": null, "end": null, "altitudeMo": null, "tessellate": -1, "extrude": 0, "visibility": -1, "drawOrder": null, "icon": null }, "geometry": { "type": "Point", "coordinates": [ 74.268606064583892, 32.582616733429958, 0.0 ] } },
{ "type": "Feature", "properties": { "Name": null, "descriptio": null, "timestamp": null, "begin": null, "end": null, "altitudeMo": null, "tessellate": -1, "extrude": 0, "visibility": -1, "drawOrder": null, "icon": null }, "geometry": { "type": "Point", "coordinates": [ 73.248611109814917, 32.597777780320392, 0.0 ] } },
{ "type": "Feature", "properties": { "Name": null, "descriptio": null, "timestamp": null, "begin": null, "end": null, "altitudeMo": null, "tessellate": -1, "extrude": 0, "visibility": -1, "drawOrder": null, "icon": null }, "geometry": { "type": "Point", "coordinates": [ 73.121944439684228, 32.608333330019221, 0.0 ] } },
{ "type": "Feature", "properties": { "Name": null, "descriptio": null, "timestamp": null, "begin": null, "end": null, "altitudeMo": null, "tessellate": -1, "extrude": 0, "visibility": -1, "drawOrder": null, "icon": null }, "geometry": { "type": "Point", "coordinates": [ 73.145842188511281, 32.568833599705869, 0.0 ] } },
{ "type": "Feature", "properties": { "Name": null, "descriptio": null, "timestamp": null, "begin": null, "end": null, "altitudeMo": null, "tessellate": -1, "extrude": 0, "visibility": -1, "drawOrder": null, "icon": null }, "geometry": { "type": "Point", "coordinates": [ 73.146099677697052, 32.580821033250267, 0.0 ] } },
{ "type": "Feature", "properties": { "Name": null, "descriptio": null, "timestamp": null, "begin": null, "end": null, "altitudeMo": null, "tessellate": -1, "extrude": 0, "visibility": -1, "drawOrder": null, "icon": null }, "geometry": { "type": "Point", "coordinates": [ 72.924166670255644, 32.547499999625373, 0.0 ] } },
{ "type": "Feature", "properties": { "Name": null, "descriptio": null, "timestamp": null, "begin": null, "end": null, "altitudeMo": null, "tessellate": -1, "extrude": 0, "visibility": -1, "drawOrder": null, "icon": null }, "geometry": { "type": "Point", "coordinates": [ 72.889583333604037, 32.514583333354203, 0.0 ] } },
{ "type": "Feature", "properties": { "Name": null, "descriptio": null, "timestamp": null, "begin": null, "end": null, "altitudeMo": null, "tessellate": -1, "extrude": 0, "visibility": -1, "drawOrder": null, "icon": null }, "geometry": { "type": "Point", "coordinates": [ 72.893749999662816, 32.510416666396097, 0.0 ] } },
{ "type": "Feature", "properties": { "Name": null, "descriptio": null, "timestamp": null, "begin": null, "end": null, "altitudeMo": null, "tessellate": -1, "extrude": 0, "visibility": -1, "drawOrder": null, "icon": null }, "geometry": { "type": "Point", "coordinates": [ 74.148778375607037, 32.500316731756783, 0.0 ] } },
{ "type": "Feature", "properties": { "Name": null, "descriptio": null, "timestamp": null, "begin": null, "end": null, "altitudeMo": null, "tessellate": -1, "extrude": 0, "visibility": -1, "drawOrder": null, "icon": null }, "geometry": { "type": "Point", "coordinates": [ 74.047916667020615, 32.464583333454151, 0.0 ] } },
{ "type": "Feature", "properties": { "Name": null, "descriptio": null, "timestamp": null, "begin": null, "end": null, "altitudeMo": null, "tessellate": -1, "extrude": 0, "visibility": -1, "drawOrder": null, "icon": null }, "geometry": { "type": "Point", "coordinates": [ 72.799795651494676, 32.45165934390554, 0.0 ] } },
{ "type": "Feature", "properties": { "Name": null, "descriptio": null, "timestamp": null, "begin": null, "end": null, "altitudeMo": null, "tessellate": -1, "extrude": 0, "visibility": -1, "drawOrder": null, "icon": null }, "geometry": { "type": "Point", "coordinates": [ 74.025872966176863, 32.44004480577776, 0.0 ] } },
{ "type": "Feature", "properties": { "Name": null, "descriptio": null, "timestamp": null, "begin": null, "end": null, "altitudeMo": null, "tessellate": -1, "extrude": 0, "visibility": -1, "drawOrder": null, "icon": null }, "geometry": { "type": "Point", "coordinates": [ 72.79791666682074, 32.439583333504103, 0.0 ] } },
{ "type": "Feature", "properties": { "Name": null, "descriptio": null, "timestamp": null, "begin": null, "end": null, "altitudeMo": null, "tessellate": -1, "extrude": 0, "visibility": -1, "drawOrder": null, "icon": null }, "geometry": { "type": "Point", "coordinates": [ 73.889900847988869, 32.379893343922397, 0.0 ] } },
{ "type": "Feature", "properties": { "Name": null, "descriptio": null, "timestamp": null, "begin": null, "end": null, "altitudeMo": null, "tessellate": -1, "extrude": 0, "visibility": -1, "drawOrder": null, "icon": null }, "geometry": { "type": "Point", "coordinates": [ 73.83680310817698, 32.384698956391773, 0.0 ] } },
{ "type": "Feature", "properties": { "Name": null, "descriptio": null, "timestamp": null, "begin": null, "end": null, "altitudeMo": null, "tessellate": -1, "extrude": 0, "visibility": -1, "drawOrder": null, "icon": null }, "geometry": { "type": "Point", "coordinates": [ 73.713250583962449, 32.329152001060798, 0.0 ] } },
{ "type": "Feature", "properties": { "Name": null, "descriptio": null, "timestamp": null, "begin": null, "end": null, "altitudeMo": null, "tessellate": -1, "extrude": 0, "visibility": -1, "drawOrder": null, "icon": null }, "geometry": { "type": "Point", "coordinates": [ 71.264171915037906, 32.239590425856427, 0.0 ] } },
{ "type": "Feature", "properties": { "Name": null, "descriptio": null, "timestamp": null, "begin": null, "end": null, "altitudeMo": null, "tessellate": -1, "extrude": 0, "visibility": -1, "drawOrder": null, "icon": null }, "geometry": { "type": "Point", "coordinates": [ 73.433683873474592, 32.23226049589146, 0.0 ] } },
{ "type": "Feature", "properties": { "Name": null, "descriptio": null, "timestamp": null, "begin": null, "end": null, "altitudeMo": null, "tessellate": -1, "extrude": 0, "visibility": -1, "drawOrder": null, "icon": null }, "geometry": { "type": "Point", "coordinates": [ 73.366932049528273, 32.174943680448592, 0.0 ] } },
{ "type": "Feature", "properties": { "Name": null, "descriptio": null, "timestamp": null, "begin": null, "end": null, "altitudeMo": null, "tessellate": -1, "extrude": 0, "visibility": -1, "drawOrder": null, "icon": null }, "geometry": { "type": "Point", "coordinates": [ 71.173354743544337, 32.126482844569132, 0.0 ] } },
{ "type": "Feature", "properties": { "Name": null, "descriptio": null, "timestamp": null, "begin": null, "end": null, "altitudeMo": null, "tessellate": -1, "extrude": 0, "visibility": -1, "drawOrder": null, "icon": null }, "geometry": { "type": "Point", "coordinates": [ 75.067509105504527, 32.080447881799167, 0.0 ] } },
{ "type": "Feature", "properties": { "Name": null, "descriptio": null, "timestamp": null, "begin": null, "end": null, "altitudeMo": null, "tessellate": -1, "extrude": 0, "visibility": -1, "drawOrder": null, "icon": null }, "geometry": { "type": "Point", "coordinates": [ 73.261845308278751, 32.067843238378913, 0.0 ] } },
{ "type": "Feature", "properties": { "Name": null, "descriptio": null, "timestamp": null, "begin": null, "end": null, "altitudeMo": null, "tessellate": -1, "extrude": 0, "visibility": -1, "drawOrder": null, "icon": null }, "geometry": { "type": "Point", "coordinates": [ 72.281249999987537, 32.056250000337293, 0.0 ] } },
{ "type": "Feature", "properties": { "Name": null, "descriptio": null, "timestamp": null, "begin": null, "end": null, "altitudeMo": null, "tessellate": -1, "extrude": 0, "visibility": -1, "drawOrder": null, "icon": null }, "geometry": { "type": "Point", "coordinates": [ 72.277083333029438, 32.052083333379187, 0.0 ] } },
{ "type": "Feature", "properties": { "Name": null, "descriptio": null, "timestamp": null, "begin": null, "end": null, "altitudeMo": null, "tessellate": -1, "extrude": 0, "visibility": -1, "drawOrder": null, "icon": null }, "geometry": { "type": "Point", "coordinates": [ 72.235090184864546, 31.90447627103428, 0.0 ] } },
{ "type": "Feature", "properties": { "Name": null, "descriptio": null, "timestamp": null, "begin": null, "end": null, "altitudeMo": null, "tessellate": -1, "extrude": 0, "visibility": -1, "drawOrder": null, "icon": null }, "geometry": { "type": "Point", "coordinates": [ 72.231226280919159, 31.89989333382935, 0.0 ] } },
{ "type": "Feature", "properties": { "Name": null, "descriptio": null, "timestamp": null, "begin": null, "end": null, "altitudeMo": null, "tessellate": -1, "extrude": 0, "visibility": -1, "drawOrder": null, "icon": null }, "geometry": { "type": "Point", "coordinates": [ 73.065310921708488, 31.82181975183525, 0.0 ] } },
{ "type": "Feature", "properties": { "Name": null, "descriptio": null, "timestamp": null, "begin": null, "end": null, "altitudeMo": null, "tessellate": -1, "extrude": 0, "visibility": -1, "drawOrder": null, "icon": null }, "geometry": { "type": "Point", "coordinates": [ 72.210720483818946, 31.7878398506355, 0.0 ] } },
{ "type": "Feature", "properties": { "Name": null, "descriptio": null, "timestamp": null, "begin": null, "end": null, "altitudeMo": null, "tessellate": -1, "extrude": 0, "visibility": -1, "drawOrder": null, "icon": null }, "geometry": { "type": "Point", "coordinates": [ 72.225972215181514, 31.820500653340751, 0.0 ] } },
{ "type": "Feature", "properties": { "Name": null, "descriptio": null, "timestamp": null, "begin": null, "end": null, "altitudeMo": null, "tessellate": -1, "extrude": 0, "visibility": -1, "drawOrder": null, "icon": null }, "geometry": { "type": "Point", "coordinates": [ 74.529038771825313, 31.77452238965359, 0.0 ] } },
{ "type": "Feature", "properties": { "Name": null, "descriptio": null, "timestamp": null, "begin": null, "end": null, "altitudeMo": null, "tessellate": -1, "extrude": 0, "visibility": -1, "drawOrder": null, "icon": null }, "geometry": { "type": "Point", "coordinates": [ 74.486817696078631, 31.70181267307369, 0.0 ] } },
{ "type": "Feature", "properties": { "Name": null, "descriptio": null, "timestamp": null, "begin": null, "end": null, "altitudeMo": null, "tessellate": -1, "extrude": 0, "visibility": -1, "drawOrder": null, "icon": null }, "geometry": { "type": "Point", "coordinates": [ 74.382906222263472, 31.662716104421499, 0.0 ] } },
{ "type": "Feature", "properties": { "Name": null, "descriptio": null, "timestamp": null, "begin": null, "end": null, "altitudeMo": null, "tessellate": -1, "extrude": 0, "visibility": -1, "drawOrder": null, "icon": null }, "geometry": { "type": "Point", "coordinates": [ 70.949512441296491, 31.692955451629441, 0.0 ] } },
{ "type": "Feature", "properties": { "Name": null, "descriptio": null, "timestamp": null, "begin": null, "end": null, "altitudeMo": null, "tessellate": -1, "extrude": 0, "visibility": -1, "drawOrder": null, "icon": null }, "geometry": { "type": "Point", "coordinates": [ 70.890564025712678, 31.650905902623151, 0.0 ] } },
{ "type": "Feature", "properties": { "Name": null, "descriptio": null, "timestamp": null, "begin": null, "end": null, "altitudeMo": null, "tessellate": -1, "extrude": 0, "visibility": -1, "drawOrder": null, "icon": null }, "geometry": { "type": "Point", "coordinates": [ 74.333869039967723, 31.633985391482788, 0.0 ] } },
{ "type": "Feature", "properties": { "Name": null, "descriptio": null, "timestamp": null, "begin": null, "end": null, "altitudeMo": null, "tessellate": -1, "extrude": 0, "visibility": -1, "drawOrder": null, "icon": null }, "geometry": { "type": "Point", "coordinates": [ 72.574455020531161, 31.625721211943979, 0.0 ] } },
{ "type": "Feature", "properties": { "Name": null, "descriptio": null, "timestamp": null, "begin": null, "end": null, "altitudeMo": null, "tessellate": -1, "extrude": 0, "visibility": -1, "drawOrder": null, "icon": null }, "geometry": { "type": "Point", "coordinates": [ 72.141943448672521, 31.609759407589529, 0.0 ] } },
{ "type": "Feature", "properties": { "Name": null, "descriptio": null, "timestamp": null, "begin": null, "end": null, "altitudeMo": null, "tessellate": -1, "extrude": 0, "visibility": -1, "drawOrder": null, "icon": null }, "geometry": { "type": "Point", "coordinates": [ 72.145690004060697, 31.59961635413848, 0.0 ] } },
{ "type": "Feature", "properties": { "Name": null, "descriptio": null, "timestamp": null, "begin": null, "end": null, "altitudeMo": null, "tessellate": -1, "extrude": 0, "visibility": -1, "drawOrder": null, "icon": null }, "geometry": { "type": "Point", "coordinates": [ 72.12708333332921, 31.547916666521001, 0.0 ] } },
{ "type": "Feature", "properties": { "Name": null, "descriptio": null, "timestamp": null, "begin": null, "end": null, "altitudeMo": null, "tessellate": -1, "extrude": 0, "visibility": -1, "drawOrder": null, "icon": null }, "geometry": { "type": "Point", "coordinates": [ 72.508980850794345, 31.550684036693259, 0.0 ] } },
{ "type": "Feature", "properties": { "Name": null, "descriptio": null, "timestamp": null, "begin": null, "end": null, "altitudeMo": null, "tessellate": -1, "extrude": 0, "visibility": -1, "drawOrder": null, "icon": null }, "geometry": { "type": "Point", "coordinates": [ 74.152331000227065, 31.443416930185201, 0.0 ] } },
{ "type": "Feature", "properties": { "Name": null, "descriptio": null, "timestamp": null, "begin": null, "end": null, "altitudeMo": null, "tessellate": -1, "extrude": 0, "visibility": -1, "drawOrder": null, "icon": null }, "geometry": { "type": "Point", "coordinates": [ 74.051982441729436, 31.374302861424251, 0.0 ] } },
{ "type": "Feature", "properties": { "Name": null, "descriptio": null, "timestamp": null, "begin": null, "end": null, "altitudeMo": null, "tessellate": -1, "extrude": 0, "visibility": -1, "drawOrder": null, "icon": null }, "geometry": { "type": "Point", "coordinates": [ 72.100987152533477, 31.381062930368248, 0.0 ] } },
{ "type": "Feature", "properties": { "Name": null, "descriptio": null, "timestamp": null, "begin": null, "end": null, "altitudeMo": null, "tessellate": -1, "extrude": 0, "visibility": -1, "drawOrder": null, "icon": null }, "geometry": { "type": "Point", "coordinates": [ 70.768750000312323, 31.2895833331044, 0.0 ] } },
{ "type": "Feature", "properties": { "Name": null, "descriptio": null, "timestamp": null, "begin": null, "end": null, "altitudeMo": null, "tessellate": -1, "extrude": 0, "visibility": -1, "drawOrder": null, "icon": null }, "geometry": { "type": "Point", "coordinates": [ 70.760325893546977, 31.246024025154451, 0.0 ] } },
{ "type": "Feature", "properties": { "Name": null, "descriptio": null, "timestamp": null, "begin": null, "end": null, "altitudeMo": null, "tessellate": -1, "extrude": 0, "visibility": -1, "drawOrder": null, "icon": null }, "geometry": { "type": "Point", "coordinates": [ 72.223937864851052, 31.212873073676469, 0.0 ] } },
{ "type": "Feature", "properties": { "Name": null, "descriptio": null, "timestamp": null, "begin": null, "end": null, "altitudeMo": null, "tessellate": -1, "extrude": 0, "visibility": -1, "drawOrder": null, "icon": null }, "geometry": { "type": "Point", "coordinates": [ 73.725760334819284, 31.207606239013639, 0.0 ] } },
{ "type": "Feature", "properties": { "Name": null, "descriptio": null, "timestamp": null, "begin": null, "end": null, "altitudeMo": null, "tessellate": -1, "extrude": 0, "visibility": -1, "drawOrder": null, "icon": null }, "geometry": { "type": "Point", "coordinates": [ 72.146412329663889, 31.170701791199811, 0.0 ] } },
{ "type": "Feature", "properties": { "Name": null, "descriptio": null, "timestamp": null, "begin": null, "end": null, "altitudeMo": null, "tessellate": -1, "extrude": 0, "visibility": -1, "drawOrder": null, "icon": null }, "geometry": { "type": "Point", "coordinates": [ 73.516955703787772, 31.12270583655372, 0.0 ] } },
{ "type": "Feature", "properties": { "Name": null, "descriptio": null, "timestamp": null, "begin": null, "end": null, "altitudeMo": null, "tessellate": -1, "extrude": 0, "visibility": -1, "drawOrder": null, "icon": null }, "geometry": { "type": "Point", "coordinates": [ 73.435213439499933, 31.10593848456579, 0.0 ] } },
{ "type": "Feature", "properties": { "Name": null, "descriptio": null, "timestamp": null, "begin": null, "end": null, "altitudeMo": null, "tessellate": -1, "extrude": 0, "visibility": -1, "drawOrder": null, "icon": null }, "geometry": { "type": "Point", "coordinates": [ 73.339583333604025, 30.997916666720879, 0.0 ] } },
{ "type": "Feature", "properties": { "Name": null, "descriptio": null, "timestamp": null, "begin": null, "end": null, "altitudeMo": null, "tessellate": -1, "extrude": 0, "visibility": -1, "drawOrder": null, "icon": null }, "geometry": { "type": "Point", "coordinates": [ 70.819973316226537, 30.99125203081449, 0.0 ] } },
{ "type": "Feature", "properties": { "Name": null, "descriptio": null, "timestamp": null, "begin": null, "end": null, "altitudeMo": null, "tessellate": -1, "extrude": 0, "visibility": -1, "drawOrder": null, "icon": null }, "geometry": { "type": "Point", "coordinates": [ 70.805759142513935, 30.934379980052341, 0.0 ] } },
{ "type": "Feature", "properties": { "Name": null, "descriptio": null, "timestamp": null, "begin": null, "end": null, "altitudeMo": null, "tessellate": -1, "extrude": 0, "visibility": -1, "drawOrder": null, "icon": null }, "geometry": { "type": "Point", "coordinates": [ 74.363814279905185, 30.918493654458661, 0.0 ] } },
{ "type": "Feature", "properties": { "Name": null, "descriptio": null, "timestamp": null, "begin": null, "end": null, "altitudeMo": null, "tessellate": -1, "extrude": 0, "visibility": -1, "drawOrder": null, "icon": null }, "geometry": { "type": "Point", "coordinates": [ 71.975669510313125, 30.86191330263722, 0.0 ] } },
{ "type": "Feature", "properties": { "Name": null, "descriptio": null, "timestamp": null, "begin": null, "end": null, "altitudeMo": null, "tessellate": -1, "extrude": 0, "visibility": -1, "drawOrder": null, "icon": null }, "geometry": { "type": "Point", "coordinates": [ 74.322916666471016, 30.864583333054458, 0.0 ] } },
{ "type": "Feature", "properties": { "Name": null, "descriptio": null, "timestamp": null, "begin": null, "end": null, "altitudeMo": null, "tessellate": -1, "extrude": 0, "visibility": -1, "drawOrder": null, "icon": null }, "geometry": { "type": "Point", "coordinates": [ 74.250057578685315, 30.769112695464191, 0.0 ] } },
{ "type": "Feature", "properties": { "Name": null, "descriptio": null, "timestamp": null, "begin": null, "end": null, "altitudeMo": null, "tessellate": -1, "extrude": 0, "visibility": -1, "drawOrder": null, "icon": null }, "geometry": { "type": "Point", "coordinates": [ 72.968861167116742, 30.75429030393834, 0.0 ] } },
{ "type": "Feature", "properties": { "Name": null, "descriptio": null, "timestamp": null, "begin": null, "end": null, "altitudeMo": null, "tessellate": -1, "extrude": 0, "visibility": -1, "drawOrder": null, "icon": null }, "geometry": { "type": "Point", "coordinates": [ 70.765518111718038, 30.697107107018169, 0.0 ] } },
{ "type": "Feature", "properties": { "Name": null, "descriptio": null, "timestamp": null, "begin": null, "end": null, "altitudeMo": null, "tessellate": -1, "extrude": 0, "visibility": -1, "drawOrder": null, "icon": null }, "geometry": { "type": "Point", "coordinates": [ 70.767415405804428, 30.68422699347445, 0.0 ] } },
{ "type": "Feature", "properties": { "Name": null, "descriptio": null, "timestamp": null, "begin": null, "end": null, "altitudeMo": null, "tessellate": -1, "extrude": 0, "visibility": -1, "drawOrder": null, "icon": null }, "geometry": { "type": "Point", "coordinates": [ 71.917763955717504, 30.631455474167161, 0.0 ] } },
{ "type": "Feature", "properties": { "Name": null, "descriptio": null, "timestamp": null, "begin": null, "end": null, "altitudeMo": null, "tessellate": -1, "extrude": 0, "visibility": -1, "drawOrder": null, "icon": null }, "geometry": { "type": "Point", "coordinates": [ 74.098990121903825, 30.647585613009529, 0.0 ] } },
{ "type": "Feature", "properties": { "Name": null, "descriptio": null, "timestamp": null, "begin": null, "end": null, "altitudeMo": null, "tessellate": -1, "extrude": 0, "visibility": -1, "drawOrder": null, "icon": null }, "geometry": { "type": "Point", "coordinates": [ 72.550606822286795, 30.59773109849705, 0.0 ] } },
{ "type": "Feature", "properties": { "Name": null, "descriptio": null, "timestamp": null, "begin": null, "end": null, "altitudeMo": null, "tessellate": -1, "extrude": 0, "visibility": -1, "drawOrder": null, "icon": null }, "geometry": { "type": "Point", "coordinates": [ 72.365577295227396, 30.570117346206018, 0.0 ] } },
{ "type": "Feature", "properties": { "Name": null, "descriptio": null, "timestamp": null, "begin": null, "end": null, "altitudeMo": null, "tessellate": -1, "extrude": 0, "visibility": -1, "drawOrder": null, "icon": null }, "geometry": { "type": "Point", "coordinates": [ 72.2951602970343, 30.561894803986281, 0.0 ] } },
{ "type": "Feature", "properties": { "Name": null, "descriptio": null, "timestamp": null, "begin": null, "end": null, "altitudeMo": null, "tessellate": -1, "extrude": 0, "visibility": -1, "drawOrder": null, "icon": null }, "geometry": { "type": "Point", "coordinates": [ 71.595060929906722, 30.54113140984926, 0.0 ] } },
{ "type": "Feature", "properties": { "Name": null, "descriptio": null, "timestamp": null, "begin": null, "end": null, "altitudeMo": null, "tessellate": -1, "extrude": 0, "visibility": -1, "drawOrder": null, "icon": null }, "geometry": { "type": "Point", "coordinates": [ 73.996147237321622, 30.517826224972669, 0.0 ] } },
{ "type": "Feature", "properties": { "Name": null, "descriptio": null, "timestamp": null, "begin": null, "end": null, "altitudeMo": null, "tessellate": -1, "extrude": 0, "visibility": -1, "drawOrder": null, "icon": null }, "geometry": { "type": "Point", "coordinates": [ 70.863477180691291, 30.45926387611259, 0.0 ] } },
{ "type": "Feature", "properties": { "Name": null, "descriptio": null, "timestamp": null, "begin": null, "end": null, "altitudeMo": null, "tessellate": -1, "extrude": 0, "visibility": -1, "drawOrder": null, "icon": null }, "geometry": { "type": "Point", "coordinates": [ 73.861826924397661, 30.39176611576924, 0.0 ] } },
{ "type": "Feature", "properties": { "Name": null, "descriptio": null, "timestamp": null, "begin": null, "end": null, "altitudeMo": null, "tessellate": -1, "extrude": 0, "visibility": -1, "drawOrder": null, "icon": null }, "geometry": { "type": "Point", "coordinates": [ 73.810416666595913, 30.364583333154378, 0.0 ] } },
{ "type": "Feature", "properties": { "Name": null, "descriptio": null, "timestamp": null, "begin": null, "end": null, "altitudeMo": null, "tessellate": -1, "extrude": 0, "visibility": -1, "drawOrder": null, "icon": null }, "geometry": { "type": "Point", "coordinates": [ 73.786701170246772, 30.35235381391044, 0.0 ] } },
{ "type": "Feature", "properties": { "Name": null, "descriptio": null, "timestamp": null, "begin": null, "end": null, "altitudeMo": null, "tessellate": -1, "extrude": 0, "visibility": -1, "drawOrder": null, "icon": null }, "geometry": { "type": "Point", "coordinates": [ 73.654756145300524, 30.311326950370749, 0.0 ] } },
{ "type": "Feature", "properties": { "Name": null, "descriptio": null, "timestamp": null, "begin": null, "end": null, "altitudeMo": null, "tessellate": -1, "extrude": 0, "visibility": -1, "drawOrder": null, "icon": null }, "geometry": { "type": "Point", "coordinates": [ 73.68541666684574, 30.327083333229279, 0.0 ] } },
{ "type": "Feature", "properties": { "Name": null, "descriptio": null, "timestamp": null, "begin": null, "end": null, "altitudeMo": null, "tessellate": -1, "extrude": 0, "visibility": -1, "drawOrder": null, "icon": null }, "geometry": { "type": "Point", "coordinates": [ 70.799362288586764, 30.31426131535807, 0.0 ] } },
{ "type": "Feature", "properties": { "Name": null, "descriptio": null, "timestamp": null, "begin": null, "end": null, "altitudeMo": null, "tessellate": -1, "extrude": 0, "visibility": -1, "drawOrder": null, "icon": null }, "geometry": { "type": "Point", "coordinates": [ 71.372286462086478, 30.25712745799715, 0.0 ] } },
{ "type": "Feature", "properties": { "Name": null, "descriptio": null, "timestamp": null, "begin": null, "end": null, "altitudeMo": null, "tessellate": -1, "extrude": 0, "visibility": -1, "drawOrder": null, "icon": null }, "geometry": { "type": "Point", "coordinates": [ 73.429697988950338, 30.247913752636041, 0.0 ] } },
{ "type": "Feature", "properties": { "Name": null, "descriptio": null, "timestamp": null, "begin": null, "end": null, "altitudeMo": null, "tessellate": -1, "extrude": 0, "visibility": -1, "drawOrder": null, "icon": null }, "geometry": { "type": "Point", "coordinates": [ 73.414583333454118, 30.243750000362301, 0.0 ] } },
{ "type": "Feature", "properties": { "Name": null, "descriptio": null, "timestamp": null, "begin": null, "end": null, "altitudeMo": null, "tessellate": -1, "extrude": 0, "visibility": -1, "drawOrder": null, "icon": null }, "geometry": { "type": "Point", "coordinates": [ 71.308978537571321, 30.153310273813378, 0.0 ] } },
{ "type": "Feature", "properties": { "Name": null, "descriptio": null, "timestamp": null, "begin": null, "end": null, "altitudeMo": null, "tessellate": -1, "extrude": 0, "visibility": -1, "drawOrder": null, "icon": null }, "geometry": { "type": "Point", "coordinates": [ 73.222343731357796, 30.088108751471211, 0.0 ] } },
{ "type": "Feature", "properties": { "Name": null, "descriptio": null, "timestamp": null, "begin": null, "end": null, "altitudeMo": null, "tessellate": -1, "extrude": 0, "visibility": -1, "drawOrder": null, "icon": null }, "geometry": { "type": "Point", "coordinates": [ 73.144523217484206, 30.071287824249382, 0.0 ] } },
{ "type": "Feature", "properties": { "Name": null, "descriptio": null, "timestamp": null, "begin": null, "end": null, "altitudeMo": null, "tessellate": -1, "extrude": 0, "visibility": -1, "drawOrder": null, "icon": null }, "geometry": { "type": "Point", "coordinates": [ 73.172916666970636, 30.077083333728911, 0.0 ] } },
{ "type": "Feature", "properties": { "Name": null, "descriptio": null, "timestamp": null, "begin": null, "end": null, "altitudeMo": null, "tessellate": -1, "extrude": 0, "visibility": -1, "drawOrder": null, "icon": null }, "geometry": { "type": "Point", "coordinates": [ 72.906182027936495, 29.99945189189777, 0.0 ] } },
{ "type": "Feature", "properties": { "Name": null, "descriptio": null, "timestamp": null, "begin": null, "end": null, "altitudeMo": null, "tessellate": -1, "extrude": 0, "visibility": -1, "drawOrder": null, "icon": null }, "geometry": { "type": "Point", "coordinates": [ 70.83043615077888, 30.00776628954652, 0.0 ] } },
{ "type": "Feature", "properties": { "Name": null, "descriptio": null, "timestamp": null, "begin": null, "end": null, "altitudeMo": null, "tessellate": -1, "extrude": 0, "visibility": -1, "drawOrder": null, "icon": null }, "geometry": { "type": "Point", "coordinates": [ 72.770673100806064, 29.92609292593129, 0.0 ] } },
{ "type": "Feature", "properties": { "Name": null, "descriptio": null, "timestamp": null, "begin": null, "end": null, "altitudeMo": null, "tessellate": -1, "extrude": 0, "visibility": -1, "drawOrder": null, "icon": null }, "geometry": { "type": "Point", "coordinates": [ 72.820667926946825, 29.949842869223339, 0.0 ] } },
{ "type": "Feature", "properties": { "Name": null, "descriptio": null, "timestamp": null, "begin": null, "end": null, "altitudeMo": null, "tessellate": -1, "extrude": 0, "visibility": -1, "drawOrder": null, "icon": null }, "geometry": { "type": "Point", "coordinates": [ 72.741540020853421, 29.905004811003039, 0.0 ] } },
{ "type": "Feature", "properties": { "Name": null, "descriptio": null, "timestamp": null, "begin": null, "end": null, "altitudeMo": null, "tessellate": -1, "extrude": 0, "visibility": -1, "drawOrder": null, "icon": null }, "geometry": { "type": "Point", "coordinates": [ 72.621443871893618, 29.865076356247879, 0.0 ] } },
{ "type": "Feature", "properties": { "Name": null, "descriptio": null, "timestamp": null, "begin": null, "end": null, "altitudeMo": null, "tessellate": -1, "extrude": 0, "visibility": -1, "drawOrder": null, "icon": null }, "geometry": { "type": "Point", "coordinates": [ 72.659036647055316, 29.861692702793409, 0.0 ] } },
{ "type": "Feature", "properties": { "Name": null, "descriptio": null, "timestamp": null, "begin": null, "end": null, "altitudeMo": null, "tessellate": -1, "extrude": 0, "visibility": -1, "drawOrder": null, "icon": null }, "geometry": { "type": "Point", "coordinates": [ 70.811668214397088, 29.87391204698751, 0.0 ] } },
{ "type": "Feature", "properties": { "Name": null, "descriptio": null, "timestamp": null, "begin": null, "end": null, "altitudeMo": null, "tessellate": -1, "extrude": 0, "visibility": -1, "drawOrder": null, "icon": null }, "geometry": { "type": "Point", "coordinates": [ 70.841021462826617, 29.88470263712907, 0.0 ] } },
{ "type": "Feature", "properties": { "Name": null, "descriptio": null, "timestamp": null, "begin": null, "end": null, "altitudeMo": null, "tessellate": -1, "extrude": 0, "visibility": -1, "drawOrder": null, "icon": null }, "geometry": { "type": "Point", "coordinates": [ 72.46844083437442, 29.819383675735232, 0.0 ] } },
{ "type": "Feature", "properties": { "Name": null, "descriptio": null, "timestamp": null, "begin": null, "end": null, "altitudeMo": null, "tessellate": -1, "extrude": 0, "visibility": -1, "drawOrder": null, "icon": null }, "geometry": { "type": "Point", "coordinates": [ 72.425314133156135, 29.849880997025981, 0.0 ] } },
{ "type": "Feature", "properties": { "Name": null, "descriptio": null, "timestamp": null, "begin": null, "end": null, "altitudeMo": null, "tessellate": -1, "extrude": 0, "visibility": -1, "drawOrder": null, "icon": null }, "geometry": { "type": "Point", "coordinates": [ 72.365249592932358, 29.842529758131398, 0.0 ] } },
{ "type": "Feature", "properties": { "Name": null, "descriptio": null, "timestamp": null, "begin": null, "end": null, "altitudeMo": null, "tessellate": -1, "extrude": 0, "visibility": -1, "drawOrder": null, "icon": null }, "geometry": { "type": "Point", "coordinates": [ 72.523171098182658, 29.82469629005768, 0.0 ] } },
{ "type": "Feature", "properties": { "Name": null, "descriptio": null, "timestamp": null, "begin": null, "end": null, "altitudeMo": null, "tessellate": -1, "extrude": 0, "visibility": -1, "drawOrder": null, "icon": null }, "geometry": { "type": "Point", "coordinates": [ 72.261200785030937, 29.746070741903178, 0.0 ] } },
{ "type": "Feature", "properties": { "Name": null, "descriptio": null, "timestamp": null, "begin": null, "end": null, "altitudeMo": null, "tessellate": -1, "extrude": 0, "visibility": -1, "drawOrder": null, "icon": null }, "geometry": { "type": "Point", "coordinates": [ 72.310416666895719, 29.797916666421091, 0.0 ] } },
{ "type": "Feature", "properties": { "Name": null, "descriptio": null, "timestamp": null, "begin": null, "end": null, "altitudeMo": null, "tessellate": -1, "extrude": 0, "visibility": -1, "drawOrder": null, "icon": null }, "geometry": { "type": "Point", "coordinates": [ 72.282685208337142, 29.772566630566882, 0.0 ] } },
{ "type": "Feature", "properties": { "Name": null, "descriptio": null, "timestamp": null, "begin": null, "end": null, "altitudeMo": null, "tessellate": -1, "extrude": 0, "visibility": -1, "drawOrder": null, "icon": null }, "geometry": { "type": "Point", "coordinates": [ 71.156096242816687, 29.714636203199429, 0.0 ] } },
{ "type": "Feature", "properties": { "Name": null, "descriptio": null, "timestamp": null, "begin": null, "end": null, "altitudeMo": null, "tessellate": -1, "extrude": 0, "visibility": -1, "drawOrder": null, "icon": null }, "geometry": { "type": "Point", "coordinates": [ 71.144726569098992, 29.676272512569099, 0.0 ] } },
{ "type": "Feature", "properties": { "Name": null, "descriptio": null, "timestamp": null, "begin": null, "end": null, "altitudeMo": null, "tessellate": -1, "extrude": 0, "visibility": -1, "drawOrder": null, "icon": null }, "geometry": { "type": "Point", "coordinates": [ 71.051971726691534, 29.599564681814329, 0.0 ] } },
{ "type": "Feature", "properties": { "Name": null, "descriptio": null, "timestamp": null, "begin": null, "end": null, "altitudeMo": null, "tessellate": -1, "extrude": 0, "visibility": -1, "drawOrder": null, "icon": null }, "geometry": { "type": "Point", "coordinates": [ 71.056249999737744, 29.602083333778879, 0.0 ] } },
{ "type": "Feature", "properties": { "Name": null, "descriptio": null, "timestamp": null, "begin": null, "end": null, "altitudeMo": null, "tessellate": -1, "extrude": 0, "visibility": -1, "drawOrder": null, "icon": null }, "geometry": { "type": "Point", "coordinates": [ 71.094933935853902, 29.59975922228519, 0.0 ] } },
{ "type": "Feature", "properties": { "Name": null, "descriptio": null, "timestamp": null, "begin": null, "end": null, "altitudeMo": null, "tessellate": -1, "extrude": 0, "visibility": -1, "drawOrder": null, "icon": null }, "geometry": { "type": "Point", "coordinates": [ 72.131317907809887, 29.596566792035851, 0.0 ] } },
{ "type": "Feature", "properties": { "Name": null, "descriptio": null, "timestamp": null, "begin": null, "end": null, "altitudeMo": null, "tessellate": -1, "extrude": 0, "visibility": -1, "drawOrder": null, "icon": null }, "geometry": { "type": "Point", "coordinates": [ 72.161008774145671, 29.614067474480791, 0.0 ] } },
{ "type": "Feature", "properties": { "Name": null, "descriptio": null, "timestamp": null, "begin": null, "end": null, "altitudeMo": null, "tessellate": -1, "extrude": 0, "visibility": -1, "drawOrder": null, "icon": null }, "geometry": { "type": "Point", "coordinates": [ 72.076459731108301, 29.538087730739601, 0.0 ] } },
{ "type": "Feature", "properties": { "Name": null, "descriptio": null, "timestamp": null, "begin": null, "end": null, "altitudeMo": null, "tessellate": -1, "extrude": 0, "visibility": -1, "drawOrder": null, "icon": null }, "geometry": { "type": "Point", "coordinates": [ 71.950000000199893, 29.49999999960033, 0.0 ] } },
{ "type": "Feature", "properties": { "Name": null, "descriptio": null, "timestamp": null, "begin": null, "end": null, "altitudeMo": null, "tessellate": -1, "extrude": 0, "visibility": -1, "drawOrder": null, "icon": null }, "geometry": { "type": "Point", "coordinates": [ 70.710219799282882, 29.45711268582756, 0.0 ] } },
{ "type": "Feature", "properties": { "Name": null, "descriptio": null, "timestamp": null, "begin": null, "end": null, "altitudeMo": null, "tessellate": -1, "extrude": 0, "visibility": -1, "drawOrder": null, "icon": null }, "geometry": { "type": "Point", "coordinates": [ 70.685416666545947, 29.510416666995631, 0.0 ] } },
{ "type": "Feature", "properties": { "Name": null, "descriptio": null, "timestamp": null, "begin": null, "end": null, "altitudeMo": null, "tessellate": -1, "extrude": 0, "visibility": -1, "drawOrder": null, "icon": null }, "geometry": { "type": "Point", "coordinates": [ 71.976020049879722, 29.491982236319071, 0.0 ] } },
{ "type": "Feature", "properties": { "Name": null, "descriptio": null, "timestamp": null, "begin": null, "end": null, "altitudeMo": null, "tessellate": -1, "extrude": 0, "visibility": -1, "drawOrder": null, "icon": null }, "geometry": { "type": "Point", "coordinates": [ 71.721405559335523, 29.4793980704404, 0.0 ] } },
{ "type": "Feature", "properties": { "Name": null, "descriptio": null, "timestamp": null, "begin": null, "end": null, "altitudeMo": null, "tessellate": -1, "extrude": 0, "visibility": -1, "drawOrder": null, "icon": null }, "geometry": { "type": "Point", "coordinates": [ 71.770172669178066, 29.454451509616561, 0.0 ] } },
{ "type": "Feature", "properties": { "Name": null, "descriptio": null, "timestamp": null, "begin": null, "end": null, "altitudeMo": null, "tessellate": -1, "extrude": 0, "visibility": -1, "drawOrder": null, "icon": null }, "geometry": { "type": "Point", "coordinates": [ 71.168507721044122, 29.42838217345767, 0.0 ] } },
{ "type": "Feature", "properties": { "Name": null, "descriptio": null, "timestamp": null, "begin": null, "end": null, "altitudeMo": null, "tessellate": -1, "extrude": 0, "visibility": -1, "drawOrder": null, "icon": null }, "geometry": { "type": "Point", "coordinates": [ 71.260039914587153, 29.424408234627538, 0.0 ] } },
{ "type": "Feature", "properties": { "Name": null, "descriptio": null, "timestamp": null, "begin": null, "end": null, "altitudeMo": null, "tessellate": -1, "extrude": 0, "visibility": -1, "drawOrder": null, "icon": null }, "geometry": { "type": "Point", "coordinates": [ 71.193750000362272, 29.414583333254271, 0.0 ] } },
{ "type": "Feature", "properties": { "Name": null, "descriptio": null, "timestamp": null, "begin": null, "end": null, "altitudeMo": null, "tessellate": -1, "extrude": 0, "visibility": -1, "drawOrder": null, "icon": null }, "geometry": { "type": "Point", "coordinates": [ 71.018215753321513, 29.3431868106758, 0.0 ] } },
{ "type": "Feature", "properties": { "Name": null, "descriptio": null, "timestamp": null, "begin": null, "end": null, "altitudeMo": null, "tessellate": -1, "extrude": 0, "visibility": -1, "drawOrder": null, "icon": null }, "geometry": { "type": "Point", "coordinates": [ 70.668544478235304, 29.145211175089319, 0.0 ] } },
{ "type": "Feature", "properties": { "Name": null, "descriptio": null, "timestamp": null, "begin": null, "end": null, "altitudeMo": null, "tessellate": -1, "extrude": 0, "visibility": -1, "drawOrder": null, "icon": null }, "geometry": { "type": "Point", "coordinates": [ 70.490671482262698, 28.88002450385542, 0.0 ] } },
{ "type": "Feature", "properties": { "Name": null, "descriptio": null, "timestamp": null, "begin": null, "end": null, "altitudeMo": null, "tessellate": -1, "extrude": 0, "visibility": -1, "drawOrder": null, "icon": null }, "geometry": { "type": "Point", "coordinates": [ 70.420541842599391, 28.903832394175708, 0.0 ] } },
{ "type": "Feature", "properties": { "Name": null, "descriptio": null, "timestamp": null, "begin": null, "end": null, "altitudeMo": null, "tessellate": -1, "extrude": 0, "visibility": -1, "drawOrder": null, "icon": null }, "geometry": { "type": "Point", "coordinates": [ 69.918220512060458, 28.521858612277661, 0.0 ] } },
{ "type": "Feature", "properties": { "Name": null, "descriptio": null, "timestamp": null, "begin": null, "end": null, "altitudeMo": null, "tessellate": -1, "extrude": 0, "visibility": -1, "drawOrder": null, "icon": null }, "geometry": { "type": "Point", "coordinates": [ 69.806451312967837, 28.487689934075888, 0.0 ] } },
{ "type": "Feature", "properties": { "Name": null, "descriptio": null, "timestamp": null, "begin": null, "end": null, "altitudeMo": null, "tessellate": -1, "extrude": 0, "visibility": -1, "drawOrder": null, "icon": null }, "geometry": { "type": "Point", "coordinates": [ 69.743749999662796, 28.452083333379171, 0.0 ] } },
{ "type": "Feature", "properties": { "Name": null, "descriptio": null, "timestamp": null, "begin": null, "end": null, "altitudeMo": null, "tessellate": -1, "extrude": 0, "visibility": -1, "drawOrder": null, "icon": null }, "geometry": { "type": "Point", "coordinates": [ 69.702083333678956, 28.38958333350411, 0.0 ] } },
{ "type": "Feature", "properties": { "Name": null, "descriptio": null, "timestamp": null, "begin": null, "end": null, "altitudeMo": null, "tessellate": -1, "extrude": 0, "visibility": -1, "drawOrder": null, "icon": null }, "geometry": { "type": "Point", "coordinates": [ 69.143749999962623, 28.077083333229279, 0.0 ] } },
{ "type": "Feature", "properties": { "Name": null, "descriptio": null, "timestamp": null, "begin": null, "end": null, "altitudeMo": null, "tessellate": -1, "extrude": 0, "visibility": -1, "drawOrder": null, "icon": null }, "geometry": { "type": "Point", "coordinates": [ 68.9327588836438, 27.91940046390808, 0.0 ] } },
{ "type": "Feature", "properties": { "Name": null, "descriptio": null, "timestamp": null, "begin": null, "end": null, "altitudeMo": null, "tessellate": -1, "extrude": 0, "visibility": -1, "drawOrder": null, "icon": null }, "geometry": { "type": "Point", "coordinates": [ 68.675496910807482, 27.7311848481692, 0.0 ] } },
{ "type": "Feature", "properties": { "Name": null, "descriptio": null, "timestamp": null, "begin": null, "end": null, "altitudeMo": null, "tessellate": -1, "extrude": 0, "visibility": -1, "drawOrder": null, "icon": null }, "geometry": { "type": "Point", "coordinates": [ 68.451929475384787, 27.70110857063997, 0.0 ] } },
{ "type": "Feature", "properties": { "Name": null, "descriptio": null, "timestamp": null, "begin": null, "end": null, "altitudeMo": null, "tessellate": -1, "extrude": 0, "visibility": -1, "drawOrder": null, "icon": null }, "geometry": { "type": "Point", "coordinates": [ 68.197916667020664, 27.35208333377885, 0.0 ] } },
{ "type": "Feature", "properties": { "Name": null, "descriptio": null, "timestamp": null, "begin": null, "end": null, "altitudeMo": null, "tessellate": -1, "extrude": 0, "visibility": -1, "drawOrder": null, "icon": null }, "geometry": { "type": "Point", "coordinates": [ 67.931249999687779, 26.94791666672085, 0.0 ] } },
{ "type": "Feature", "properties": { "Name": null, "descriptio": null, "timestamp": null, "begin": null, "end": null, "altitudeMo": null, "tessellate": -1, "extrude": 0, "visibility": -1, "drawOrder": null, "icon": null }, "geometry": { "type": "Point", "coordinates": [ 67.925567903204808, 26.556588833202639, 0.0 ] } },
{ "type": "Feature", "properties": { "Name": null, "descriptio": null, "timestamp": null, "begin": null, "end": null, "altitudeMo": null, "tessellate": -1, "extrude": 0, "visibility": -1, "drawOrder": null, "icon": null }, "geometry": { "type": "Point", "coordinates": [ 67.876938265059835, 26.57216272839749, 0.0 ] } },
{ "type": "Feature", "properties": { "Name": null, "descriptio": null, "timestamp": null, "begin": null, "end": null, "altitudeMo": null, "tessellate": -1, "extrude": 0, "visibility": -1, "drawOrder": null, "icon": null }, "geometry": { "type": "Point", "coordinates": [ 67.877334373467562, 26.410573002440159, 0.0 ] } },
{ "type": "Feature", "properties": { "Name": null, "descriptio": null, "timestamp": null, "begin": null, "end": null, "altitudeMo": null, "tessellate": -1, "extrude": 0, "visibility": -1, "drawOrder": null, "icon": null }, "geometry": { "type": "Point", "coordinates": [ 68.027083333429175, 26.177083333429149, 0.0 ] } },
{ "type": "Feature", "properties": { "Name": null, "descriptio": null, "timestamp": null, "begin": null, "end": null, "altitudeMo": null, "tessellate": -1, "extrude": 0, "visibility": -1, "drawOrder": null, "icon": null }, "geometry": { "type": "Point", "coordinates": [ 68.127083333229265, 26.056249999737741, 0.0 ] } },
{ "type": "Feature", "properties": { "Name": null, "descriptio": null, "timestamp": null, "begin": null, "end": null, "altitudeMo": null, "tessellate": -1, "extrude": 0, "visibility": -1, "drawOrder": null, "icon": null }, "geometry": { "type": "Point", "coordinates": [ 68.270891175073459, 25.92422585080665, 0.0 ] } },
{ "type": "Feature", "properties": { "Name": null, "descriptio": null, "timestamp": null, "begin": null, "end": null, "altitudeMo": null, "tessellate": -1, "extrude": 0, "visibility": -1, "drawOrder": null, "icon": null }, "geometry": { "type": "Point", "coordinates": [ 68.343749999762736, 25.877083333129342, 0.0 ] } },
{ "type": "Feature", "properties": { "Name": null, "descriptio": null, "timestamp": null, "begin": null, "end": null, "altitudeMo": null, "tessellate": -1, "extrude": 0, "visibility": -1, "drawOrder": null, "icon": null }, "geometry": { "type": "Point", "coordinates": [ 68.334619036792915, 25.701120804454941, 0.0 ] } },
{ "type": "Feature", "properties": { "Name": null, "descriptio": null, "timestamp": null, "begin": null, "end": null, "altitudeMo": null, "tessellate": -1, "extrude": 0, "visibility": -1, "drawOrder": null, "icon": null }, "geometry": { "type": "Point", "coordinates": [ 68.406249999637851, 25.685416666545951, 0.0 ] } },
{ "type": "Feature", "properties": { "Name": null, "descriptio": null, "timestamp": null, "begin": null, "end": null, "altitudeMo": null, "tessellate": -1, "extrude": 0, "visibility": -1, "drawOrder": null, "icon": null }, "geometry": { "type": "Point", "coordinates": [ 68.36457034270363, 25.598794689252902, 0.0 ] } },
{ "type": "Feature", "properties": { "Name": null, "descriptio": null, "timestamp": null, "begin": null, "end": null, "altitudeMo": null, "tessellate": -1, "extrude": 0, "visibility": -1, "drawOrder": null, "icon": null }, "geometry": { "type": "Point", "coordinates": [ 68.322506427664237, 25.229690955927222, 0.0 ] } },
{ "type": "Feature", "properties": { "Name": null, "descriptio": null, "timestamp": null, "begin": null, "end": null, "altitudeMo": null, "tessellate": -1, "extrude": 0, "visibility": -1, "drawOrder": null, "icon": null }, "geometry": { "type": "Point", "coordinates": [ 68.268749999912643, 24.98125000008746, 0.0 ] } },
{ "type": "Feature", "properties": { "Name": null, "descriptio": null, "timestamp": null, "begin": null, "end": null, "altitudeMo": null, "tessellate": -1, "extrude": 0, "visibility": -1, "drawOrder": null, "icon": null }, "geometry": { "type": "Point", "coordinates": [ 68.067080054200304, 24.85162503194811, 0.0 ] } },
{ "type": "Feature", "properties": { "Name": null, "descriptio": null, "timestamp": null, "begin": null, "end": null, "altitudeMo": null, "tessellate": -1, "extrude": 0, "visibility": -1, "drawOrder": null, "icon": null }, "geometry": { "type": "Point", "coordinates": [ 67.991583443093532, 24.639379922254829, 0.0 ] } },
{ "type": "Feature", "properties": { "Name": null, "descriptio": null, "timestamp": null, "begin": null, "end": null, "altitudeMo": null, "tessellate": -1, "extrude": 0, "visibility": -1, "drawOrder": null, "icon": null }, "geometry": { "type": "Point", "coordinates": [ 67.848865346223576, 24.419080116054779, 0.0 ] } }
]
}
