{
"type": "FeatureCollection",
"name": "priority_sites_monsoon_basin",
"crs": { "type": "name", "properties": { "name": "urn:ogc:def:crs:OGC:1.3:CRS84" } },
"features": [
{ "type": "Feature", "properties": { "Name": "R21", "Area_km2": 11.8 }, "geometry": { "type": "MultiPolygon", "coordinates": [ [ [ [ 75.050720202200822, 32.08174421354461, 0.0 ], [ 75.066983647732357, 32.087621330825307, 0.0 ], [ 75.067501847084259, 32.087613401923818, 0.0 ], [ 75.068117540476194, 32.087509675582019, 0.0 ], [ 75.068733002857897, 32.087405985986273, 0.0 ], [ 75.069037505791272, 32.087307086183941, 0.0 ], [ 75.069547360689697, 32.087202009591607, 0.0 ], [ 75.069953437657105, 32.087098610706022, 0.0 ], [ 75.07025677882244, 32.086998457137931, 0.0 ], [ 75.070763770980932, 32.086807166545228, 0.0 ], [ 75.071165943117805, 32.086615817511323, 0.0 ], [ 75.071466142996059, 32.086428828927041, 0.0 ], [ 75.071756666011225, 32.086143680708503, 0.0 ], [ 75.07193618549698, 32.085765836913012, 0.0 ], [ 75.072225577524023, 32.085480511206264, 0.0 ], [ 75.072404592384316, 32.085103668943113, 0.0 ], [ 75.072693412987235, 32.084819073708793, 0.0 ], [ 75.072871879475443, 32.084443159859383, 0.0 ], [ 75.073160092138593, 32.084159256780417, 0.0 ], [ 75.073448011634667, 32.08387564940768, 0.0 ], [ 75.073625632513327, 32.083501042483768, 0.0 ], [ 75.073803005707546, 32.083126958914647, 0.0 ], [ 75.074087366191094, 32.082758204282086, 0.0 ], [ 75.074162047906754, 32.082387396889438, 0.0 ], [ 75.07443477780204, 32.081921861184682, 0.0 ], [ 75.074618695026416, 32.081642601164752, 0.0 ], [ 75.074993113163899, 32.081176762341578, 0.0 ], [ 75.075302612984856, 32.081010010507427, 0.0 ], [ 75.075718635857768, 32.080846628397467, 0.0 ], [ 75.076112745739692, 32.080572866503488, 0.0 ], [ 75.076471475864466, 32.08025566881804, 0.0 ], [ 75.076834421344145, 32.079863369739229, 0.0 ], [ 75.077233081745916, 32.079680125162852, 0.0 ], [ 75.077523049705889, 32.079408606991748, 0.0 ], [ 75.07781281279776, 32.079137267937071, 0.0 ], [ 75.078094349457956, 32.07885706859178, 0.0 ], [ 75.078352993293166, 32.078551868612927, 0.0 ], [ 75.078713647227119, 32.078082135443687, 0.0 ], [ 75.079115551989588, 32.077905472155457, 0.0 ], [ 75.079408145714723, 32.077640079544288, 0.0 ], [ 75.07970755118491, 32.077464478493731, 0.0 ], [ 75.0800899089854, 32.077185494290077, 0.0 ], [ 75.08027045031244, 32.076911847573221, 0.0 ], [ 75.080646944809985, 32.076710767211289, 0.0 ], [ 75.081031839166286, 32.076436403261397, 0.0 ], [ 75.081421896085956, 32.076249856437663, 0.0 ], [ 75.081806454803996, 32.075976113940712, 0.0 ], [ 75.082385459702394, 32.075609690742283, 0.0 ], [ 75.082874997608343, 32.075421238654407, 0.0 ], [ 75.083252704225885, 32.07506084466322, 0.0 ], [ 75.08373575414555, 32.074785444064787, 0.0 ], [ 75.084111645882217, 32.074507063629632, 0.0 ], [ 75.084467788235258, 32.07421275607544, 0.0 ], [ 75.084850062061406, 32.073941472876683, 0.0 ], [ 75.085131875728862, 32.073754824650102, 0.0 ], [ 75.085510088104371, 32.073481006081003, 0.0 ], [ 75.08599442787002, 32.073292646334323, 0.0 ], [ 75.086286683960395, 32.073197526372716, 0.0 ], [ 75.086770447447293, 32.073009333891868, 0.0 ], [ 75.087153477896251, 32.072823217799133, 0.0 ], [ 75.087554819130361, 32.072815485512614, 0.0 ], [ 75.088341763291737, 32.072624277876479, 0.0 ], [ 75.08872594609619, 32.072439954867782, 0.0 ], [ 75.089345812822131, 32.071630044933627, 0.0 ], [ 75.089300795256165, 32.07118838566025, 0.0 ], [ 75.089254138012635, 32.070746814380733, 0.0 ], [ 75.089213791874826, 32.070391756757523, 0.0 ], [ 75.089075387119763, 32.069958140084289, 0.0 ], [ 75.088948076225435, 32.069614386145723, 0.0 ], [ 75.088820888960839, 32.069270934251684, 0.0 ], [ 75.088682338315607, 32.068920210051779, 0.0 ], [ 75.088638328774152, 32.068564840204218, 0.0 ], [ 75.088482487409891, 32.068122365125348, 0.0 ], [ 75.088236271857767, 32.067769425542508, 0.0 ], [ 75.088094510055498, 32.067418738940233, 0.0 ], [ 75.08796148563269, 32.067073523503822, 0.0 ], [ 75.087909615370137, 32.066553000441289, 0.0 ], [ 75.087783693536664, 32.066294363684307, 0.0 ], [ 75.087440833861166, 32.065865557978938, 0.0 ], [ 75.087118189005409, 32.065611599217057, 0.0 ], [ 75.086621736574315, 32.065538573587517, 0.0 ], [ 75.086210700440631, 32.065374173155057, 0.0 ], [ 75.085906566464388, 32.065293993734223, 0.0 ], [ 75.085404979322945, 32.065217779458727, 0.0 ], [ 75.085002672171399, 32.065140129837467, 0.0 ], [ 75.084289572154759, 32.064977276985474, 0.0 ], [ 75.083776010341097, 32.064812302847677, 0.0 ], [ 75.083263570638749, 32.064647758878714, 0.0 ], [ 75.082847408839086, 32.064561110848018, 0.0 ], [ 75.082330465690262, 32.064393240236917, 0.0 ], [ 75.081929528608313, 32.064315762088789, 0.0 ], [ 75.081533629676272, 32.064322570126272, 0.0 ], [ 75.081137698258317, 32.064329375182389, 0.0 ], [ 75.080736819608305, 32.0642518976208, 0.0 ], [ 75.080324156758508, 32.064166227632128, 0.0 ], [ 75.079905875712015, 32.064076753740437, 0.0 ], [ 75.079410756454621, 32.064004373427572, 0.0 ], [ 75.078915721826249, 32.0640125029459, 0.0 ], [ 75.078519683515864, 32.064019009356201, 0.0 ], [ 75.078107460961348, 32.063852651418713, 0.0 ], [ 75.077611401797213, 32.063859504695507, 0.0 ], [ 75.077215731056441, 32.063866283399442, 0.0 ], [ 75.076815504137713, 32.063788581375732, 0.0 ], [ 75.076417250154975, 32.063793746965892, 0.0 ], [ 75.07592340915123, 32.063802158506441, 0.0 ], [ 75.075533183586828, 32.063813687803979, 0.0 ], [ 75.075144006903884, 32.063987052687139, 0.0 ], [ 75.074180558979307, 32.064186358625932, 0.0 ], [ 75.073894569323429, 32.064361742955327, 0.0 ], [ 75.073713991272641, 32.064702701587237, 0.0 ], [ 75.073448623436718, 32.065057978641597, 0.0 ], [ 75.073190448734834, 32.065501393120307, 0.0 ], [ 75.073019075968716, 32.065852284714197, 0.0 ], [ 75.072730008275315, 32.066027294199841, 0.0 ], [ 75.072352748704148, 32.066376271390197, 0.0 ], [ 75.072174279566624, 32.066641511159958, 0.0 ], [ 75.071902764195258, 32.066996118801477, 0.0 ], [ 75.071617135701644, 32.067175904027387, 0.0 ], [ 75.071233830297061, 32.067440762925422, 0.0 ], [ 75.070944591500435, 32.06761763815274, 0.0 ], [ 75.070561050563583, 32.067883017175589, 0.0 ], [ 75.070277997914502, 32.06806706279189, 0.0 ], [ 75.069790439247797, 32.068168891874272, 0.0 ], [ 75.069303137463294, 32.068352358490557, 0.0 ], [ 75.068897726186748, 32.068352545225231, 0.0 ], [ 75.068391198577089, 32.068352778729661, 0.0 ], [ 75.067986163941299, 32.068352961050117, 0.0 ], [ 75.067498970683729, 32.068375625829432, 0.0 ], [ 75.067091979377807, 32.068212007417593, 0.0 ], [ 75.066584401023974, 32.068129944512847, 0.0 ], [ 75.06606702917162, 32.06787460103115, 0.0 ], [ 75.065759247249289, 32.067707020466372, 0.0 ], [ 75.065244748398243, 32.067454215821108, 0.0 ], [ 75.064929130155193, 32.067197164589217, 0.0 ], [ 75.064724333986462, 32.06711316018869, 0.0 ], [ 75.064311497198702, 32.066860717816859, 0.0 ], [ 75.063795662606651, 32.066604587414353, 0.0 ], [ 75.063481493073922, 32.066348444302022, 0.0 ], [ 75.063160393484935, 32.066002545823743, 0.0 ], [ 75.062939434783345, 32.065655924490471, 0.0 ], [ 75.063117337614131, 32.065304796947821, 0.0 ], [ 75.063400104198834, 32.065040121757917, 0.0 ], [ 75.063579653838929, 32.064692659575442, 0.0 ], [ 75.063859457169244, 32.064345455237188, 0.0 ], [ 75.063940263486998, 32.064001510216137, 0.0 ], [ 75.064010863792674, 32.063565844148172, 0.0 ], [ 75.063989238359881, 32.063220712910592, 0.0 ], [ 75.063965253998276, 32.062793768619798, 0.0 ], [ 75.06394129535984, 32.062366774948543, 0.0 ], [ 75.063919733005562, 32.061943166600557, 0.0 ], [ 75.063888595766258, 32.061429605096819, 0.0 ], [ 75.06357374538517, 32.061174645539062, 0.0 ], [ 75.063459676102326, 32.060920249440002, 0.0 ], [ 75.063150586506836, 32.060591421071408, 0.0 ], [ 75.062826952507464, 32.060246963331167, 0.0 ], [ 75.062610799744476, 32.059910616717971, 0.0 ], [ 75.062300934028173, 32.059580948095771, 0.0 ], [ 75.061981255258175, 32.059161665884119, 0.0 ], [ 75.061656749068817, 32.058737065867447, 0.0 ], [ 75.061352492154853, 32.058492162202413, 0.0 ], [ 75.061050325228877, 32.058250128295128, 0.0 ], [ 75.060648695113215, 32.058008208216172, 0.0 ], [ 75.060244745770277, 32.057842883821223, 0.0 ], [ 75.059840154443293, 32.057676579148577, 0.0 ], [ 75.059338305002996, 32.057512285651157, 0.0 ], [ 75.058935448502709, 32.057347339728757, 0.0 ], [ 75.058543342906617, 32.057353067211913, 0.0 ], [ 75.058145698879869, 32.057272362228836, 0.0 ], [ 75.057849455075669, 32.057194754142003, 0.0 ], [ 75.057363139940762, 32.057206035550998, 0.0 ], [ 75.056774537000734, 32.057134505762598, 0.0 ], [ 75.056475446277929, 32.057052964639077, 0.0 ], [ 75.056078076944829, 32.056972126768969, 0.0 ], [ 75.055493294399568, 32.056984457244234, 0.0 ], [ 75.055198441120183, 32.056908561940148, 0.0 ], [ 75.054706893560251, 32.056834096965069, 0.0 ], [ 75.054312734866457, 32.056757442472232, 0.0 ], [ 75.053922029498807, 32.056764577601349, 0.0 ], [ 75.053330973173303, 32.056688571649737, 0.0 ], [ 75.052931898005781, 32.056525282497759, 0.0 ], [ 75.0525393318987, 32.056450271094697, 0.0 ], [ 75.052146620084585, 32.056375489692492, 0.0 ], [ 75.051753586179728, 32.056300164814203, 0.0 ], [ 75.0513605522343, 32.056224843001473, 0.0 ], [ 75.050968279974299, 32.056228534275007, 0.0 ], [ 75.050474436648415, 32.05614772509076, 0.0 ], [ 75.049983702617894, 32.056072411658548, 0.0 ], [ 75.049494287774962, 32.056078987194297, 0.0 ], [ 75.049103027097829, 32.05608389450552, 0.0 ], [ 75.048513882520638, 32.056008267299333, 0.0 ], [ 75.048025013599059, 32.056014395704644, 0.0 ], [ 75.047536277817429, 32.056020639764107, 0.0 ], [ 75.046950674131438, 32.056033151454614, 0.0 ], [ 75.046365079145872, 32.056044739153172, 0.0 ], [ 75.045973729296009, 32.056049687822977, 0.0 ], [ 75.045484951529389, 32.056055533528387, 0.0 ], [ 75.044898736733217, 32.0560656442848, 0.0 ], [ 75.044410032047196, 32.056072268941783, 0.0 ], [ 75.044019095274066, 32.056077568858761, 0.0 ], [ 75.043532169448, 32.056167608288057, 0.0 ], [ 75.043043496414711, 32.056174226774608, 0.0 ], [ 75.042554716724538, 32.056181099907853, 0.0 ], [ 75.042066249157187, 32.056186977414072, 0.0 ], [ 75.041675340698532, 32.056192779740648, 0.0 ], [ 75.041284412187125, 32.056198462585613, 0.0 ], [ 75.040893554459714, 32.056203984699067, 0.0 ], [ 75.040502703318907, 32.056209507476289, 0.0 ], [ 75.040111869439386, 32.056215024921642, 0.0 ], [ 75.039721051580159, 32.056220541730937, 0.0 ], [ 75.039233486131636, 32.056311507720153, 0.0 ], [ 75.038745737024314, 32.056402437997157, 0.0 ], [ 75.038356499579379, 32.056575467858117, 0.0 ], [ 75.037966174889988, 32.056664996855822, 0.0 ], [ 75.037379765822124, 32.056758599691662, 0.0 ], [ 75.036891086508433, 32.056935727108403, 0.0 ], [ 75.036500279136391, 32.057110533409052, 0.0 ], [ 75.036206533624409, 32.057200116498308, 0.0 ], [ 75.035718062244527, 32.057374603645357, 0.0 ], [ 75.035328057588671, 32.057630912031669, 0.0 ], [ 75.034937235123067, 32.057803730736538, 0.0 ], [ 75.034545375564605, 32.058063015900373, 0.0 ], [ 75.034054106919427, 32.058326891477172, 0.0 ], [ 75.033660124077528, 32.058503473962652, 0.0 ], [ 75.033270425571843, 32.058672678134229, 0.0 ], [ 75.032878670439075, 32.05876081262533, 0.0 ], [ 75.032484225503723, 32.058938135785837, 0.0 ], [ 75.032091117374762, 32.059196972002347, 0.0 ], [ 75.031697705852523, 32.059371686615087, 0.0 ], [ 75.031304049289758, 32.059546507513481, 0.0 ], [ 75.031009602522516, 32.059802813955187, 0.0 ], [ 75.030907266668677, 32.060062973587847, 0.0 ], [ 75.03060586219209, 32.06041416737839, 0.0 ], [ 75.030405507689238, 32.06084415844559, 0.0 ], [ 75.030109098812801, 32.06118693541498, 0.0 ], [ 75.030009323529839, 32.061528049294473, 0.0 ], [ 75.029712992700581, 32.061870549241853, 0.0 ], [ 75.029612741693768, 32.062212645964507, 0.0 ], [ 75.029414766263457, 32.062469803382108, 0.0 ], [ 75.029412070383799, 32.062897766645378, 0.0 ], [ 75.029410463350217, 32.063324541415213, 0.0 ], [ 75.029408686976083, 32.063752203641577, 0.0 ], [ 75.029406551083824, 32.064181107285059, 0.0 ], [ 75.029404428824236, 32.06452545991781, 0.0 ], [ 75.029303794243262, 32.064870461923782, 0.0 ], [ 75.029299546378482, 32.065390071857983, 0.0 ], [ 75.029295880164796, 32.065824216363957, 0.0 ], [ 75.029291477342426, 32.066346176353967, 0.0 ], [ 75.02948818604979, 32.066691194948312, 0.0 ], [ 75.029483003794809, 32.067130896096899, 0.0 ], [ 75.029477812702581, 32.067571462209507, 0.0 ], [ 75.029571865665162, 32.0680992052636, 0.0 ], [ 75.029669182596237, 32.068449058153377, 0.0 ], [ 75.029768714488654, 32.068794681122831, 0.0 ], [ 75.029969314931506, 32.069137318511878, 0.0 ], [ 75.030267106390255, 32.069399170821718, 0.0 ], [ 75.030468301750773, 32.069829631356853, 0.0 ], [ 75.030669281783545, 32.070174137605157, 0.0 ], [ 75.030972156799038, 32.070426890977608, 0.0 ], [ 75.031475576374717, 32.070678183009051, 0.0 ], [ 75.031873687531572, 32.070857155818501, 0.0 ], [ 75.032173301910859, 32.071121441084841, 0.0 ], [ 75.032575691886564, 32.07137929279574, 0.0 ], [ 75.032877620338127, 32.0716395443091, 0.0 ], [ 75.033179829027304, 32.071900028994747, 0.0 ], [ 75.033583245312229, 32.072069469624168, 0.0 ], [ 75.034087438442967, 32.072416956487253, 0.0 ], [ 75.034591486836632, 32.072678059843582, 0.0 ], [ 75.034995272724487, 32.072940783480369, 0.0 ], [ 75.035601616536511, 32.073290648754721, 0.0 ], [ 75.035702882088998, 32.07337885869196, 0.0 ], [ 75.036718655262007, 32.074257055568488, 0.0 ], [ 75.037939740480383, 32.074949505153512, 0.0 ], [ 75.038143691237138, 32.075127665984887, 0.0 ], [ 75.038450067853105, 32.075393788447677, 0.0 ], [ 75.038756412940842, 32.075566009691791, 0.0 ], [ 75.039063555357359, 32.075831479337907, 0.0 ], [ 75.039473100351643, 32.076189693538829, 0.0 ], [ 75.039985698023074, 32.076538101101853, 0.0 ], [ 75.040804955306371, 32.076972536442383, 0.0 ], [ 75.041012137455496, 32.077242165891889, 0.0 ], [ 75.041115101857912, 32.077332331491959, 0.0 ], [ 75.041732169501955, 32.077784166265538, 0.0 ], [ 75.042038807498443, 32.077879837603007, 0.0 ], [ 75.042554403303896, 32.078232754016419, 0.0 ], [ 75.042965938530273, 32.078396003319021, 0.0 ], [ 75.043478793987518, 32.07856815252503, 0.0 ], [ 75.043790040019559, 32.078835742892217, 0.0 ], [ 75.043893859234629, 32.07892499375064, 0.0 ], [ 75.045023712487065, 32.079266392406957, 0.0 ], [ 75.045946161209471, 32.079428472154483, 0.0 ], [ 75.046463126027902, 32.079691689561798, 0.0 ], [ 75.047182683777933, 32.079862545081653, 0.0 ], [ 75.047598661068918, 32.080131707802657, 0.0 ], [ 75.047910549078736, 32.080312065618529, 0.0 ], [ 75.048432676111062, 32.080674321653987, 0.0 ], [ 75.048744792390636, 32.080850495116259, 0.0 ], [ 75.049266022314725, 32.081126268118432, 0.0 ], [ 75.049681182495362, 32.081303181236443, 0.0 ], [ 75.050096611237478, 32.081479585163251, 0.0 ], [ 75.05051229711971, 32.081656098037399, 0.0 ], [ 75.050720202200822, 32.08174421354461, 0.0 ] ] ] ] } },
{ "type": "Feature", "properties": { "Name": "S22", "Area_km2": 21.1 }, "geometry": { "type": "MultiPolygon", "coordinates": [ [ [ [ 74.607745649742029, 31.09130854974984, 0.0 ], [ 74.608068485672092, 31.09144636635676, 0.0 ], [ 74.614011721064117, 31.09814215623555, 0.0 ], [ 74.61438612501972, 31.098717743928781, 0.0 ], [ 74.615172230514062, 31.09965957512933, 0.0 ], [ 74.61622259459709, 31.1011730720797, 0.0 ], [ 74.616881244573847, 31.10221823808125, 0.0 ], [ 74.618563735827806, 31.104268979230099, 0.0 ], [ 74.620379557870379, 31.106340378705571, 0.0 ], [ 74.622040504965398, 31.10796277366315, 0.0 ], [ 74.622799548060769, 31.108486124235309, 0.0 ], [ 74.623455518057781, 31.108896879687279, 0.0 ], [ 74.62423351346591, 31.10931209217938, 0.0 ], [ 74.625826486203437, 31.109918826093011, 0.0 ], [ 74.628252580092578, 31.110613512803411, 0.0 ], [ 74.631326085130809, 31.111029901608731, 0.0 ], [ 74.636771204027909, 31.111797612369969, 0.0 ], [ 74.643387440777815, 31.113041332491541, 0.0 ], [ 74.646618215658194, 31.113347547151651, 0.0 ], [ 74.65103906610004, 31.113890402220349, 0.0 ], [ 74.653198875227986, 31.114108345723668, 0.0 ], [ 74.65416802693295, 31.114076461159801, 0.0 ], [ 74.654933384168373, 31.113714189058609, 0.0 ], [ 74.656591418359326, 31.112712520566451, 0.0 ], [ 74.658675062104464, 31.11115127501137, 0.0 ], [ 74.659590285063643, 31.110344672168939, 0.0 ], [ 74.661658404711659, 31.108641815767211, 0.0 ], [ 74.663389192257469, 31.1064607925316, 0.0 ], [ 74.665121980794837, 31.104343481766321, 0.0 ], [ 74.666942098898801, 31.102202198672561, 0.0 ], [ 74.668136278066825, 31.10059413351253, 0.0 ], [ 74.669051750138223, 31.099384459924909, 0.0 ], [ 74.669447882613724, 31.098772685311221, 0.0 ], [ 74.670098952204924, 31.097863315139939, 0.0 ], [ 74.670396711439153, 31.096922529850911, 0.0 ], [ 74.67082355486319, 31.095901892858151, 0.0 ], [ 74.671238932830533, 31.09486650248715, 0.0 ], [ 74.671535562516226, 31.09394059558208, 0.0 ], [ 74.671679963059873, 31.093531283541939, 0.0 ], [ 74.671947111170311, 31.093028633564661, 0.0 ], [ 74.672090973020019, 31.092620666011001, 0.0 ], [ 74.672367309503798, 31.092020454880121, 0.0 ], [ 74.672778934600203, 31.09123456612237, 0.0 ], [ 74.673312628275255, 31.090015824670619, 0.0 ], [ 74.673711488394545, 31.089219648567969, 0.0 ], [ 74.673871660348894, 31.088506113866121, 0.0 ], [ 74.674153187719469, 31.08781525646895, 0.0 ], [ 74.674197354324519, 31.087205975675261, 0.0 ], [ 74.674248775760475, 31.086496618324318, 0.0 ], [ 74.67430517764187, 31.085352947780411, 0.0 ], [ 74.674393466785148, 31.084256508730981, 0.0 ], [ 74.674447424309236, 31.08333921373378, 0.0 ], [ 74.674477323169981, 31.082831047315029, 0.0 ], [ 74.674190080607772, 31.081779144491989, 0.0 ], [ 74.673891826746441, 31.081041198592519, 0.0 ], [ 74.673589261535241, 31.080407178348651, 0.0 ], [ 74.673183876834514, 31.079560493621958, 0.0 ], [ 74.672869257110548, 31.07912850967303, 0.0 ], [ 74.672248313009263, 31.078274579108609, 0.0 ], [ 74.671611553430509, 31.0776165307783, 0.0 ], [ 74.671073161697123, 31.077165840930899, 0.0 ], [ 74.670452598908355, 31.076312607340959, 0.0 ], [ 74.669722125475744, 31.075451809553432, 0.0 ], [ 74.668992715941172, 31.074592861671292, 0.0 ], [ 74.668686353792239, 31.07417115967133, 0.0 ], [ 74.668099342011089, 31.07303981973196, 0.0 ], [ 74.668010789366519, 31.07273868264414, 0.0 ], [ 74.667937807583826, 31.072244352295041, 0.0 ], [ 74.667745717790709, 31.07183722650684, 0.0 ], [ 74.667688593753653, 31.071151676009109, 0.0 ], [ 74.667631609111524, 31.070467810840849, 0.0 ], [ 74.667582527711545, 31.06968972370186, 0.0 ], [ 74.667628520839642, 31.069114602756791, 0.0 ], [ 74.667570122463232, 31.06843405968413, 0.0 ], [ 74.667496869984632, 31.067946148695839, 0.0 ], [ 74.667313152879771, 31.067449078112549, 0.0 ], [ 74.66714085986284, 31.066759037299779, 0.0 ], [ 74.666963106162484, 31.066269370834839, 0.0 ], [ 74.666685798410924, 31.065576232756989, 0.0 ], [ 74.666493253560859, 31.06517519717768, 0.0 ], [ 74.666100762440294, 31.064571015539961, 0.0 ], [ 74.665707416064421, 31.063966224161941, 0.0 ], [ 74.665411196469606, 31.06356212099513, 0.0 ], [ 74.665001755826424, 31.063145677331171, 0.0 ], [ 74.664694670622637, 31.062833116155439, 0.0 ], [ 74.664078409291236, 31.062306931819499, 0.0 ], [ 74.663556023691569, 31.06197782581609, 0.0 ], [ 74.662924930741042, 31.061639104261321, 0.0 ], [ 74.662404018230902, 31.061310892184011, 0.0 ], [ 74.66167416533051, 31.060870674941711, 0.0 ], [ 74.660756819971311, 31.060136569147399, 0.0 ], [ 74.659705567358117, 31.059570290336701, 0.0 ], [ 74.658972493985473, 31.059226171051009, 0.0 ], [ 74.658143814585458, 31.058783332285032, 0.0 ], [ 74.657303668829286, 31.05842981058731, 0.0 ], [ 74.65637257013806, 31.057880928262321, 0.0 ], [ 74.655535430815519, 31.057528627843961, 0.0 ], [ 74.654818002948559, 31.057096294958111, 0.0 ], [ 74.653974360628283, 31.0568380995987, 0.0 ], [ 74.653472869877078, 31.05642350314217, 0.0 ], [ 74.652434527031843, 31.055963288574961, 0.0 ], [ 74.65161276431769, 31.05552205869612, 0.0 ], [ 74.650664347381792, 31.055254132672118, 0.0 ], [ 74.650029203884671, 31.055105945083351, 0.0 ], [ 74.648760017660706, 31.054809586093612, 0.0 ], [ 74.646355985040699, 31.05404776589172, 0.0 ], [ 74.644020307191454, 31.053657639988149, 0.0 ], [ 74.64077176080815, 31.0528266484311, 0.0 ], [ 74.639727825079135, 31.052551006224, 0.0 ], [ 74.639087185825005, 31.052493997300179, 0.0 ], [ 74.638660217395156, 31.052456000044391, 0.0 ], [ 74.637699887140116, 31.052370531175129, 0.0 ], [ 74.636205405455158, 31.05223888032015, 0.0 ], [ 74.634394059338419, 31.05207757611932, 0.0 ], [ 74.632569618193372, 31.052006830950521, 0.0 ], [ 74.631279233150153, 31.051982844232949, 0.0 ], [ 74.630428372871165, 31.051907053867481, 0.0 ], [ 74.62966927042055, 31.051930816653901, 0.0 ], [ 74.628028602138315, 31.052059251533311, 0.0 ], [ 74.626962875836099, 31.051965430660161, 0.0 ], [ 74.625868379322284, 31.052051036226359, 0.0 ], [ 74.622297452965157, 31.052098883756539, 0.0 ], [ 74.620561775805356, 31.052128296084071, 0.0 ], [ 74.619010396712483, 31.052355364108809, 0.0 ], [ 74.617434427456956, 31.05276039447666, 0.0 ], [ 74.615499817562593, 31.05331889684965, 0.0 ], [ 74.613527227499617, 31.054059312287521, 0.0 ], [ 74.611579148458972, 31.054621598108309, 0.0 ], [ 74.609804596305153, 31.055386040733271, 0.0 ], [ 74.608266489407029, 31.055991737728551, 0.0 ], [ 74.606960945391407, 31.056525680515779, 0.0 ], [ 74.605513991077885, 31.057232746394181, 0.0 ], [ 74.604780361924213, 31.057632651525712, 0.0 ], [ 74.603098567644849, 31.058413904278321, 0.0 ], [ 74.601580294395134, 31.059403811436809, 0.0 ], [ 74.600087476455954, 31.06030109022316, 0.0 ], [ 74.598803582719185, 31.061221289131279, 0.0 ], [ 74.597719824110655, 31.062168000053209, 0.0 ], [ 74.596821150475776, 31.063234093278819, 0.0 ], [ 74.595907885340708, 31.064395378843699, 0.0 ], [ 74.594966712443849, 31.065657642086581, 0.0 ], [ 74.594257139255603, 31.066852118030859, 0.0 ], [ 74.593559282434953, 31.068045831350091, 0.0 ], [ 74.593026238070465, 31.068969334367349, 0.0 ], [ 74.592634988913673, 31.0697177483754, 0.0 ], [ 74.59244524725041, 31.070089885140121, 0.0 ], [ 74.592188041145235, 31.07075304251897, 0.0 ], [ 74.591989321549974, 31.071130471793889, 0.0 ], [ 74.591817153538841, 31.071904346508479, 0.0 ], [ 74.59171284027542, 31.072387421842091, 0.0 ], [ 74.59176022555404, 31.072687868250561, 0.0 ], [ 74.591896902719952, 31.073095774650309, 0.0 ], [ 74.592144008539194, 31.073514509786829, 0.0 ], [ 74.592370658379252, 31.074031112745711, 0.0 ], [ 74.592662702421833, 31.074756020274169, 0.0 ], [ 74.593193999403567, 31.075407771551468, 0.0 ], [ 74.593460240098054, 31.075734241642031, 0.0 ], [ 74.593726833326755, 31.076061132615241, 0.0 ], [ 74.594104066549491, 31.076399128417101, 0.0 ], [ 74.59448181238578, 31.076737580175241, 0.0 ], [ 74.594970552549, 31.077087206009811, 0.0 ], [ 74.595370465774408, 31.077327726093738, 0.0 ], [ 74.59583944873161, 31.077777185668651, 0.0 ], [ 74.596378271240255, 31.078436707088411, 0.0 ], [ 74.59684919493445, 31.07888814427249, 0.0 ], [ 74.597593731065885, 31.079670743310221, 0.0 ], [ 74.598068338383129, 31.08012331004279, 0.0 ], [ 74.598431250801653, 31.08056664163723, 0.0 ], [ 74.598797330632337, 31.08100880771034, 0.0 ], [ 74.599439407003089, 31.0817843182917, 0.0 ], [ 74.59987890748566, 31.082440221738931, 0.0 ], [ 74.600359829842319, 31.082895990957251, 0.0 ], [ 74.600636687932891, 31.083230371484479, 0.0 ], [ 74.600913883269129, 31.08356515670663, 0.0 ], [ 74.601131211636186, 31.08420407555769, 0.0 ], [ 74.60138916148064, 31.08464148241854, 0.0 ], [ 74.60170193399712, 31.08539387772532, 0.0 ], [ 74.601849093660817, 31.085821328191781, 0.0 ], [ 74.602084242993499, 31.086367261639829, 0.0 ], [ 74.602439584918955, 31.086918934561261, 0.0 ], [ 74.6028133026918, 31.08737132502667, 0.0 ], [ 74.60307563223472, 31.08781224104213, 0.0 ], [ 74.603525187137748, 31.088481770117671, 0.0 ], [ 74.603918637834894, 31.088835691114301, 0.0 ], [ 74.604520931795591, 31.089314475782491, 0.0 ], [ 74.605127931009292, 31.089790123615369, 0.0 ], [ 74.605641153416585, 31.090152401112451, 0.0 ], [ 74.606593080406412, 31.090660941649169, 0.0 ], [ 74.607745649742029, 31.09130854974984, 0.0 ] ] ] ] } },
{ "type": "Feature", "properties": { "Name": "S21", "Area_km2": 38.6 }, "geometry": { "type": "MultiPolygon", "coordinates": [ [ [ [ 74.455724710828562, 30.968875686533298, 0.0 ], [ 74.456276294489996, 30.966997381774021, 0.0 ], [ 74.456369407011621, 30.966647897195241, 0.0 ], [ 74.456469915668578, 30.96637481243237, 0.0 ], [ 74.456536231808002, 30.966005454084691, 0.0 ], [ 74.45651086113304, 30.965773917975561, 0.0 ], [ 74.456483127873156, 30.96539857429012, 0.0 ], [ 74.456374532275376, 30.965097701295619, 0.0 ], [ 74.456276246437753, 30.964803947082139, 0.0 ], [ 74.456277332699457, 30.964662685004601, 0.0 ], [ 74.456132293775482, 30.96418283757351, 0.0 ], [ 74.456106323877023, 30.963809701661141, 0.0 ], [ 74.456101607026739, 30.963451178246761, 0.0 ], [ 74.456159902779362, 30.963149174017438, 0.0 ], [ 74.456292095963803, 30.962840214450001, 0.0 ], [ 74.456526725265334, 30.962543027998318, 0.0 ], [ 74.456763437879275, 30.962247435734952, 0.0 ], [ 74.457006895731894, 30.961956127622411, 0.0 ], [ 74.457272780630703, 30.961678725806291, 0.0 ], [ 74.457805958260721, 30.961336766744662, 0.0 ], [ 74.457953031235618, 30.961038613684259, 0.0 ], [ 74.458251625947938, 30.96080093654804, 0.0 ], [ 74.458469688916864, 30.960424542178071, 0.0 ], [ 74.458620042585892, 30.96020034635805, 0.0 ], [ 74.458848499810259, 30.959830542514819, 0.0 ], [ 74.459091641258581, 30.959539938536231, 0.0 ], [ 74.459253964676492, 30.959250926426542, 0.0 ], [ 74.459398194331698, 30.9589540630251, 0.0 ], [ 74.459543064952456, 30.958656991720751, 0.0 ], [ 74.459454085864579, 30.958442836768889, 0.0 ], [ 74.459294957443902, 30.958306818035378, 0.0 ], [ 74.458692661787722, 30.95801914402454, 0.0 ], [ 74.458259563017094, 30.957731599826001, 0.0 ], [ 74.458001230796143, 30.957588240684359, 0.0 ], [ 74.457579044886273, 30.95751899877067, 0.0 ], [ 74.457076829263443, 30.957452378084739, 0.0 ], [ 74.456580675441401, 30.957459740309499, 0.0 ], [ 74.456167328269885, 30.957465709932759, 0.0 ], [ 74.455831185788782, 30.95746785412295, 0.0 ], [ 74.455416237167611, 30.957544208477771, 0.0 ], [ 74.455164156892238, 30.95754581182025, 0.0 ], [ 74.454489816086962, 30.957548854224729, 0.0 ], [ 74.45406576357027, 30.95754947816048, 0.0 ], [ 74.453648900416709, 30.95755373223141, 0.0 ], [ 74.452905415827857, 30.957565378793731, 0.0 ], [ 74.452407465226557, 30.95757190940375, 0.0 ], [ 74.451990547450691, 30.957576257903291, 0.0 ], [ 74.451820359559321, 30.95750516162196, 0.0 ], [ 74.451312743185767, 30.957293588439171, 0.0 ], [ 74.451049802616339, 30.957005356212701, 0.0 ], [ 74.450786993175413, 30.956646439191161, 0.0 ], [ 74.450611086502406, 30.956359597343699, 0.0 ], [ 74.450598168065454, 30.955998277213052, 0.0 ], [ 74.450503482354051, 30.955709647209339, 0.0 ], [ 74.450325189419942, 30.955421725188231, 0.0 ], [ 74.450149985052022, 30.95520635216204, 0.0 ], [ 74.449802738482305, 30.954848192330061, 0.0 ], [ 74.449364870586692, 30.954345688773969, 0.0 ], [ 74.449105109533093, 30.95405990079896, 0.0 ], [ 74.448931374374354, 30.95384562350803, 0.0 ], [ 74.448679174655609, 30.953634346502749, 0.0 ], [ 74.448350660393942, 30.95349860653533, 0.0 ], [ 74.448027774681449, 30.953366546180899, 0.0 ], [ 74.447608543057797, 30.953227451211308, 0.0 ], [ 74.447176600525708, 30.95315258230163, 0.0 ], [ 74.446765672205274, 30.953017649974122, 0.0 ], [ 74.446426723391298, 30.952947013871611, 0.0 ], [ 74.446004397228577, 30.952947787121971, 0.0 ], [ 74.4455051102845, 30.952882206041689, 0.0 ], [ 74.445170122760672, 30.95288420337495, 0.0 ], [ 74.444667963023676, 30.952887741864831, 0.0 ], [ 74.444082532902485, 30.952891858385009, 0.0 ], [ 74.443433566717488, 30.95283743553632, 0.0 ], [ 74.442589864461837, 30.952839136858589, 0.0 ], [ 74.441749441349373, 30.952701042239561, 0.0 ], [ 74.441072569667242, 30.952418194874841, 0.0 ], [ 74.44106484132206, 30.952201590719831, 0.0 ], [ 74.441046004911342, 30.951625430890171, 0.0 ], [ 74.441035815662005, 30.951337037418199, 0.0 ], [ 74.440942113965889, 30.951049371401101, 0.0 ], [ 74.440926274618263, 30.950616947058371, 0.0 ], [ 74.440832551263767, 30.95032959970322, 0.0 ], [ 74.440655736035126, 30.950043148172188, 0.0 ], [ 74.440478741227437, 30.949686172497511, 0.0 ], [ 74.440468487537487, 30.949398592075259, 0.0 ], [ 74.4403745905839, 30.949041174452709, 0.0 ], [ 74.440365765970569, 30.948613810374109, 0.0 ], [ 74.440360775321579, 30.948258552313739, 0.0 ], [ 74.440349706891908, 30.947759466024849, 0.0 ], [ 74.440340675607899, 30.947473103062251, 0.0 ], [ 74.440326909618364, 30.947043668938012, 0.0 ], [ 74.440316747051511, 30.94675708702216, 0.0 ], [ 74.440141142676481, 30.946472410643711, 0.0 ], [ 74.439965612088059, 30.946187864456672, 0.0 ], [ 74.439542313073019, 30.945906129550711, 0.0 ], [ 74.439206915019227, 30.945766732074389, 0.0 ], [ 74.438871308213265, 30.945627435883679, 0.0 ], [ 74.438455872182928, 30.945560472832071, 0.0 ], [ 74.438120964355605, 30.945421273400001, 0.0 ], [ 74.437705906389638, 30.945213839345591, 0.0 ], [ 74.437290724418276, 30.945076115524511, 0.0 ], [ 74.436873634392441, 30.944937999528189, 0.0 ], [ 74.436540833750897, 30.944870147305551, 0.0 ], [ 74.436208048858759, 30.94480230050878, 0.0 ], [ 74.435792589442826, 30.944735375378539, 0.0 ], [ 74.435457524394963, 30.9445959390629, 0.0 ], [ 74.434954538423128, 30.944527658415399, 0.0 ], [ 74.434533693857944, 30.944387807189109, 0.0 ], [ 74.434365093848058, 30.944317660651439, 0.0 ], [ 74.434112836721255, 30.94424788607806, 0.0 ], [ 74.433778994183712, 30.944249989517761, 0.0 ], [ 74.43336373222256, 30.9441126837553, 0.0 ], [ 74.432785467155952, 30.943977989942681, 0.0 ], [ 74.432371206809506, 30.943841058057039, 0.0 ], [ 74.432034837653305, 30.943701047566929, 0.0 ], [ 74.43170102093822, 30.943632440753809, 0.0 ], [ 74.431286584791167, 30.94363612643351, 0.0 ], [ 74.430788357255807, 30.94356966895765, 0.0 ], [ 74.430456307914255, 30.943502018261452, 0.0 ], [ 74.42996170002651, 30.943507758069039, 0.0 ], [ 74.429549205501147, 30.943512318008231, 0.0 ], [ 74.429138745137635, 30.943517940494679, 0.0 ], [ 74.428227664627897, 30.94352636871832, 0.0 ], [ 74.427814564587223, 30.94353060032865, 0.0 ], [ 74.427235756959348, 30.943536481547572, 0.0 ], [ 74.427153067586886, 30.943537323956349, 0.0 ], [ 74.426493354734774, 30.943474985009448, 0.0 ], [ 74.426165123547989, 30.94348012638579, 0.0 ], [ 74.425833399476531, 30.943411981494091, 0.0 ], [ 74.425089649348891, 30.943350573641549, 0.0 ], [ 74.424757478450914, 30.943282846054419, 0.0 ], [ 74.424099132185461, 30.943222113274089, 0.0 ], [ 74.423511895645717, 30.9432214420961, 0.0 ], [ 74.423011370561568, 30.943012606115641, 0.0 ], [ 74.422679897127324, 30.94287552105623, 0.0 ], [ 74.422344134758333, 30.942804903108559, 0.0 ], [ 74.421928636850197, 30.942736808773262, 0.0 ], [ 74.42142721220857, 30.942527043270239, 0.0 ], [ 74.421012663152425, 30.942390082668659, 0.0 ], [ 74.420515188426805, 30.94232369432023, 0.0 ], [ 74.420100041572056, 30.942255812136551, 0.0 ], [ 74.419766249999242, 30.942185909702172, 0.0 ], [ 74.419433965418122, 30.94211730774262, 0.0 ], [ 74.419102580300162, 30.942049667124671, 0.0 ], [ 74.41852362507899, 30.941984857686929, 0.0 ], [ 74.418192288140602, 30.94191738784675, 0.0 ], [ 74.417530731834091, 30.94185345263341, 0.0 ], [ 74.416952781432769, 30.941859629048889, 0.0 ], [ 74.416537769476975, 30.941722034236559, 0.0 ], [ 74.416122788493183, 30.941584439458161, 0.0 ], [ 74.415622496990267, 30.94130344579861, 0.0 ], [ 74.415371866666902, 30.941093534706251, 0.0 ], [ 74.415366032148185, 30.940668956431601, 0.0 ], [ 74.415361145278482, 30.940315273320909, 0.0 ], [ 74.415356943041544, 30.940031487232702, 0.0 ], [ 74.415352677120126, 30.939747563774731, 0.0 ], [ 74.415347277427998, 30.939392620684121, 0.0 ], [ 74.415342812176604, 30.939108662582971, 0.0 ], [ 74.415337790210486, 30.93875480453719, 0.0 ], [ 74.415332249286408, 30.93840084501128, 0.0 ], [ 74.415492940932694, 30.938047732248851, 0.0 ], [ 74.415654194197216, 30.937764130851509, 0.0 ], [ 74.415813977155494, 30.937409418519529, 0.0 ], [ 74.415811201337945, 30.937197070792589, 0.0 ], [ 74.415806123714205, 30.936844848516621, 0.0 ], [ 74.415555497423796, 30.93656522404687, 0.0 ], [ 74.415305565735693, 30.93635608784572, 0.0 ], [ 74.415220491313406, 30.936145358662991, 0.0 ], [ 74.41505123093053, 30.935794253778489, 0.0 ], [ 74.41496420120977, 30.935512514521371, 0.0 ], [ 74.414793633301414, 30.935161470763251, 0.0 ], [ 74.414707201272776, 30.934880421533201, 0.0 ], [ 74.414621737020383, 30.934670028594891, 0.0 ], [ 74.414535305678896, 30.934389533174372, 0.0 ], [ 74.414365051645603, 30.933969536865849, 0.0 ], [ 74.414196906828948, 30.933689930145789, 0.0 ], [ 74.414027842534566, 30.933340099657009, 0.0 ], [ 74.413859798662017, 30.933060625442181, 0.0 ], [ 74.413691777306425, 30.932781219970511, 0.0 ], [ 74.413523797859412, 30.93250186382598, 0.0 ], [ 74.413356921732628, 30.93229362369701, 0.0 ], [ 74.413104651760676, 30.93180522845789, 0.0 ], [ 74.412936179221276, 30.931524853252689, 0.0 ], [ 74.412768430424236, 30.931246015039321, 0.0 ], [ 74.412599914056443, 30.930897365156969, 0.0 ], [ 74.41243405198162, 30.930758822357241, 0.0 ], [ 74.412268271914556, 30.930620462738059, 0.0 ], [ 74.411935112507877, 30.93020387409776, 0.0 ], [ 74.411686650606882, 30.9299965318923, 0.0 ], [ 74.411438275807882, 30.929789267353421, 0.0 ], [ 74.411107241132186, 30.929513007148081, 0.0 ], [ 74.410777145721596, 30.929306784004901, 0.0 ], [ 74.410445623641792, 30.928960926267631, 0.0 ], [ 74.410115328262279, 30.928753906448581, 0.0 ], [ 74.409785222363965, 30.928547073549499, 0.0 ], [ 74.409455916032641, 30.928410826466489, 0.0 ], [ 74.409128781316426, 30.92827729296425, 0.0 ], [ 74.408882497369476, 30.928072210205549, 0.0 ], [ 74.40855308373952, 30.927866179984029, 0.0 ], [ 74.408223761759331, 30.927660189484008, 0.0 ], [ 74.407893754598362, 30.927384454127051, 0.0 ], [ 74.407645458840435, 30.92710778647211, 0.0 ], [ 74.407230211908868, 30.926621813143271, 0.0 ], [ 74.406900370980068, 30.926414951633181, 0.0 ], [ 74.406489423043155, 30.926209748540749, 0.0 ], [ 74.406160382965083, 30.926003864627081, 0.0 ], [ 74.405668749390898, 30.925800814653989, 0.0 ], [ 74.40550517035156, 30.925733339604459, 0.0 ], [ 74.405012668868906, 30.92539099287962, 0.0 ], [ 74.404603101718891, 30.925186930575158, 0.0 ], [ 74.404520781758507, 30.925118104560919, 0.0 ], [ 74.404028927020022, 30.9248452025939, 0.0 ], [ 74.403783080791669, 30.92470880146918, 0.0 ], [ 74.403291547767921, 30.924436082045339, 0.0 ], [ 74.402964616036641, 30.92430095772858, 0.0 ], [ 74.402636791737095, 30.924095924083542, 0.0 ], [ 74.402144823117865, 30.923753544988589, 0.0 ], [ 74.401898478182261, 30.92354752346607, 0.0 ], [ 74.401652711502578, 30.92341100666993, 0.0 ], [ 74.401324903739564, 30.923205868930271, 0.0 ], [ 74.401078733741272, 30.922999971653521, 0.0 ], [ 74.400669489611005, 30.922795699662331, 0.0 ], [ 74.400342495566846, 30.92266017533608, 0.0 ], [ 74.40009635634992, 30.922454292555571, 0.0 ], [ 74.399523426078417, 30.922113006274358, 0.0 ], [ 74.39935986186002, 30.921976231643519, 0.0 ], [ 74.399032859194378, 30.921840621722499, 0.0 ], [ 74.398460489179215, 30.92156865451178, 0.0 ], [ 74.398133594153208, 30.921433096147201, 0.0 ], [ 74.397806839782092, 30.921297634168869, 0.0 ], [ 74.397316344942155, 30.921025098703389, 0.0 ], [ 74.396907885521358, 30.92089015956202, 0.0 ], [ 74.396583759928049, 30.92075688230155, 0.0 ], [ 74.396257448408321, 30.920621636454349, 0.0 ], [ 74.395847116063209, 30.920485125668019, 0.0 ], [ 74.395440386998899, 30.920282473526509, 0.0 ], [ 74.394873368686731, 30.920083528266598, 0.0 ], [ 74.394549579746396, 30.919950183468082, 0.0 ], [ 74.393979345293729, 30.91974835408498, 0.0 ], [ 74.393482677918541, 30.9196088352023, 0.0 ], [ 74.392912198106217, 30.919406748233399, 0.0 ], [ 74.392425593122297, 30.919343823960119, 0.0 ], [ 74.392102024973894, 30.919210404649661, 0.0 ], [ 74.39153569401013, 30.919080286051091, 0.0 ], [ 74.3911325500506, 30.919017835243071, 0.0 ], [ 74.390885546606455, 30.919018104696441, 0.0 ], [ 74.390480005813956, 30.91888485332635, 0.0 ], [ 74.390070112472642, 30.918817611222519, 0.0 ], [ 74.389580609105167, 30.918752317168821, 0.0 ], [ 74.389093643398184, 30.918688755398499, 0.0 ], [ 74.388607698332393, 30.918625825137571, 0.0 ], [ 74.388282422604789, 30.918559967369081, 0.0 ], [ 74.387956287483917, 30.91849353557155, 0.0 ], [ 74.387467058445935, 30.918428387819588, 0.0 ], [ 74.386895797669183, 30.918432700623701, 0.0 ], [ 74.38648776068375, 30.918366709937072, 0.0 ], [ 74.386242894308538, 30.918368556909421, 0.0 ], [ 74.385753197037374, 30.918303170625549, 0.0 ], [ 74.385261885568369, 30.918305962834491, 0.0 ], [ 74.384772482492181, 30.91824078540817, 0.0 ], [ 74.384445147115244, 30.918242819659849, 0.0 ], [ 74.384046129824895, 30.918182047140569, 0.0 ], [ 74.383645861325292, 30.91818957914683, 0.0 ], [ 74.383247675381256, 30.918129046795912, 0.0 ], [ 74.383003427990801, 30.918131214154329, 0.0 ], [ 74.382424159135581, 30.91806200080606, 0.0 ], [ 74.381849868654001, 30.917995575022029, 0.0 ], [ 74.381360326280401, 30.917930263160141, 0.0 ], [ 74.381116423461464, 30.917932656674878, 0.0 ], [ 74.38070992652014, 30.917936644310959, 0.0 ], [ 74.380301753417143, 30.917870583961129, 0.0 ], [ 74.379895575278738, 30.91780554671611, 0.0 ], [ 74.379165884010263, 30.917744521156429, 0.0 ], [ 74.378680627114264, 30.917750522704399, 0.0 ], [ 74.378112685177769, 30.917687396743482, 0.0 ], [ 74.377708172200414, 30.91762298563075, 0.0 ], [ 74.37714519298622, 30.917631488854639, 0.0 ], [ 74.376423784053813, 30.917574091694611, 0.0 ], [ 74.37626406244793, 30.917576962641469, 0.0 ], [ 74.375693650492181, 30.917512499063001, 0.0 ], [ 74.375199377249544, 30.91751409324166, 0.0 ], [ 74.374788605074215, 30.917446789589022, 0.0 ], [ 74.374223913915102, 30.917454134110422, 0.0 ], [ 74.3738191752022, 30.917389548546851, 0.0 ], [ 74.373574542314927, 30.917391505401159, 0.0 ], [ 74.372677451852965, 30.917398692441381, 0.0 ], [ 74.372351205048133, 30.917401303677259, 0.0 ], [ 74.371692874549069, 30.91740408831317, 0.0 ], [ 74.371285866120701, 30.917407680008719, 0.0 ], [ 74.370961344653139, 30.917411116265189, 0.0 ], [ 74.370309353367091, 30.917416623901389, 0.0 ], [ 74.369820179928766, 30.917420658620699, 0.0 ], [ 74.369574994592909, 30.917422467396701, 0.0 ], [ 74.369248060838061, 30.917424873437341, 0.0 ], [ 74.36883953042998, 30.91742791264879, 0.0 ], [ 74.368512089589345, 30.91749942354696, 0.0 ], [ 74.367924171243118, 30.917497620203289, 0.0 ], [ 74.367284829750588, 30.91757749031467, 0.0 ], [ 74.366971961873062, 30.917654526151171, 0.0 ], [ 74.36650920903449, 30.917737455337821, 0.0 ], [ 74.366020287567082, 30.917811065705301, 0.0 ], [ 74.365523234494376, 30.917950904109599, 0.0 ], [ 74.365273033703716, 30.918089624955371, 0.0 ], [ 74.364768116093529, 30.918365681338958, 0.0 ], [ 74.364181600427685, 30.918504014029761, 0.0 ], [ 74.363678917278079, 30.918711953525541, 0.0 ], [ 74.36335929283139, 30.91885584451623, 0.0 ], [ 74.363197922707784, 30.91892725028978, 0.0 ], [ 74.362714194408042, 30.919072156364351, 0.0 ], [ 74.362471988033064, 30.91921390847175, 0.0 ], [ 74.362149297288468, 30.91935670199177, 0.0 ], [ 74.361755419869397, 30.91957274778974, 0.0 ], [ 74.361331367188228, 30.91971035234636, 0.0 ], [ 74.360976537995143, 30.919913357180882, 0.0 ], [ 74.360718363449621, 30.920051229404521, 0.0 ], [ 74.360303090814199, 30.920191362856951, 0.0 ], [ 74.359885036665091, 30.92040092213065, 0.0 ], [ 74.359306443113411, 30.920543234272301, 0.0 ], [ 74.358913004134834, 30.920759462370111, 0.0 ], [ 74.358583962319571, 30.920900958961859, 0.0 ], [ 74.358253958857091, 30.92111170412576, 0.0 ], [ 74.357985687964813, 30.921386553013988, 0.0 ], [ 74.357724545212747, 30.921524129061829, 0.0 ], [ 74.357296918065146, 30.921941435396469, 0.0 ], [ 74.356902351222232, 30.922227143633162, 0.0 ], [ 74.356647679659631, 30.922575733342129, 0.0 ], [ 74.356485637893115, 30.922716754648199, 0.0 ], [ 74.356044599449291, 30.92313202867194, 0.0 ], [ 74.355897222676674, 30.923276506489291, 0.0 ], [ 74.355741171244063, 30.923418874278671, 0.0 ], [ 74.355260423281621, 30.923843985859602, 0.0 ], [ 74.35509972222296, 30.924194357472, 0.0 ], [ 74.354928495873821, 30.92440418140599, 0.0 ], [ 74.354764755541694, 30.924893986393801, 0.0 ], [ 74.354544531354918, 30.925165206059791, 0.0 ], [ 74.354432308278177, 30.92551095929899, 0.0 ], [ 74.35425568232904, 30.92578973519106, 0.0 ], [ 74.354184845255503, 30.926001469574739, 0.0 ], [ 74.354188983038043, 30.926492417209229, 0.0 ], [ 74.354186313713882, 30.9269110468863, 0.0 ], [ 74.354167855888846, 30.92725871764938, 0.0 ], [ 74.354169871350138, 30.927608806504171, 0.0 ], [ 74.354155088901123, 30.928027144966428, 0.0 ], [ 74.354127272860794, 30.92851423888817, 0.0 ], [ 74.354118830110806, 30.928863746536798, 0.0 ], [ 74.354202414685105, 30.929283786900609, 0.0 ], [ 74.354283425542647, 30.929563383584721, 0.0 ], [ 74.354538422932436, 30.929772238754811, 0.0 ], [ 74.354878329021759, 30.930050639226572, 0.0 ], [ 74.355130548279789, 30.930259126295329, 0.0 ], [ 74.355613729287299, 30.930534349764649, 0.0 ], [ 74.356171425217951, 30.930738134051971, 0.0 ], [ 74.356641054021253, 30.930942321807731, 0.0 ], [ 74.356797676637754, 30.931010413242561, 0.0 ], [ 74.357200164481469, 30.931146399898228, 0.0 ], [ 74.357851870934255, 30.93142075380857, 0.0 ], [ 74.358427706276515, 30.931696230226919, 0.0 ], [ 74.35887117746303, 30.931904964845579, 0.0 ], [ 74.359273490229128, 30.93211140954762, 0.0 ], [ 74.360150116761176, 30.932452667756671, 0.0 ], [ 74.360552431685221, 30.932659199414971, 0.0 ], [ 74.361050229177579, 30.93293583615252, 0.0 ], [ 74.361401515449259, 30.93314469557032, 0.0 ], [ 74.361982404731066, 30.933420218158361, 0.0 ], [ 74.362062321321488, 30.933489625624031, 0.0 ], [ 74.3626215902204, 30.933835127055211, 0.0 ], [ 74.363101031685801, 30.93404107636319, 0.0 ], [ 74.363260915179339, 30.93410975550378, 0.0 ], [ 74.363501135439066, 30.93431830502411, 0.0 ], [ 74.364079688657597, 30.934523989062289, 0.0 ], [ 74.36439465020436, 30.934731744338301, 0.0 ], [ 74.364808514000757, 30.934868607144089, 0.0 ], [ 74.365301338905056, 30.934934313349121, 0.0 ], [ 74.366124173638283, 30.935137694913809, 0.0 ], [ 74.366537219619161, 30.935274523326228, 0.0 ], [ 74.366783447231626, 30.935342666762459, 0.0 ], [ 74.367519359884469, 30.93554686387343, 0.0 ], [ 74.368003167855633, 30.935683028136349, 0.0 ], [ 74.368725106869533, 30.93588760854513, 0.0 ], [ 74.369060882124117, 30.93595487318261, 0.0 ], [ 74.369586218790289, 30.936231198421218, 0.0 ], [ 74.369915162161561, 30.93636888039541, 0.0 ], [ 74.370390658628565, 30.936576067246069, 0.0 ], [ 74.370632722964942, 30.936714802521418, 0.0 ], [ 74.370874524482289, 30.93685354410265, 0.0 ], [ 74.371353911996223, 30.937060971073919, 0.0 ], [ 74.371831441915049, 30.937339232326071, 0.0 ], [ 74.372153423600082, 30.937477706793249, 0.0 ], [ 74.372643899539725, 30.937684982080349, 0.0 ], [ 74.372971285759476, 30.93789376622772, 0.0 ], [ 74.373297415324529, 30.93810267335034, 0.0 ], [ 74.373379030932028, 30.938172568355959, 0.0 ], [ 74.373940617539063, 30.938592225747151, 0.0 ], [ 74.374096139806085, 30.93859148944841, 0.0 ], [ 74.374571941914354, 30.938942152504001, 0.0 ], [ 74.375339491572916, 30.939356837940728, 0.0 ], [ 74.375589750197548, 30.93956632964986, 0.0 ], [ 74.375895549514823, 30.939778361735868, 0.0 ], [ 74.376062576376583, 30.939847322869849, 0.0 ], [ 74.376486732860172, 30.940124976706379, 0.0 ], [ 74.376654537484114, 30.94026456351467, 0.0 ], [ 74.377236672761384, 30.94054149834545, 0.0 ], [ 74.377481479627789, 30.94075192711685, 0.0 ], [ 74.377726278225964, 30.94075001052996, 0.0 ], [ 74.378388846370612, 30.94088496434707, 0.0 ], [ 74.379061564702198, 30.941018148821001, 0.0 ], [ 74.37947387275662, 30.941155852291711, 0.0 ], [ 74.379800793237749, 30.941224073450101, 0.0 ], [ 74.380209538068343, 30.941362496215429, 0.0 ], [ 74.380784368520906, 30.941499233509969, 0.0 ], [ 74.381197880942111, 30.941707711730139, 0.0 ], [ 74.381363548479612, 30.941706017748551, 0.0 ], [ 74.381693754001262, 30.941773729011999, 0.0 ], [ 74.382106645538329, 30.94184062753969, 0.0 ], [ 74.382601828254209, 30.94197768215453, 0.0 ], [ 74.382929395762076, 30.94204601981383, 0.0 ], [ 74.383419307045273, 30.942184384750831, 0.0 ], [ 74.383749808673358, 30.94218118424088, 0.0 ], [ 74.384738008386179, 30.94245621241307, 0.0 ], [ 74.385653556790103, 30.942658575225511, 0.0 ], [ 74.3864716377945, 30.942865838602479, 0.0 ], [ 74.387133038355472, 30.942930410231181, 0.0 ], [ 74.388046498635617, 30.942920292201819, 0.0 ], [ 74.388954596713091, 30.942911731720461, 0.0 ], [ 74.389284576505943, 30.94290876496045, 0.0 ], [ 74.389781278975008, 30.942903678960409, 0.0 ], [ 74.390286137492652, 30.942895843683949, 0.0 ], [ 74.390785799073043, 30.94288965354577, 0.0 ], [ 74.391280106863562, 30.942885317593358, 0.0 ], [ 74.392175234973905, 30.942881399185239, 0.0 ], [ 74.392839873760622, 30.942802552251369, 0.0 ], [ 74.393418521184529, 30.942725747820219, 0.0 ], [ 74.394494597172823, 30.942785596375039, 0.0 ], [ 74.394903435998657, 30.942854550587189, 0.0 ], [ 74.395480667189162, 30.942920414463561, 0.0 ], [ 74.395974450006193, 30.943058791370749, 0.0 ], [ 74.396304552505072, 30.943198296830762, 0.0 ], [ 74.396644277854378, 30.943404325216861, 0.0 ], [ 74.396972704112414, 30.9436871004213, 0.0 ], [ 74.397219286638034, 30.943756699429429, 0.0 ], [ 74.397955210093286, 30.943967997549102, 0.0 ], [ 74.3981989261232, 30.9441109305221, 0.0 ], [ 74.398619251200699, 30.944317221172462, 0.0 ], [ 74.398863611127297, 30.94446020111976, 0.0 ], [ 74.399270903346647, 30.94467497340305, 0.0 ], [ 74.39959819906511, 30.944889199559281, 0.0 ], [ 74.399845814467213, 30.945030746852321, 0.0 ], [ 74.400345754657181, 30.945238997312849, 0.0 ], [ 74.400600235034659, 30.945447084155571, 0.0 ], [ 74.400937744761137, 30.945654043036431, 0.0 ], [ 74.401272553964048, 30.945791372285051, 0.0 ], [ 74.401606015736604, 30.946001540749108, 0.0 ], [ 74.401606328387089, 30.946073032019619, 0.0 ], [ 74.402271617009276, 30.946351554444881, 0.0 ], [ 74.402438024262594, 30.946493024575059, 0.0 ], [ 74.40302104182976, 30.9467720281665, 0.0 ], [ 74.403190994206113, 30.946909676917091, 0.0 ], [ 74.403526168727865, 30.947046117639669, 0.0 ], [ 74.404021221505644, 30.94726015093601, 0.0 ], [ 74.404351880164825, 30.947474730340868, 0.0 ], [ 74.404684279442421, 30.947687343645821, 0.0 ], [ 74.404935431089172, 30.947898649014491, 0.0 ], [ 74.405354642483445, 30.948177228837871, 0.0 ], [ 74.40577227404367, 30.948458832995769, 0.0 ], [ 74.406022630655912, 30.94867172990233, 0.0 ], [ 74.406438801421331, 30.948883465289949, 0.0 ], [ 74.406855806191416, 30.94909384273306, 0.0 ], [ 74.407105663031103, 30.94916252817281, 0.0 ], [ 74.407522899076881, 30.949372799597182, 0.0 ], [ 74.407938061116468, 30.94951525055453, 0.0 ], [ 74.40827188692397, 30.949728015245231, 0.0 ], [ 74.408605259133438, 30.949942625861901, 0.0 ], [ 74.409021216426694, 30.950158891973111, 0.0 ], [ 74.409274118919541, 30.950441657352389, 0.0 ], [ 74.409440994325479, 30.950437590197151, 0.0 ], [ 74.409944545832147, 30.95078732870255, 0.0 ], [ 74.410279495491935, 30.950998389889801, 0.0 ], [ 74.410530999677974, 30.95121225974632, 0.0 ], [ 74.4109492895101, 30.951345252135312, 0.0 ], [ 74.41136771203108, 30.95155363247336, 0.0 ], [ 74.411618136294067, 30.951698926040748, 0.0 ], [ 74.411868973546589, 30.951841480945429, 0.0 ], [ 74.412288285594499, 30.952122774733791, 0.0 ], [ 74.41262350650274, 30.952334647960271, 0.0 ], [ 74.412874639703261, 30.952477596999199, 0.0 ], [ 74.413210874534499, 30.95276401350565, 0.0 ], [ 74.41354540922967, 30.952907737195041, 0.0 ], [ 74.413797896443455, 30.953120507510508, 0.0 ], [ 74.41413450340788, 30.953405700812301, 0.0 ], [ 74.414470380860109, 30.953620216622891, 0.0 ], [ 74.414807403829727, 30.953906638565179, 0.0 ], [ 74.414975976860021, 30.95405013717146, 0.0 ], [ 74.415396511895636, 30.954335511373809, 0.0 ], [ 74.415649297804023, 30.954547628838561, 0.0 ], [ 74.416070132274086, 30.954834749297881, 0.0 ], [ 74.416323791502947, 30.955052704598739, 0.0 ], [ 74.416659457906547, 30.955259434394812, 0.0 ], [ 74.416996197205208, 30.955539129977439, 0.0 ], [ 74.417165638647333, 30.95575124930377, 0.0 ], [ 74.417502487151395, 30.955965790114838, 0.0 ], [ 74.417841005329663, 30.956254783809399, 0.0 ], [ 74.418095038506024, 30.956471650666838, 0.0 ], [ 74.418347954339424, 30.95661591442385, 0.0 ], [ 74.418854306035215, 30.956973079180599, 0.0 ], [ 74.419190849669548, 30.957184126802051, 0.0 ], [ 74.419610721836619, 30.957393965572621, 0.0 ], [ 74.419864225095864, 30.95760706551307, 0.0 ], [ 74.420288041903845, 30.957898604339888, 0.0 ], [ 74.420625259076544, 30.958042904682021, 0.0 ], [ 74.420964373928271, 30.958329855371929, 0.0 ], [ 74.421386359948613, 30.958545483662551, 0.0 ], [ 74.421641496758951, 30.958762736999681, 0.0 ], [ 74.421983691275855, 30.959126010421851, 0.0 ], [ 74.422237531733145, 30.95927066392623, 0.0 ], [ 74.422567180260444, 30.95952977093944, 0.0 ], [ 74.42290270365163, 30.959736022493711, 0.0 ], [ 74.423162200404121, 30.959965153618349, 0.0 ], [ 74.423417027244184, 30.960111688677781, 0.0 ], [ 74.423668251279437, 30.960179792869582, 0.0 ], [ 74.424011495903841, 30.960475070708402, 0.0 ], [ 74.424349041873327, 30.960687110627891, 0.0 ], [ 74.424686610764127, 30.96089916228302, 0.0 ], [ 74.424940640423415, 30.961112158332181, 0.0 ], [ 74.425193563455522, 30.96125323250299, 0.0 ], [ 74.425532020170365, 30.961467277905001, 0.0 ], [ 74.42579134908209, 30.961761337153849, 0.0 ], [ 74.426224617943959, 30.962067580172949, 0.0 ], [ 74.426568597943472, 30.962292588788799, 0.0 ], [ 74.426823832046111, 30.962507403350781, 0.0 ], [ 74.427244654446838, 30.962716455243569, 0.0 ], [ 74.427497113113148, 30.962925148909122, 0.0 ], [ 74.427749156625708, 30.96320367916071, 0.0 ], [ 74.427919364792047, 30.963275703364239, 0.0 ], [ 74.428347967787602, 30.96371102412466, 0.0 ], [ 74.428520397952909, 30.96392831461386, 0.0 ], [ 74.428862187917403, 30.964217127110679, 0.0 ], [ 74.42920414300994, 30.964506151690038, 0.0 ], [ 74.42954774418962, 30.964798021037751, 0.0 ], [ 74.429805616947462, 30.965086596718951, 0.0 ], [ 74.430061133601157, 30.965301588122081, 0.0 ], [ 74.430316122570318, 30.965445307047819, 0.0 ], [ 74.430737098241138, 30.96572477622707, 0.0 ], [ 74.430993854608005, 30.965941630205698, 0.0 ], [ 74.431248310030597, 30.966014217622359, 0.0 ], [ 74.431675304458409, 30.966303643613969, 0.0 ], [ 74.431845439162743, 30.966376134667101, 0.0 ], [ 74.432283705832816, 30.966684722533081, 0.0 ], [ 74.432631066338331, 30.966911324839089, 0.0 ], [ 74.432881418007668, 30.967116403712449, 0.0 ], [ 74.433293557359633, 30.967310693031202, 0.0 ], [ 74.433637029984482, 30.9676009184127, 0.0 ], [ 74.43406941979076, 30.96789817526437, 0.0 ], [ 74.434412322836494, 30.96811674296293, 0.0 ], [ 74.434670397367981, 30.96833488206412, 0.0 ], [ 74.435012287942726, 30.96848160736576, 0.0 ], [ 74.435187881458617, 30.96870287830286, 0.0 ], [ 74.435616338077338, 30.968922561771219, 0.0 ], [ 74.435872616305687, 30.969067191052648, 0.0 ], [ 74.436215109308563, 30.969284635115521, 0.0 ], [ 74.436471512366481, 30.969429337444339, 0.0 ], [ 74.436899618916058, 30.969648273342429, 0.0 ], [ 74.437244280570894, 30.969797454675341, 0.0 ], [ 74.43766059526088, 30.96985799966922, 0.0 ], [ 74.438418403438504, 30.970063187649401, 0.0 ], [ 74.438753194069136, 30.970199157803741, 0.0 ], [ 74.438916925606947, 30.970190836892879, 0.0 ], [ 74.439333897305005, 30.970252549440211, 0.0 ], [ 74.44020922056464, 30.970360851131861, 0.0 ], [ 74.440459992803767, 30.970426559953289, 0.0 ], [ 74.4407870582463, 30.970481522147541, 0.0 ], [ 74.441433665281437, 30.97058290795772, 0.0 ], [ 74.442298220826714, 30.97067481984778, 0.0 ], [ 74.442894688010213, 30.97074885060923, 0.0 ], [ 74.443219734603431, 30.970731801970391, 0.0 ], [ 74.443577850289515, 30.97082546742535, 0.0 ], [ 74.444175912958073, 30.970829431810088, 0.0 ], [ 74.444511445851816, 30.9708246294364, 0.0 ], [ 74.444930822780123, 30.97081862745004, 0.0 ], [ 74.445512816750195, 30.970804666878131, 0.0 ], [ 74.446272477138706, 30.97087052337584, 0.0 ], [ 74.446771267392847, 30.970858591629071, 0.0 ], [ 74.447106340086009, 30.970853222582079, 0.0 ], [ 74.447619839009647, 30.970857596747411, 0.0 ], [ 74.447960420440666, 30.97078728970423, 0.0 ], [ 74.448386491956811, 30.970717335930129, 0.0 ], [ 74.448800013198962, 30.9706344673763, 0.0 ], [ 74.449122615360281, 30.970617133161969, 0.0 ], [ 74.449365178582241, 30.970533872210069, 0.0 ], [ 74.450134520332583, 30.970538175801671, 0.0 ], [ 74.45098014591639, 30.97039126662817, 0.0 ], [ 74.451897642727417, 30.9703028691074, 0.0 ], [ 74.452920063203749, 30.97016181456128, 0.0 ], [ 74.453159222141963, 30.969934118169839, 0.0 ], [ 74.453559260573343, 30.969627109435699, 0.0 ], [ 74.453725479245662, 30.969623689850678, 0.0 ], [ 74.454291141692323, 30.9694558792884, 0.0 ], [ 74.454724684534753, 30.96932033292892, 0.0 ], [ 74.455311392577428, 30.969170394785181, 0.0 ], [ 74.455724710828562, 30.968875686533298, 0.0 ] ] ] ] } },
{ "type": "Feature", "properties": { "Name": "R22", "Area_km2": 16.3 }, "geometry": { "type": "MultiPolygon", "coordinates": [ [ [ [ 74.397421504032891, 31.68888705041606, 0.0 ], [ 74.397840631027208, 31.68735872255219, 0.0 ], [ 74.397907420593341, 31.687136864658559, 0.0 ], [ 74.398046239628272, 31.68676748937256, 0.0 ], [ 74.398114761430065, 31.68647773133566, 0.0 ], [ 74.398182590241547, 31.686118043235791, 0.0 ], [ 74.398129436745549, 31.68566112323834, 0.0 ], [ 74.398128809094601, 31.685312710167072, 0.0 ], [ 74.398116668830639, 31.68495605909661, 0.0 ], [ 74.398097426138662, 31.684525060664189, 0.0 ], [ 74.398062672005537, 31.684153092610941, 0.0 ], [ 74.398034920922044, 31.683855945420859, 0.0 ], [ 74.398014118902211, 31.683633332513882, 0.0 ], [ 74.397986636511575, 31.683336995238431, 0.0 ], [ 74.398048237377083, 31.683045544986062, 0.0 ], [ 74.398020139898378, 31.682680228496331, 0.0 ], [ 74.397986479900467, 31.682242474769769, 0.0 ], [ 74.397957780956432, 31.681877728675069, 0.0 ], [ 74.397927155056848, 31.68151213975591, 0.0 ], [ 74.397908537400014, 31.68129310606961, 0.0 ], [ 74.39796004326854, 31.680928405690022, 0.0 ], [ 74.397935300347115, 31.680636833426281, 0.0 ], [ 74.397992954493844, 31.680345948010519, 0.0 ], [ 74.397968762257179, 31.680055373985269, 0.0 ], [ 74.397931944847372, 31.67961980714508, 0.0 ], [ 74.397913556774085, 31.679402288104871, 0.0 ], [ 74.397895183877068, 31.679184956199059, 0.0 ], [ 74.397861937013658, 31.67882165146224, 0.0 ], [ 74.397824101200598, 31.678387556622742, 0.0 ], [ 74.397799487266866, 31.678098865662399, 0.0 ], [ 74.397757945732337, 31.677732434030549, 0.0 ], [ 74.397674079759796, 31.677274849670951, 0.0 ], [ 74.39763352278365, 31.67697905243066, 0.0 ], [ 74.397539897690436, 31.676767238593701, 0.0 ], [ 74.397440527847522, 31.67648405995045, 0.0 ], [ 74.397335147646515, 31.676129623352431, 0.0 ], [ 74.397166040144114, 31.67592112133967, 0.0 ], [ 74.396989501401833, 31.675640596112611, 0.0 ], [ 74.396627015870664, 31.675279303684619, 0.0 ], [ 74.396342742582348, 31.674849025406399, 0.0 ], [ 74.396153531260595, 31.674562630413519, 0.0 ], [ 74.396041694572745, 31.674206942880438, 0.0 ], [ 74.395932592387339, 31.673784776325, 0.0 ], [ 74.395898491049209, 31.67356416403489, 0.0 ], [ 74.395912856659052, 31.673231483013549, 0.0 ], [ 74.395908407824834, 31.672957560706472, 0.0 ], [ 74.395876020919218, 31.67260296491002, 0.0 ], [ 74.395847161995619, 31.672250420172279, 0.0 ], [ 74.395818358746709, 31.67189836487394, 0.0 ], [ 74.395795336425863, 31.671617073858421, 0.0 ], [ 74.395760974, 31.671195648792519, 0.0 ], [ 74.395734972501231, 31.670913772812138, 0.0 ], [ 74.39571192208453, 31.6706336046866, 0.0 ], [ 74.395679387887895, 31.67021466397803, 0.0 ], [ 74.395652307270083, 31.669866055058002, 0.0 ], [ 74.395706585984783, 31.66951843266262, 0.0 ], [ 74.395684940741475, 31.669240233809731, 0.0 ], [ 74.395663311469917, 31.668962335086839, 0.0 ], [ 74.395621633676583, 31.668609823064202, 0.0 ], [ 74.395486573262474, 31.66825292949364, 0.0 ], [ 74.395448141481808, 31.668037248671421, 0.0 ], [ 74.395424571136132, 31.667693439846961, 0.0 ], [ 74.395243154888874, 31.667417210496769, 0.0 ], [ 74.394900794759764, 31.66714048825267, 0.0 ], [ 74.394557063235723, 31.666863152636228, 0.0 ], [ 74.394212740087269, 31.666586108797599, 0.0 ], [ 74.394038735624335, 31.666380479746021, 0.0 ], [ 74.39369874787603, 31.666104989366229, 0.0 ], [ 74.393528066323299, 31.665967239208761, 0.0 ], [ 74.393272695720952, 31.66576084235021, 0.0 ], [ 74.392936746356909, 31.6655540818501, 0.0 ], [ 74.392596914106377, 31.665279383708921, 0.0 ], [ 74.392166847303287, 31.664867911638151, 0.0 ], [ 74.391915760391797, 31.664730101999162, 0.0 ], [ 74.391494527374277, 31.664455174512931, 0.0 ], [ 74.390914558152005, 31.66418012151945, 0.0 ], [ 74.390665215950676, 31.664043015544209, 0.0 ], [ 74.390338167819294, 31.663906289536591, 0.0 ], [ 74.389770054403755, 31.663701605958881, 0.0 ], [ 74.389286671263335, 31.663565509536181, 0.0 ], [ 74.389036582239044, 31.663494808865, 0.0 ], [ 74.388454903486206, 31.663352468124391, 0.0 ], [ 74.387992772147484, 31.6632221821747, 0.0 ], [ 74.387662343016672, 31.663084474356062, 0.0 ], [ 74.387334649367858, 31.662947532560281, 0.0 ], [ 74.386844207144094, 31.662742918424399, 0.0 ], [ 74.386601304717431, 31.662608014355829, 0.0 ], [ 74.386355345306029, 31.662405791319511, 0.0 ], [ 74.386109670551988, 31.662203719353968, 0.0 ], [ 74.385864123615946, 31.66200175154988, 0.0 ], [ 74.385616797238299, 31.661799276901458, 0.0 ], [ 74.385200397978991, 31.661527253764021, 0.0 ], [ 74.384789147071388, 31.661323099874121, 0.0 ], [ 74.384541687068136, 31.661187211240069, 0.0 ], [ 74.384210495151279, 31.660983692015279, 0.0 ], [ 74.383804744604987, 31.66084744153418, 0.0 ], [ 74.383475281037477, 31.660644424086399, 0.0 ], [ 74.383234590412982, 31.660510531678689, 0.0 ], [ 74.382748763541755, 31.66030787170088, 0.0 ], [ 74.382502057098918, 31.66017250697848, 0.0 ], [ 74.382252799401797, 31.660036622384808, 0.0 ], [ 74.381924333175178, 31.659900399792409, 0.0 ], [ 74.381520487571635, 31.659698783827849, 0.0 ], [ 74.381200169528569, 31.659564699225861, 0.0 ], [ 74.380800805159737, 31.65943036410912, 0.0 ], [ 74.380403297651682, 31.65936245229236, 0.0 ], [ 74.380084565426444, 31.659228763982181, 0.0 ], [ 74.37984983314972, 31.65922851975283, 0.0 ], [ 74.379455358147766, 31.65909538329641, 0.0 ], [ 74.379219002406657, 31.659028775203659, 0.0 ], [ 74.378902211765791, 31.658961593078789, 0.0 ], [ 74.378659478485062, 31.658827484853958, 0.0 ], [ 74.378172554284191, 31.658624996660961, 0.0 ], [ 74.377755661476087, 31.658486570484861, 0.0 ], [ 74.377442852823421, 31.65842037818825, 0.0 ], [ 74.377123605364176, 31.658352394826789, 0.0 ], [ 74.376732912447181, 31.65835198990758, 0.0 ], [ 74.376421093615932, 31.65835177699778, 0.0 ], [ 74.376029770028424, 31.658285129451851, 0.0 ], [ 74.375714317170392, 31.65815236634473, 0.0 ], [ 74.375402954305372, 31.658152250776141, 0.0 ], [ 74.374992689434166, 31.658081053997829, 0.0 ], [ 74.374605432457912, 31.65808143380448, 0.0 ], [ 74.374285757756624, 31.657947623178821, 0.0 ], [ 74.374051146750645, 31.65794724992125, 0.0 ], [ 74.3734172191851, 31.657944190740938, 0.0 ], [ 74.373021831569957, 31.657942479984921, 0.0 ], [ 74.372867017994054, 31.657942665061711, 0.0 ], [ 74.372323030315087, 31.6578769755961, 0.0 ], [ 74.372164419083788, 31.65787619630369, 0.0 ], [ 74.371842520957031, 31.657807362959211, 0.0 ], [ 74.371442771791777, 31.657607052269491, 0.0 ], [ 74.371126750211999, 31.657539897800639, 0.0 ], [ 74.37088916362039, 31.657472935201749, 0.0 ], [ 74.370494937395065, 31.657405630298481, 0.0 ], [ 74.370255940003887, 31.65727258399242, 0.0 ], [ 74.369864663051899, 31.65720607696327, 0.0 ], [ 74.369471266682254, 31.657139198560071, 0.0 ], [ 74.369234234912284, 31.65713808084255, 0.0 ], [ 74.368449759663079, 31.657135546858569, 0.0 ], [ 74.367972162126918, 31.657132485796051, 0.0 ], [ 74.367733968268368, 31.657130903375521, 0.0 ], [ 74.367416368881976, 31.65706294994305, 0.0 ], [ 74.367022205859968, 31.656864203970731, 0.0 ], [ 74.366707262555792, 31.656666222151081, 0.0 ], [ 74.366390004743721, 31.65653276738637, 0.0 ], [ 74.365990730851806, 31.656332687985479, 0.0 ], [ 74.365756993908249, 31.65620112928276, 0.0 ], [ 74.365214129731612, 31.656004375652699, 0.0 ], [ 74.364979909914481, 31.656004002762451, 0.0 ], [ 74.36474132394757, 31.655936722937209, 0.0 ], [ 74.364185942812853, 31.65586746352567, 0.0 ], [ 74.363946785224556, 31.655668988127431, 0.0 ], [ 74.363628259394147, 31.65540464913321, 0.0 ], [ 74.363311444062532, 31.655206341322419, 0.0 ], [ 74.362996092575798, 31.65507391622118, 0.0 ], [ 74.362680222052276, 31.6548106771594, 0.0 ], [ 74.362443864296608, 31.654678824633262, 0.0 ], [ 74.36205000853414, 31.65441564225258, 0.0 ], [ 74.361735269498055, 31.65421835724656, 0.0 ], [ 74.361264149789179, 31.653955608773551, 0.0 ], [ 74.361029800494961, 31.653824052639461, 0.0 ], [ 74.360636628550353, 31.653561613849551, 0.0 ], [ 74.360246082108446, 31.653365053685, 0.0 ], [ 74.360089177943507, 31.653234221292539, 0.0 ], [ 74.35992983875407, 31.65290804026408, 0.0 ], [ 74.359848664709972, 31.652582381617041, 0.0 ], [ 74.359690138485448, 31.652257134689059, 0.0 ], [ 74.35953267864339, 31.651996972235459, 0.0 ], [ 74.359297745217916, 31.65180181931974, 0.0 ], [ 74.358909807736055, 31.65160590547632, 0.0 ], [ 74.358598520611977, 31.651475819831809, 0.0 ], [ 74.358365276184827, 31.651345539771832, 0.0 ], [ 74.35790056532187, 31.65108478969983, 0.0 ], [ 74.357666637524616, 31.650890191639171, 0.0 ], [ 74.357432933125963, 31.650695780353189, 0.0 ], [ 74.357199020291119, 31.65043706553573, 0.0 ], [ 74.356966043115477, 31.650178273274509, 0.0 ], [ 74.356732644609195, 31.649855504369221, 0.0 ], [ 74.356421583678312, 31.64953352515321, 0.0 ], [ 74.356266368012882, 31.64940482076684, 0.0 ], [ 74.355878683491056, 31.64921218587477, 0.0 ], [ 74.355568295028021, 31.648956013333759, 0.0 ], [ 74.355260014085445, 31.64876247535361, 0.0 ], [ 74.354952256524228, 31.64863218909132, 0.0 ], [ 74.354643659622965, 31.6485673267374, 0.0 ], [ 74.354258266490987, 31.6484381646397, 0.0 ], [ 74.353949911515897, 31.64843712712101, 0.0 ], [ 74.353564440747149, 31.648435820925201, 0.0 ], [ 74.353178504095482, 31.648562413384202, 0.0 ], [ 74.352637068971561, 31.648881009218169, 0.0 ], [ 74.352635901007289, 31.649137420187341, 0.0 ], [ 74.352634448398106, 31.64945853261986, 0.0 ], [ 74.352710600243569, 31.64971593090528, 0.0 ], [ 74.352554773767849, 31.649972904776199, 0.0 ], [ 74.352476181832913, 31.65023035888996, 0.0 ], [ 74.352397512804444, 31.650488064436509, 0.0 ], [ 74.352240884956601, 31.650810173886889, 0.0 ], [ 74.352006527311133, 31.651132583042191, 0.0 ], [ 74.351850695037996, 31.651261552419228, 0.0 ], [ 74.351538435254426, 31.651584729595069, 0.0 ], [ 74.351381916940326, 31.651778614687139, 0.0 ], [ 74.351069150566687, 31.652036913757051, 0.0 ], [ 74.35075653219188, 31.652230754129501, 0.0 ], [ 74.350442364943362, 31.652554890994999, 0.0 ], [ 74.350206823957635, 31.652749506919971, 0.0 ], [ 74.35004958243195, 31.65287937695668, 0.0 ], [ 74.349813707560003, 31.6530742117342, 0.0 ], [ 74.349501310691821, 31.653398896710371, 0.0 ], [ 74.349265904348243, 31.65359403795884, 0.0 ], [ 74.349108078440537, 31.653724367741241, 0.0 ], [ 74.348791090990872, 31.654050846279439, 0.0 ], [ 74.348551752045324, 31.654378084475219, 0.0 ], [ 74.348391342618484, 31.65464035229617, 0.0 ], [ 74.347993786431914, 31.655033934222679, 0.0 ], [ 74.347913813281892, 31.655165201269821, 0.0 ], [ 74.347675474926646, 31.655427753344949, 0.0 ], [ 74.347437840914054, 31.655624731991871, 0.0 ], [ 74.347119744991673, 31.655953312252581, 0.0 ], [ 74.34696152018671, 31.656084503740171, 0.0 ], [ 74.346802415538022, 31.65628163344854, 0.0 ], [ 74.346564975435641, 31.65654375981909, 0.0 ], [ 74.346331539247203, 31.656803650675819, 0.0 ], [ 74.3460979128334, 31.65706363504211, 0.0 ], [ 74.345937098775821, 31.657196590816589, 0.0 ], [ 74.345609151827361, 31.65753225614413, 0.0 ], [ 74.345282199669128, 31.657802263965682, 0.0 ], [ 74.345038599982146, 31.65813490058407, 0.0 ], [ 74.344796689500981, 31.658335275546762, 0.0 ], [ 74.344398674460692, 31.658534206507259, 0.0 ], [ 74.344078043808267, 31.658799975290641, 0.0 ], [ 74.343760342340673, 31.65893217708496, 0.0 ], [ 74.343519491735719, 31.65913175974179, 0.0 ], [ 74.343278459074938, 31.659331498308209, 0.0 ], [ 74.342874576866819, 31.659731833272769, 0.0 ], [ 74.342555669984563, 31.659930676797419, 0.0 ], [ 74.342156275487369, 31.66032772538227, 0.0 ], [ 74.341837146889546, 31.66052673715221, 0.0 ], [ 74.341512587991204, 31.660729587549771, 0.0 ], [ 74.341267093270517, 31.660932646099312, 0.0 ], [ 74.341021305068864, 31.661135978141211, 0.0 ], [ 74.340614417717305, 31.661472915042449, 0.0 ], [ 74.340297045119542, 31.66173647585839, 0.0 ], [ 74.340134368513986, 31.662003366364619, 0.0 ], [ 74.339806121929911, 31.66247352779979, 0.0 ], [ 74.339638972694772, 31.662744045479659, 0.0 ], [ 74.339397264625632, 31.662944647313299, 0.0 ], [ 74.33930598822252, 31.663284554277219, 0.0 ], [ 74.339135676017264, 31.663624382793621, 0.0 ], [ 74.339043919572617, 31.66396560365158, 0.0 ], [ 74.339033431936599, 31.664239694899919, 0.0 ], [ 74.339022550930963, 31.66458082176862, 0.0 ], [ 74.339010691201423, 31.664923260605359, 0.0 ], [ 74.339075444990456, 31.66533608942288, 0.0 ], [ 74.339148362431473, 31.665608649290832, 0.0 ], [ 74.339141677990142, 31.665814597272831, 0.0 ], [ 74.339213638489255, 31.666088761278431, 0.0 ], [ 74.339284153209377, 31.666365018118999, 0.0 ], [ 74.339352371677634, 31.666643730549509, 0.0 ], [ 74.339418953985216, 31.666924879526551, 0.0 ], [ 74.339484815804724, 31.667340811876379, 0.0 ], [ 74.339479569006144, 31.667680462456161, 0.0 ], [ 74.339549616545568, 31.668092974541469, 0.0 ], [ 74.339623883319518, 31.668300641705969, 0.0 ], [ 74.339695435867014, 31.668645425358068, 0.0 ], [ 74.339761659736538, 31.66899754104886, 0.0 ], [ 74.339829309709017, 31.669348646888729, 0.0 ], [ 74.339901946236012, 31.66955997837837, 0.0 ], [ 74.339972446304444, 31.66984154068464, 0.0 ], [ 74.339961810275227, 31.67025804497348, 0.0 ], [ 74.339949556522328, 31.670610376011219, 0.0 ], [ 74.340015880804373, 31.671100926554249, 0.0 ], [ 74.340012240265253, 31.67124049376234, 0.0 ], [ 74.34008318724733, 31.67165829134402, 0.0 ], [ 74.340078101475527, 31.671867512167431, 0.0 ], [ 74.340150755442991, 31.672216414057932, 0.0 ], [ 74.340306576645574, 31.67242809430331, 0.0 ], [ 74.34037862266679, 31.672711841755891, 0.0 ], [ 74.340452271580432, 31.673127649395941, 0.0 ], [ 74.340611578668501, 31.673334674545739, 0.0 ], [ 74.340682468792622, 31.673756351959621, 0.0 ], [ 74.340829689278948, 31.67412036744939, 0.0 ], [ 74.340905738879641, 31.674332135446921, 0.0 ], [ 74.341059745994883, 31.674685434820031, 0.0 ], [ 74.341051631454604, 31.674970558540899, 0.0 ], [ 74.341285618942607, 31.67526071160048, 0.0 ], [ 74.341361180030418, 31.675542542774352, 0.0 ], [ 74.341515192544534, 31.675831231652349, 0.0 ], [ 74.341667518268736, 31.676124278663149, 0.0 ], [ 74.341902583555694, 31.676483769528101, 0.0 ], [ 74.342142560735809, 31.67676581530543, 0.0 ], [ 74.342382702172117, 31.677048047691201, 0.0 ], [ 74.342625161991677, 31.67725764881828, 0.0 ], [ 74.342865341242316, 31.67747327956074, 0.0 ], [ 74.343102990778448, 31.67776372707273, 0.0 ], [ 74.343343144339215, 31.677981031992822, 0.0 ], [ 74.34358249750106, 31.678269458605151, 0.0 ], [ 74.343823337697486, 31.678486405913411, 0.0 ], [ 74.344060501123224, 31.67878300920524, 0.0 ], [ 74.34437790183749, 31.679086379890009, 0.0 ], [ 74.34470366138045, 31.67943387442255, 0.0 ], [ 74.344865728945678, 31.67964420799229, 0.0 ], [ 74.345108490937179, 31.679859773224049, 0.0 ], [ 74.345349548260572, 31.68015000742869, 0.0 ], [ 74.345590805370207, 31.680440682892709, 0.0 ], [ 74.345751319508253, 31.680659154121582, 0.0 ], [ 74.34599418452818, 31.680878196506001, 0.0 ], [ 74.346153804503373, 31.681169762838259, 0.0 ], [ 74.346313605140921, 31.681461655792361, 0.0 ], [ 74.346638292635419, 31.681754658401349, 0.0 ], [ 74.346796580838273, 31.68212428377678, 0.0 ], [ 74.347038802031264, 31.682421421690279, 0.0 ], [ 74.347198893620345, 31.682718161517741, 0.0 ], [ 74.347441830394047, 31.683015512981491, 0.0 ], [ 74.347602410597261, 31.683313048964578, 0.0 ], [ 74.347763207184428, 31.683610984841842, 0.0 ], [ 74.347924223013436, 31.683909323666949, 0.0 ], [ 74.34825262535567, 31.684130978093719, 0.0 ], [ 74.348581746175526, 31.684282490765739, 0.0 ], [ 74.348996051852112, 31.68441701024819, 0.0 ], [ 74.349409094529733, 31.68456419960917, 0.0 ], [ 74.349738779889492, 31.684647584162992, 0.0 ], [ 74.350069937522946, 31.684720959191679, 0.0 ], [ 74.350483448298959, 31.68486719576612, 0.0 ], [ 74.350813912010082, 31.685016382025651, 0.0 ], [ 74.351061498136957, 31.685168148542552, 0.0 ], [ 74.351475149866246, 31.685324098677452, 0.0 ], [ 74.351724018145333, 31.685330201620619, 0.0 ], [ 74.352139080436928, 31.68533559152409, 0.0 ], [ 74.352471375862692, 31.685322912485258, 0.0 ], [ 74.352886364206242, 31.68530959122506, 0.0 ], [ 74.353301046921388, 31.685300208010322, 0.0 ], [ 74.353632752205229, 31.685297904019201, 0.0 ], [ 74.354214125527264, 31.685318059513119, 0.0 ], [ 74.354546313909495, 31.685323830979311, 0.0 ], [ 74.354961568266333, 31.68532951319181, 0.0 ], [ 74.355459129250562, 31.685327933771848, 0.0 ], [ 74.355875840836404, 31.68527130677532, 0.0 ], [ 74.356209590787373, 31.685288800191259, 0.0 ], [ 74.356707791227961, 31.68521695583037, 0.0 ], [ 74.356957164770549, 31.685219321155721, 0.0 ], [ 74.35737301279957, 31.685081332818221, 0.0 ], [ 74.357703134434772, 31.684996829718539, 0.0 ], [ 74.358115052945593, 31.684907428137659, 0.0 ], [ 74.358444742166384, 31.684753900728481, 0.0 ], [ 74.358855963679417, 31.684737088713959, 0.0 ], [ 74.359186960191721, 31.684664896748568, 0.0 ], [ 74.359598025339764, 31.68458080436595, 0.0 ], [ 74.360010083828229, 31.684501858964541, 0.0 ], [ 74.360342983342377, 31.684439212332698, 0.0 ], [ 74.360674099765902, 31.684368974708089, 0.0 ], [ 74.361006428441641, 31.68430338395105, 0.0 ], [ 74.361505578957548, 31.684314069556908, 0.0 ], [ 74.361922166857781, 31.68432309249085, 0.0 ], [ 74.362337285236251, 31.684327581347571, 0.0 ], [ 74.362669738864184, 31.68440155474703, 0.0 ], [ 74.363000658621118, 31.684540491412601, 0.0 ], [ 74.363338161478751, 31.68477034001608, 0.0 ], [ 74.363757852439718, 31.684856821168921, 0.0 ], [ 74.364090679429268, 31.68486036233363, 0.0 ], [ 74.364505723565642, 31.684861909257279, 0.0 ], [ 74.364920768301928, 31.684863455845981, 0.0 ], [ 74.36533559257488, 31.684864943883159, 0.0 ], [ 74.365746559800229, 31.6847858280982, 0.0 ], [ 74.36599726812635, 31.684790704214741, 0.0 ], [ 74.366418796298419, 31.684807849963349, 0.0 ], [ 74.366834804506837, 31.684811449950029, 0.0 ], [ 74.367251669761529, 31.68488647080731, 0.0 ], [ 74.367666751046073, 31.684887594834031, 0.0 ], [ 74.368083730233138, 31.684962767014301, 0.0 ], [ 74.368409598969308, 31.68502076651993, 0.0 ], [ 74.368748124943167, 31.685174966209281, 0.0 ], [ 74.369168851725334, 31.685467176036859, 0.0 ], [ 74.369502580497056, 31.685680919076049, 0.0 ], [ 74.36983732833221, 31.68575653370074, 0.0 ], [ 74.370090975529592, 31.685905662352269, 0.0 ], [ 74.370511290068009, 31.686055743440249, 0.0 ], [ 74.370850237038852, 31.686208751146189, 0.0 ], [ 74.371181949993144, 31.686277912717681, 0.0 ], [ 74.371607503796298, 31.686366250525079, 0.0 ], [ 74.371936641127348, 31.68636051177209, 0.0 ], [ 74.372423056718119, 31.686340090685661, 0.0 ], [ 74.372666550625226, 31.686260756133152, 0.0 ], [ 74.372992681734843, 31.686111193472868, 0.0 ], [ 74.373323401884079, 31.685899609509129, 0.0 ], [ 74.373655490460678, 31.685690395472211, 0.0 ], [ 74.373991251484213, 31.685626775240639, 0.0 ], [ 74.374398364807135, 31.685405513454828, 0.0 ], [ 74.37479948219304, 31.685245850123991, 0.0 ], [ 74.375123643493865, 31.685096117869321, 0.0 ], [ 74.375450618670399, 31.685020048661361, 0.0 ], [ 74.375860808745713, 31.68487528411341, 0.0 ], [ 74.376193674152873, 31.684877739634061, 0.0 ], [ 74.376606730861198, 31.684806883513971, 0.0 ], [ 74.377192330020137, 31.684815587345941, 0.0 ], [ 74.377431578677488, 31.68480336899815, 0.0 ], [ 74.377848064994041, 31.684806880209809, 0.0 ], [ 74.378209645941908, 31.684985109859849, 0.0 ], [ 74.378548555335328, 31.68499489513453, 0.0 ], [ 74.37896522029645, 31.685207175410049, 0.0 ], [ 74.379378579899949, 31.685345550070579, 0.0 ], [ 74.379714023764222, 31.685559771201518, 0.0 ], [ 74.379968258221965, 31.68577598802138, 0.0 ], [ 74.380381705560424, 31.685914375339419, 0.0 ], [ 74.380629052099977, 31.68598259265703, 0.0 ], [ 74.381048737423512, 31.686058683134771, 0.0 ], [ 74.381550254025257, 31.686063575842269, 0.0 ], [ 74.382137600786649, 31.686071660885261, 0.0 ], [ 74.382558432467945, 31.686078742577919, 0.0 ], [ 74.38281100337224, 31.686082993900619, 0.0 ], [ 74.383144637223651, 31.686085095632009, 0.0 ], [ 74.383474967562748, 31.68608357915037, 0.0 ], [ 74.383887812143712, 31.686081684447998, 0.0 ], [ 74.38421803535438, 31.686080167826539, 0.0 ], [ 74.384548203608318, 31.686078653977049, 0.0 ], [ 74.384879615739422, 31.686078395522209, 0.0 ], [ 74.385292523634121, 31.686076863892701, 0.0 ], [ 74.385610063126052, 31.685992866371109, 0.0 ], [ 74.386007936081199, 31.685906770850998, 0.0 ], [ 74.386424631179509, 31.685909298665312, 0.0 ], [ 74.386679275566962, 31.685915452643279, 0.0 ], [ 74.387018935988308, 31.685923658306141, 0.0 ], [ 74.387362105278754, 31.686005240740329, 0.0 ], [ 74.387704795786547, 31.686085802930521, 0.0 ], [ 74.388136544109997, 31.68624184495204, 0.0 ], [ 74.388394962919904, 31.686320793542411, 0.0 ], [ 74.388731282313572, 31.686464189538849, 0.0 ], [ 74.389161505986252, 31.686688582745401, 0.0 ], [ 74.389509986138222, 31.686913503533159, 0.0 ], [ 74.38968823660359, 31.687064640796098, 0.0 ], [ 74.3899558348905, 31.68729154070083, 0.0 ], [ 74.390306693542911, 31.68751855114153, 0.0 ], [ 74.390653332350993, 31.687741535940582, 0.0 ], [ 74.391085820156562, 31.68803669060366, 0.0 ], [ 74.391432082858799, 31.688259364403901, 0.0 ], [ 74.391694518978355, 31.68848124272154, 0.0 ], [ 74.392039776847739, 31.688702695846121, 0.0 ], [ 74.392385256174833, 31.68892427737083, 0.0 ], [ 74.39265509388882, 31.68915293937475, 0.0 ], [ 74.392841254925983, 31.689381206612818, 0.0 ], [ 74.393204096531207, 31.689688774433499, 0.0 ], [ 74.393540187073924, 31.689901666119962, 0.0 ], [ 74.393954936460005, 31.690039606623969, 0.0 ], [ 74.394205664531086, 31.690180374199791, 0.0 ], [ 74.394690300751861, 31.690166098819841, 0.0 ], [ 74.395116380590906, 31.690174236687241, 0.0 ], [ 74.395428127389224, 31.690014596021221, 0.0 ], [ 74.395746584199642, 31.68986139398892, 0.0 ], [ 74.396058083483553, 31.689632477772658, 0.0 ], [ 74.396555654078199, 31.689350426646708, 0.0 ], [ 74.396829540517118, 31.689300453267819, 0.0 ], [ 74.397177237789165, 31.689102096782719, 0.0 ], [ 74.397421504032891, 31.68888705041606, 0.0 ] ] ] ] } }
]
}
