{"type": "FeatureCollection", "name": "astore", "crs": {"type": "name", "properties": {"name": "urn:ogc:def:crs:OGC:1.3:CRS84"}}, "features": [{"type": "Feature", "properties": {"gid": 0, "g_count": 411, "g_area": 256.93818346692564, "c_area": 3989.2930626808165}, "geometry": {"type": "MultiPolygon", "coordinates": [[[[74.66041666666666, 35.55875], [74.659583333, 35.55958333366667], [74.65791666633334, 35.55875000033334], [74.647083333, 35.56958333366667], [74.64958333333333, 35.577083333333334], [74.64625, 35.57958333333333], [74.64625, 35.58291666666667], [74.64791666666666, 35.586250000000014], [74.65124999999999, 35.58708333333334], [74.65374999999999, 35.58958333333334], [74.65625, 35.589583333333344], [74.65791666666667, 35.59291666666667], [74.66125, 35.59374999999999], [74.66458333333333, 35.59708333333334], [74.66458333333333, 35.59958333333333], [74.66958333333332, 35.603750000000005], [74.67041666666665, 35.60708333333334], [74.68458333333334, 35.60874999999999], [74.69208333333333, 35.60791666666667], [74.69375, 35.61041666666667], [74.69958333333332, 35.61041666666667], [74.70208333333332, 35.60875], [74.70708333333333, 35.60958333333333], [74.71124999999999, 35.60875], [74.71374999999999, 35.61041666666667], [74.73291666666665, 35.60958333333333], [74.73958333333333, 35.61125000000001], [74.74208333333333, 35.61375000000001], [74.74958333333333, 35.61458333333332], [74.75125, 35.617916666666666], [74.75375, 35.61791666666667], [74.76041666666666, 35.62375], [74.77041666666666, 35.62375], [74.77291666666666, 35.627083333333346], [74.77291666666666, 35.63458333333334], [74.77624999999999, 35.64125000000001], [74.77791666666666, 35.64208333333334], [74.77791666666666, 35.64458333333334], [74.79374999999999, 35.64291666666667], [74.79624999999999, 35.63958333333333], [74.79624999999999, 35.632916666666674], [74.79791666666667, 35.63375000000001], [74.79875, 35.63208333333333], [74.80291666666666, 35.63291666666666], [74.80791666666666, 35.63208333333334], [74.80958333333332, 35.62791666666667], [74.81708333333333, 35.62625000000001], [74.81875, 35.624583333333334], [74.81958333333333, 35.62041666666667], [74.82624999999999, 35.61791666666667], [74.82958333333333, 35.61375], [74.83291666666666, 35.61375], [74.83375, 35.60708333333333], [74.83208333333333, 35.60541666666668], [74.83125, 35.60125000000001], [74.83541666666666, 35.59958333333333], [74.83874999999999, 35.595416666666665], [74.84041666666666, 35.59541666666667], [74.84458333333333, 35.59125], [74.84791666666666, 35.59041666666666], [74.85125, 35.58708333333333], [74.85125, 35.58541666666667], [74.85875, 35.582083333333344], [74.85958333333332, 35.57958333333333], [74.86125, 35.57875000000001], [74.86458333333333, 35.57958333333334], [74.86541666666668, 35.57791666666666], [74.86708333333333, 35.57791666666666], [74.86874999999999, 35.57458333333334], [74.87124999999999, 35.573750000000004], [74.87041666666666, 35.571250000000006], [74.86791666666666, 35.570416666666674], [74.86708333333333, 35.56541666666668], [74.86375, 35.56208333333333], [74.85958333333332, 35.560416666666654], [74.86291666666666, 35.55625000000001], [74.86458333333333, 35.55625000000001], [74.86708333333333, 35.55375], [74.86958333333332, 35.553749999999994], [74.86958333333332, 35.55208333333332], [74.87208333333332, 35.55208333333333], [74.87375, 35.549583333333324], [74.87875, 35.54791666666667], [74.88291666666666, 35.54291666666667], [74.88624999999999, 35.54541666666667], [74.88958333333332, 35.54541666666667], [74.89874999999999, 35.536249999999995], [74.90291666666666, 35.53541666666666], [74.90708333333333, 35.52291666666667], [74.91624999999999, 35.52458333333335], [74.92708333333333, 35.52458333333334], [74.93124999999999, 35.518750000000004], [74.93708333333333, 35.51708333333334], [74.93958333333335, 35.51375], [74.94624999999999, 35.51208333333334], [74.95041666666665, 35.50708333333333], [74.95041666666665, 35.50208333333333], [74.95375, 35.49708333333333], [74.95291666666665, 35.49291666666667], [74.95958333333333, 35.490416666666675], [74.96374999999999, 35.48041666666666], [74.96624999999999, 35.47791666666667], [74.97125, 35.476250000000014], [74.97291666666666, 35.473749999999995], [74.97708333333333, 35.47375000000001], [74.97874999999999, 35.476250000000014], [74.98541666666667, 35.47625000000001], [74.99125, 35.470416666666665], [74.99374999999999, 35.47375], [75.00041666666667, 35.474583333333335], [75.00458333333333, 35.47708333333334], [75.00458333333333, 35.474583333333335], [75.01041666666666, 35.46708333333333], [75.01041666666666, 35.46541666666667], [75.01624999999999, 35.46458333333334], [75.01791666666666, 35.46208333333334], [75.01875, 35.45125], [75.01541666666665, 35.447916666666664], [75.01541666666665, 35.44375000000001], [75.01791666666666, 35.44208333333333], [75.01875, 35.43958333333333], [75.02125, 35.43958333333333], [75.02624999999999, 35.435416666666676], [75.03291666666667, 35.43625], [75.03375, 35.437916666666666], [75.04458333333332, 35.43708333333333], [75.04624999999999, 35.43458333333332], [75.04875, 35.43541666666667], [75.04958333333333, 35.437083333333334], [75.05458333333333, 35.436249999999994], [75.05874999999999, 35.43041666666668], [75.06208333333333, 35.42958333333333], [75.06458333333333, 35.42708333333333], [75.06291666666667, 35.423750000000005], [75.06458333333333, 35.42291666666668], [75.06458333333333, 35.42041666666666], [75.06625, 35.418749999999996], [75.06791666666666, 35.418749999999996], [75.06875, 35.417083333333345], [75.07291666666666, 35.41791666666667], [75.07791666666665, 35.41625000000001], [75.08375, 35.416250000000005], [75.08458333333333, 35.414583333333326], [75.08624999999999, 35.414583333333326], [75.08791666666666, 35.40541666666667], [75.08958333333332, 35.40291666666665], [75.09124999999999, 35.40291666666666], [75.09124999999999, 35.39958333333334], [75.09625, 35.397916666666674], [75.09708333333333, 35.395416666666655], [75.10041666666666, 35.393750000000004], [75.10125, 35.39125000000002], [75.10291666666666, 35.39125000000002], [75.10208333333333, 35.38541666666668], [75.09958333333333, 35.384583333333325], [75.09958333333333, 35.382916666666674], [75.10624999999999, 35.377916666666664], [75.10708333333334, 35.37458333333334], [75.11291666666666, 35.37291666666666], [75.11291666666666, 35.36958333333333], [75.11458333333333, 35.368750000000006], [75.11458333333333, 35.36708333333335], [75.11625, 35.36708333333334], [75.11625, 35.36541666666666], [75.11958333333332, 35.364583333333336], [75.12124999999999, 35.36125], [75.12625, 35.36041666666667], [75.12875, 35.35625000000001], [75.13291666666666, 35.35625], [75.13458333333332, 35.35208333333334], [75.13624999999999, 35.35208333333333], [75.13958333333332, 35.34875], [75.14291666666666, 35.34958333333333], [75.14375, 35.35125000000001], [75.15374999999999, 35.35208333333334], [75.15541666666667, 35.353750000000005], [75.16041666666666, 35.35208333333335], [75.16708333333332, 35.35208333333334], [75.16791666666666, 35.34375], [75.16958333333332, 35.342916666666675], [75.17041666666665, 35.33791666666667], [75.17208333333332, 35.337916666666665], [75.17291666666667, 35.33625], [75.17208333333332, 35.33458333333334], [75.16958333333332, 35.333749999999995], [75.16958333333332, 35.32791666666667], [75.16791666666666, 35.32625], [75.16708333333332, 35.322083333333346], [75.17124999999999, 35.321250000000006], [75.17208333333332, 35.31208333333334], [75.17625, 35.31125], [75.17708333333333, 35.30958333333333], [75.17875, 35.30041666666666], [75.17708333333333, 35.29958333333333], [75.17625, 35.29541666666666], [75.17791666666666, 35.29458333333332], [75.17875, 35.28958333333334], [75.18041666666666, 35.28958333333335], [75.18041666666666, 35.28791666666667], [75.17625, 35.28458333333334], [75.17625, 35.28041666666667], [75.17458333333333, 35.279583333333335], [75.17708333333333, 35.27208333333334], [75.17625, 35.26708333333333], [75.17791666666666, 35.26291666666666], [75.17791666666666, 35.254583333333336], [75.17208333333332, 35.252916666666664], [75.16791666666666, 35.24958333333333], [75.16291666666666, 35.24875], [75.16375, 35.24375], [75.16791666666666, 35.24208333333334], [75.16791666666666, 35.240416666666675], [75.16958333333332, 35.239583333333336], [75.16958333333332, 35.23708333333333], [75.16791666666666, 35.23541666666667], [75.16958333333332, 35.231249999999996], [75.16624999999999, 35.22458333333332], [75.17124999999999, 35.223749999999995], [75.17291666666667, 35.22041666666666], [75.17875, 35.22041666666667], [75.18208333333332, 35.21874999999999], [75.18125, 35.21125000000001], [75.18458333333332, 35.20958333333333], [75.19208333333333, 35.20875], [75.19208333333333, 35.205416666666665], [75.19375, 35.20291666666667], [75.19291666666666, 35.198750000000004], [75.19708333333332, 35.197083333333346], [75.20208333333332, 35.19708333333334], [75.20625, 35.19375000000001], [75.20875, 35.19375000000001], [75.20958333333334, 35.19041666666667], [75.21208333333333, 35.18875000000001], [75.21624999999999, 35.19041666666667], [75.21791666666667, 35.19291666666666], [75.22458333333333, 35.19375], [75.22958333333332, 35.19708333333333], [75.23541666666667, 35.19791666666667], [75.23791666666668, 35.19708333333334], [75.23708333333333, 35.18875], [75.23291666666665, 35.181250000000006], [75.23458333333332, 35.17958333333334], [75.23791666666668, 35.17958333333335], [75.23875, 35.17625], [75.24208333333333, 35.174583333333324], [75.24125, 35.17124999999999], [75.23875, 35.16875], [75.24208333333333, 35.16625], [75.24374999999999, 35.15958333333333], [75.24708333333332, 35.157083333333325], [75.24458333333332, 35.15541666666667], [75.24125, 35.15541666666667], [75.23625, 35.150416666666665], [75.23291666666665, 35.14958333333333], [75.23291666666665, 35.14625], [75.22625, 35.146249999999995], [75.22125, 35.14291666666668], [75.21875, 35.13625000000001], [75.22208333333333, 35.135416666666664], [75.22208333333333, 35.13291666666667], [75.22375, 35.13208333333335], [75.22291666666666, 35.128750000000004], [75.22125, 35.127083333333346], [75.21541666666666, 35.12708333333334], [75.21374999999999, 35.12375], [75.21041666666666, 35.121249999999996], [75.21208333333333, 35.11791666666667], [75.21624999999999, 35.116249999999994], [75.21791666666667, 35.11374999999999], [75.21374999999999, 35.10958333333334], [75.21374999999999, 35.10791666666666], [75.21041666666666, 35.10708333333332], [75.20458333333333, 35.10791666666666], [75.20291666666667, 35.10625], [75.19624999999999, 35.10708333333333], [75.19541666666666, 35.10458333333333], [75.19291666666666, 35.10374999999999], [75.19291666666666, 35.098749999999995], [75.19541666666666, 35.095416666666665], [75.19375, 35.08875000000001], [75.19708333333332, 35.085416666666674], [75.19624999999999, 35.08374999999998], [75.20041666666665, 35.08041666666667], [75.20041666666665, 35.077083333333334], [75.20208333333332, 35.07541666666666], [75.21458333333332, 35.07208333333334], [75.21374999999999, 35.067083333333336], [75.21624999999999, 35.065416666666664], [75.21624999999999, 35.06375], [75.21374999999999, 35.06291666666667], [75.21291666666666, 35.055416666666666], [75.20958333333334, 35.052083333333336], [75.20541666666666, 35.051249999999996], [75.20708333333333, 35.04208333333334], [75.19791666666666, 35.03958333333334], [75.19624999999999, 35.03125], [75.19791666666666, 35.03125], [75.19958333333332, 35.03375], [75.20208333333332, 35.03375], [75.20374999999999, 35.03125000000001], [75.21041666666666, 35.03125], [75.21374999999999, 35.02625], [75.22208333333333, 35.026250000000005], [75.22375, 35.02291666666668], [75.22291666666666, 35.021250000000016], [75.22541666666666, 35.01958333333334], [75.22458333333333, 35.01625000000001], [75.22625, 35.01541666666667], [75.22625, 35.012916666666676], [75.23208333333332, 35.00958333333334], [75.23208333333332, 35.007916666666674], [75.22625, 35.00208333333333], [75.22791666666666, 34.99708333333333], [75.22041666666667, 34.99291666666667], [75.21875, 34.99375], [75.21291666666666, 34.98541666666666], [75.20625, 34.98458333333334], [75.20124999999999, 34.97541666666667], [75.19708333333332, 34.97208333333334], [75.19791666666666, 34.96791666666666], [75.20208333333332, 34.96374999999999], [75.19958333333332, 34.96125000000001], [75.19874999999999, 34.95791666666667], [75.20124999999999, 34.95625000000001], [75.20124999999999, 34.95458333333333], [75.20374999999999, 34.95458333333334], [75.20625, 34.952083333333334], [75.20708333333333, 34.94624999999999], [75.19458333333333, 34.934583333333336], [75.19125, 34.935416666666676], [75.18291666666666, 34.93125000000001], [75.15875, 34.93208333333334], [75.15791666666667, 34.93041666666667], [75.15374999999999, 34.92875], [75.15458333333332, 34.92458333333334], [75.15374999999999, 34.922916666666666], [75.15041666666666, 34.92291666666665], [75.15041666666666, 34.91791666666666], [75.14874999999999, 34.91625], [75.14208333333333, 34.915416666666665], [75.14041666666665, 34.91208333333333], [75.13791666666665, 34.91041666666667], [75.13291666666666, 34.90958333333334], [75.12875, 34.91125], [75.12625, 34.90874999999999], [75.11708333333333, 34.908750000000005], [75.11041666666667, 34.90291666666668], [75.10541666666666, 34.90041666666667], [75.09958333333333, 34.90041666666668], [75.09625, 34.90291666666668], [75.08958333333332, 34.90458333333333], [75.08708333333333, 34.90375000000001], [75.08624999999999, 34.90208333333334], [75.08208333333333, 34.902083333333344], [75.07958333333333, 34.89791666666667], [75.07791666666665, 34.897916666666674], [75.07208333333332, 34.903749999999995], [75.06875, 34.90375], [75.06791666666666, 34.90125000000001], [75.06875, 34.89541666666667], [75.07041666666666, 34.895416666666655], [75.07458333333332, 34.89041666666667], [75.08041666666666, 34.88958333333333], [75.08208333333333, 34.88624999999999], [75.07791666666665, 34.88458333333334], [75.07875, 34.88041666666666], [75.07458333333332, 34.87708333333333], [75.07458333333332, 34.87458333333335], [75.07041666666666, 34.87041666666667], [75.07041666666666, 34.86875], [75.06791666666666, 34.867916666666666], [75.06791666666666, 34.85958333333334], [75.07041666666666, 34.857083333333335], [75.06708333333333, 34.853750000000005], [75.06708333333333, 34.85125], [75.06958333333333, 34.84708333333333], [75.06958333333333, 34.84375], [75.06791666666666, 34.84291666666666], [75.06708333333333, 34.839583333333344], [75.07124999999999, 34.835416666666674], [75.07124999999999, 34.831250000000004], [75.06875, 34.82875], [75.06541666666666, 34.82791666666667], [75.06458333333333, 34.82625], [75.06125, 34.826249999999995], [75.05958333333332, 34.823750000000004], [75.05291666666666, 34.824583333333344], [75.05208333333333, 34.82708333333333], [75.04875, 34.82958333333333], [75.04875, 34.83208333333334], [75.04291666666666, 34.83791666666668], [75.03708333333333, 34.83625], [75.03625, 34.83458333333333], [75.03125, 34.836250000000014], [75.02791666666666, 34.84041666666667], [75.02541666666666, 34.84041666666668], [75.02374999999999, 34.83791666666668], [75.01041666666666, 34.83708333333334], [75.01041666666666, 34.835416666666674], [75.00458333333333, 34.834583333333335], [75.00375, 34.82624999999999], [75.00125, 34.821250000000006], [74.99541666666666, 34.82125], [74.99208333333333, 34.824583333333344], [74.98708333333333, 34.82458333333333], [74.98208333333332, 34.81958333333334], [74.97708333333333, 34.81791666666667], [74.97458333333333, 34.81541666666668], [74.97375, 34.81208333333334], [74.96958333333333, 34.80791666666666], [74.97041666666667, 34.80375], [74.96374999999999, 34.80041666666666], [74.96291666666666, 34.798750000000005], [74.96374999999999, 34.79708333333334], [74.95875, 34.79208333333333], [74.94125, 34.79125000000001], [74.94041666666666, 34.78791666666665], [74.92791666666666, 34.776250000000005], [74.91375, 34.77541666666667], [74.91208333333333, 34.77708333333334], [74.90958333333333, 34.77708333333334], [74.90875, 34.78041666666667], [74.90708333333333, 34.78124999999999], [74.90958333333333, 34.784583333333316], [74.90374999999999, 34.79041666666666], [74.90458333333332, 34.799583333333345], [74.90124999999999, 34.80125000000001], [74.90041666666666, 34.80708333333334], [74.89708333333333, 34.80708333333334], [74.89458333333333, 34.809583333333336], [74.88208333333333, 34.811249999999994], [74.87875, 34.812916666666666], [74.87541666666667, 34.81708333333334], [74.86458333333333, 34.82041666666667], [74.86125, 34.82291666666667], [74.83624999999999, 34.823750000000004], [74.83541666666666, 34.82208333333334], [74.83291666666666, 34.82208333333333], [74.83041666666666, 34.82458333333333], [74.82791666666665, 34.82458333333334], [74.82624999999999, 34.82875], [74.82041666666666, 34.82958333333333], [74.81875, 34.83291666666667], [74.81375, 34.83291666666668], [74.80958333333332, 34.83625000000001], [74.80208333333333, 34.83708333333334], [74.79708333333332, 34.84458333333334], [74.79374999999999, 34.844583333333325], [74.79291666666666, 34.84041666666666], [74.79124999999999, 34.83875000000001], [74.78875, 34.838750000000005], [74.78791666666666, 34.83708333333333], [74.78291666666667, 34.83625000000002], [74.77874999999999, 34.836250000000014], [74.77708333333332, 34.83791666666667], [74.76791666666666, 34.83708333333334], [74.76458333333332, 34.833749999999995], [74.76458333333332, 34.831250000000004], [74.76291666666665, 34.82958333333333], [74.75625, 34.82875], [74.75541666666666, 34.830416666666665], [74.75125, 34.83125], [74.74958333333333, 34.829583333333325], [74.74374999999999, 34.82875000000001], [74.73958333333333, 34.83291666666667], [74.73958333333333, 34.83625000000001], [74.73458333333333, 34.83708333333333], [74.73291666666665, 34.83958333333334], [74.73041666666666, 34.84041666666667], [74.73291666666665, 34.849583333333335], [74.73041666666666, 34.85041666666666], [74.73041666666666, 34.85291666666667], [74.72625, 34.85875], [74.72208333333333, 34.85958333333334], [74.71541666666666, 34.853750000000005], [74.70791666666666, 34.853750000000005], [74.70541666666666, 34.856249999999996], [74.70541666666666, 34.86041666666667], [74.70291666666665, 34.86291666666668], [74.70208333333332, 34.86708333333335], [74.69958333333332, 34.86791666666667], [74.69958333333332, 34.870416666666664], [74.69791666666666, 34.872083333333336], [74.69458333333333, 34.872916666666676], [74.69125000000001, 34.86958333333333], [74.69125000000001, 34.87125], [74.68791666666667, 34.873749999999994], [74.68708333333333, 34.876250000000006], [74.67791666666666, 34.87791666666668], [74.67625, 34.87958333333333], [74.67708333333333, 34.887916666666655], [74.67124999999999, 34.89375], [74.66708333333332, 34.89541666666666], [74.66624999999999, 34.901250000000005], [74.66458333333333, 34.90125], [74.66375, 34.90291666666668], [74.66208333333333, 34.90291666666668], [74.66125, 34.90041666666667], [74.65875, 34.89958333333334], [74.65791666666667, 34.897916666666674], [74.65291666666666, 34.897083333333335], [74.64375, 34.89791666666668], [74.63874999999999, 34.90041666666667], [74.63791666666665, 34.903749999999995], [74.62041666666666, 34.907916666666665], [74.61874999999999, 34.91041666666667], [74.61291666666666, 34.91041666666666], [74.60458333333332, 34.918749999999996], [74.60125, 34.91458333333334], [74.59958333333333, 34.91458333333333], [74.59625, 34.911249999999995], [74.59291666666667, 34.91041666666667], [74.59208333333332, 34.90875], [74.58708333333333, 34.90625000000001], [74.58458333333333, 34.90625000000001], [74.58375, 34.90458333333333], [74.58125, 34.90458333333333], [74.57958333333333, 34.90125000000001], [74.57208333333332, 34.90041666666667], [74.57124999999999, 34.90208333333334], [74.56625, 34.903749999999995], [74.57208333333332, 34.91291666666666], [74.57124999999999, 34.91375], [74.57208333333332, 34.92208333333335], [74.56708333333334, 34.923750000000005], [74.56458333333333, 34.926249999999996], [74.56875, 34.931250000000006], [74.56875, 34.93291666666665], [74.57041666666666, 34.93291666666667], [74.57124999999999, 34.934583333333336], [74.57124999999999, 34.93791666666667], [74.56958333333333, 34.938750000000006], [74.56958333333333, 34.94125], [74.57124999999999, 34.94125], [74.57124999999999, 34.94458333333334], [74.56791666666666, 34.94625], [74.56708333333334, 34.95041666666666], [74.56458333333333, 34.95291666666667], [74.56458333333333, 34.955416666666665], [74.56625, 34.95541666666666], [74.56875, 34.95791666666668], [74.56875, 34.96125], [74.56458333333333, 34.96625], [74.56625, 34.96875], [74.57124999999999, 34.97041666666667], [74.57541666666665, 34.97791666666667], [74.57541666666665, 34.98291666666667], [74.57458333333332, 34.98541666666668], [74.57291666666666, 34.98625000000001], [74.57291666666666, 34.988749999999996], [74.57458333333332, 34.99041666666666], [74.58041666666666, 34.99125000000001], [74.58125, 34.99375000000001], [74.58291666666666, 34.993750000000006], [74.58458333333333, 34.99791666666666], [74.58624999999999, 34.99875], [74.58624999999999, 35.00291666666667], [74.58041666666666, 35.007083333333334], [74.57958333333333, 35.013749999999995], [74.57791666666665, 35.01541666666667], [74.57041666666666, 35.015416666666674], [74.56541666666666, 35.01291666666667], [74.56458333333333, 35.011250000000004], [74.55541666666666, 35.012083333333344], [74.54958333333333, 35.017916666666665], [74.54124999999999, 35.02041666666667], [74.54041666666666, 35.022916666666674], [74.53541666666666, 35.027083333333344], [74.53625, 35.02875], [74.53375, 35.02875000000001], [74.53375, 35.032916666666665], [74.53291666666667, 35.03541666666666], [74.53125, 35.03625], [74.53125, 35.03875000000001], [74.53458333333333, 35.044583333333335], [74.53458333333333, 35.048750000000005], [74.53625, 35.04958333333334], [74.53708333333333, 35.052083333333336], [74.54041666666666, 35.053749999999994], [74.54124999999999, 35.06124999999999], [74.53708333333333, 35.06541666666667], [74.53541666666666, 35.06958333333334], [74.52708333333332, 35.07291666666667], [74.52708333333332, 35.07458333333333], [74.52541666666666, 35.07458333333334], [74.52458333333333, 35.07624999999999], [74.51958333333333, 35.077083333333334], [74.51708333333333, 35.07958333333334], [74.51708333333333, 35.081250000000004], [74.51208333333332, 35.08291666666666], [74.51291666666665, 35.08708333333334], [74.51458333333332, 35.08708333333335], [74.51958333333333, 35.09208333333334], [74.51875, 35.09541666666667], [74.51041666666666, 35.09541666666668], [74.50625, 35.099583333333335], [74.50208333333333, 35.10125000000001], [74.50208333333333, 35.102916666666665], [74.49875, 35.102916666666665], [74.49458333333332, 35.10541666666667], [74.49041666666666, 35.10541666666668], [74.48875, 35.10708333333332], [74.48374999999999, 35.10791666666667], [74.47958333333332, 35.111250000000005], [74.47458333333333, 35.11125], [74.46875, 35.10625000000001], [74.46458333333334, 35.10541666666668], [74.46041666666666, 35.11041666666667], [74.45875, 35.11041666666666], [74.45541666666666, 35.113749999999996], [74.45375, 35.122916666666676], [74.45208333333332, 35.12541666666667], [74.45291666666665, 35.128750000000004], [74.44958333333332, 35.13208333333335], [74.44041666666666, 35.13208333333335], [74.43708333333333, 35.13041666666667], [74.43374999999999, 35.13458333333334], [74.42958333333333, 35.13541666666668], [74.42541666666666, 35.138749999999995], [74.42208333333333, 35.13958333333333], [74.41874999999999, 35.13791666666667], [74.41541666666666, 35.143750000000004], [74.40791666666667, 35.14458333333334], [74.40374999999999, 35.14708333333332], [74.40458333333333, 35.15208333333334], [74.40958333333333, 35.154583333333335], [74.40958333333333, 35.15625], [74.41208333333333, 35.157916666666665], [74.41375, 35.161249999999995], [74.41958333333332, 35.16291666666667], [74.42041666666665, 35.16458333333334], [74.42375, 35.16458333333333], [74.43374999999999, 35.173750000000005], [74.43458333333332, 35.17958333333334], [74.43958333333333, 35.182083333333345], [74.44041666666666, 35.18625], [74.44375, 35.18958333333333], [74.44624999999999, 35.18958333333333], [74.45291666666665, 35.19375], [74.45791666666666, 35.193749999999994], [74.45791666666666, 35.195416666666674], [74.46208333333333, 35.199583333333344], [74.46291666666666, 35.20291666666666], [74.46958333333333, 35.20291666666667], [74.47208333333333, 35.207916666666655], [74.48041666666666, 35.208749999999995], [74.48541666666667, 35.212916666666665], [74.48541666666667, 35.217083333333335], [74.48875, 35.220416666666665], [74.49624999999999, 35.22125000000001], [74.50041666666667, 35.22625], [74.50541666666666, 35.22458333333333], [74.50874999999999, 35.220416666666665], [74.51124999999999, 35.220416666666665], [74.51458333333332, 35.21791666666667], [74.51875, 35.21958333333334], [74.53375, 35.21874999999999], [74.53708333333333, 35.22041666666666], [74.54124999999999, 35.22041666666667], [74.54374999999999, 35.22375], [74.54624999999999, 35.22375], [74.54708333333332, 35.22541666666667], [74.55041666666666, 35.22625000000001], [74.57041666666666, 35.22625], [74.57291666666666, 35.22875], [74.57958333333333, 35.22958333333334], [74.57958333333333, 35.231249999999996], [74.58291666666666, 35.234583333333326], [74.58624999999999, 35.234583333333326], [74.58875, 35.236250000000005], [74.58875, 35.24125], [74.59208333333332, 35.24458333333334], [74.59208333333332, 35.25041666666667], [74.59625, 35.252916666666664], [74.60874999999999, 35.25708333333335], [74.61208333333333, 35.25958333333334], [74.63374999999999, 35.260416666666664], [74.63791666666665, 35.258750000000006], [74.63791666666665, 35.26208333333334], [74.63958333333332, 35.26291666666666], [74.64041666666665, 35.26625], [74.64291666666666, 35.268750000000004], [74.64458333333333, 35.26875000000001], [74.64541666666666, 35.271249999999995], [74.64874999999999, 35.27375], [74.64958333333333, 35.27874999999999], [74.65208333333332, 35.283750000000005], [74.65541666666667, 35.28625], [74.65541666666667, 35.28875000000001], [74.66041666666666, 35.28875000000001], [74.66208333333333, 35.29458333333333], [74.66708333333332, 35.299583333333324], [74.66958333333332, 35.29958333333334], [74.67041666666665, 35.30125000000001], [74.67458333333333, 35.30291666666667], [74.67625, 35.306250000000006], [74.67541666666666, 35.31125], [74.67791666666666, 35.322083333333346], [74.68708333333333, 35.33041666666668], [74.68791666666667, 35.32958333333333], [74.69708333333332, 35.33041666666668], [74.70041666666665, 35.33708333333333], [74.70458333333333, 35.33791666666665], [74.70708333333333, 35.34041666666666], [74.70708333333333, 35.34208333333333], [74.71374999999999, 35.34541666666668], [74.71291666666667, 35.348749999999995], [74.71624999999999, 35.35125000000001], [74.71708333333332, 35.35458333333334], [74.71708333333332, 35.356249999999996], [74.71541666666666, 35.357083333333335], [74.71624999999999, 35.36375000000001], [74.72125, 35.36875], [74.72125, 35.37041666666667], [74.72458333333333, 35.372083333333336], [74.72541666666666, 35.37791666666667], [74.73124999999999, 35.382916666666674], [74.73124999999999, 35.38541666666668], [74.72791666666666, 35.39041666666667], [74.72791666666666, 35.39708333333333], [74.72625, 35.39958333333335], [74.72291666666666, 35.400416666666665], [74.72375, 35.41041666666667], [74.71875, 35.41208333333334], [74.71791666666667, 35.415416666666665], [74.71541666666666, 35.41625000000001], [74.71458333333332, 35.422083333333326], [74.71624999999999, 35.42291666666667], [74.71624999999999, 35.42541666666666], [74.71374999999999, 35.42791666666666], [74.71374999999999, 35.43041666666668], [74.70875, 35.433749999999996], [74.71041666666666, 35.43541666666667], [74.71041666666666, 35.43791666666666], [74.71875, 35.44208333333333], [74.71875, 35.44375], [74.71374999999999, 35.44875], [74.71458333333332, 35.44958333333334], [74.71374999999999, 35.455416666666665], [74.71124999999999, 35.458749999999995], [74.71124999999999, 35.462916666666665], [74.70708333333333, 35.46875000000001], [74.70541666666666, 35.47791666666667], [74.70291666666665, 35.47958333333334], [74.70208333333332, 35.48291666666667], [74.69375, 35.49125], [74.69208333333333, 35.49125], [74.69125000000001, 35.49291666666667], [74.68291666666666, 35.493750000000006], [74.68208333333332, 35.497083333333336], [74.67541666666666, 35.50125], [74.67875, 35.507916666666674], [74.67875, 35.51458333333334], [74.67625, 35.51541666666667], [74.67541666666666, 35.51791666666667], [74.67375, 35.518750000000004], [74.67041666666665, 35.53125000000001], [74.66708333333332, 35.53375000000001], [74.66791666666666, 35.53874999999999], [74.66708333333332, 35.54041666666667], [74.66958333333332, 35.54291666666666], [74.66958333333332, 35.547083333333326], [74.66791666666666, 35.54791666666669], [74.66874999999999, 35.55041666666667], [74.66708333333332, 35.55208333333332], [74.66708333333332, 35.554583333333326], [74.66041666666666, 35.55875]]]]}}]}