{"type": "FeatureCollection", "name": "gilgit", "crs": {"type": "name", "properties": {"name": "urn:ogc:def:crs:OGC:1.3:CRS84"}}, "features": [{"type": "Feature", "properties": {"gid": 0, "g_count": 4029, "g_area": 5579.346010634686, "c_area": 27327.636241405307}, "geometry": {"type": "MultiPolygon", "coordinates": [[[[72.82374999999999, 35.88125], [72.82458333333332, 35.88041666666666], [72.82374999999999, 35.876250000000006], [72.82124999999999, 35.87291666666666], [72.82208333333332, 35.87208333333334], [72.82124999999999, 35.86708333333334], [72.81875, 35.864583333333336], [72.81875, 35.86041666666666], [72.82124999999999, 35.85541666666667], [72.81375000000001, 35.849583333333335], [72.80874999999999, 35.848749999999995], [72.81125, 35.84458333333333], [72.81041666666667, 35.83958333333334], [72.80458333333333, 35.83791666666667], [72.80375, 35.835416666666674], [72.80458333333333, 35.82875], [72.80291666666666, 35.82791666666667], [72.80291666666666, 35.82625], [72.79875, 35.82541666666667], [72.79708333333333, 35.82708333333333], [72.79291666666666, 35.82708333333333], [72.79041666666666, 35.82541666666667], [72.78625, 35.82541666666666], [72.78458333333333, 35.823750000000004], [72.77708333333332, 35.826249999999995], [72.77291666666666, 35.826249999999995], [72.77125, 35.82541666666666], [72.77125, 35.823750000000004], [72.76875, 35.82375], [72.76708333333333, 35.82208333333334], [72.76708333333333, 35.82041666666667], [72.76458333333333, 35.82041666666667], [72.76208333333332, 35.817083333333336], [72.75375, 35.816250000000004], [72.74791666666667, 35.81374999999999], [72.74041666666666, 35.81375000000001], [72.73791666666666, 35.81458333333334], [72.73541666666667, 35.81958333333333], [72.73291666666667, 35.820416666666674], [72.73291666666667, 35.82208333333334], [72.73041666666666, 35.823750000000004], [72.73041666666666, 35.82875], [72.73291666666667, 35.831250000000004], [72.73375, 35.83541666666666], [72.72541666666666, 35.83708333333334], [72.72208333333333, 35.84041666666668], [72.72208333333333, 35.842083333333335], [72.72541666666666, 35.845416666666665], [72.72541666666666, 35.84875000000001], [72.72708333333333, 35.849583333333335], [72.72708333333333, 35.85208333333334], [72.72541666666666, 35.85208333333334], [72.72458333333333, 35.85375], [72.71708333333333, 35.85291666666667], [72.70791666666666, 35.85458333333333], [72.70541666666666, 35.85291666666668], [72.70124999999999, 35.852916666666665], [72.70041666666665, 35.85625], [72.69791666666666, 35.85875], [72.69624999999999, 35.85875], [72.69291666666666, 35.85458333333333], [72.68875, 35.85375], [72.68791666666667, 35.85124999999999], [72.68541666666667, 35.85125000000001], [72.68208333333332, 35.84791666666666], [72.68124999999999, 35.84375], [72.67958333333333, 35.842916666666675], [72.67958333333333, 35.84041666666667], [72.67791666666666, 35.83875000000001], [72.67458333333333, 35.83791666666667], [72.65875, 35.838750000000005], [72.65625, 35.83958333333333], [72.65625, 35.841249999999995], [72.64791666666666, 35.84125000000001], [72.64125, 35.84374999999999], [72.63041666666666, 35.84458333333334], [72.62875, 35.84625], [72.62958333333333, 35.84708333333334], [72.62875, 35.852916666666665], [72.62375, 35.85375], [72.62208333333332, 35.85541666666667], [72.61791666666666, 35.85458333333334], [72.61708333333333, 35.85625], [72.61541666666668, 35.85541666666666], [72.61458333333333, 35.85708333333334], [72.61041666666667, 35.857083333333335], [72.60708333333332, 35.86041666666667], [72.60208333333333, 35.86125], [72.59208333333333, 35.86041666666667], [72.58874999999999, 35.85958333333334], [72.58624999999999, 35.857083333333335], [72.58125, 35.85624999999999], [72.57875, 35.86375000000001], [72.57624999999999, 35.865416666666675], [72.57791666666667, 35.86791666666668], [72.57458333333332, 35.871249999999996], [72.57291666666666, 35.87541666666667], [72.56625, 35.874583333333334], [72.56208333333333, 35.876250000000006], [72.55958333333332, 35.874583333333334], [72.55541666666666, 35.874583333333334], [72.55125, 35.87791666666666], [72.53708333333334, 35.877916666666664], [72.53458333333333, 35.87625], [72.53291666666667, 35.87875000000001], [72.52958333333333, 35.88041666666667], [72.52541666666666, 35.88041666666667], [72.52624999999999, 35.88291666666667], [72.52458333333333, 35.884583333333325], [72.52541666666666, 35.88708333333334], [72.52458333333333, 35.89124999999999], [72.51791666666666, 35.89124999999999], [72.51291666666665, 35.89541666666668], [72.51041666666666, 35.89541666666667], [72.50958333333332, 35.89875000000001], [72.51124999999999, 35.90458333333333], [72.50958333333332, 35.90625], [72.50874999999999, 35.91625], [72.50708333333333, 35.91958333333332], [72.51541666666667, 35.923750000000005], [72.51625, 35.92541666666666], [72.51958333333333, 35.926249999999996], [72.51875, 35.93291666666667], [72.52041666666666, 35.936249999999994], [72.52374999999999, 35.93875], [72.52374999999999, 35.94041666666667], [72.52624999999999, 35.94291666666667], [72.52875, 35.943749999999994], [72.52958333333333, 35.946250000000006], [72.53125, 35.94541666666669], [72.53625, 35.946250000000006], [72.53708333333334, 35.95708333333334], [72.53958333333333, 35.95791666666666], [72.54124999999999, 35.96125000000001], [72.54875, 35.96208333333334], [72.55208333333333, 35.96541666666667], [72.55208333333333, 35.96708333333333], [72.54875, 35.97041666666666], [72.54374999999999, 35.971250000000005], [72.54291666666666, 35.97541666666667], [72.54791666666667, 35.97708333333333], [72.55041666666666, 35.98125000000001], [72.55958333333332, 35.981249999999996], [72.56541666666668, 35.984583333333326], [72.56708333333333, 35.98958333333334], [72.56541666666668, 35.98958333333333], [72.56291666666667, 35.99291666666667], [72.56708333333333, 35.99625000000001], [72.56791666666666, 35.998749999999994], [72.57208333333332, 36.00041666666666], [72.57124999999999, 36.00958333333334], [72.57374999999999, 36.00958333333333], [72.58041666666666, 36.012916666666655], [72.58375, 36.01625000000001], [72.58458333333333, 36.02041666666668], [72.58375, 36.02291666666667], [72.58624999999999, 36.02375], [72.58375, 36.02625000000001], [72.58291666666666, 36.03041666666667], [72.58041666666666, 36.03208333333333], [72.58041666666666, 36.03541666666667], [72.57875, 36.03541666666666], [72.57624999999999, 36.03958333333334], [72.57124999999999, 36.040416666666665], [72.56375, 36.047083333333326], [72.55875, 36.047083333333326], [72.55541666666666, 36.045416666666675], [72.54541666666667, 36.04624999999999], [72.54291666666666, 36.047916666666666], [72.53708333333334, 36.04708333333333], [72.53208333333333, 36.05291666666666], [72.52875, 36.05375], [72.51875, 36.064583333333346], [72.51791666666666, 36.066250000000004], [72.51875, 36.07541666666666], [72.51708333333333, 36.076249999999995], [72.51708333333333, 36.08041666666667], [72.51041666666666, 36.08625000000001], [72.51041666666666, 36.09375], [72.51374999999999, 36.097083333333345], [72.51875, 36.097916666666656], [72.52125, 36.10208333333335], [72.52374999999999, 36.102916666666665], [72.52541666666666, 36.109583333333326], [72.53041666666667, 36.11291666666667], [72.53125, 36.118750000000006], [72.53291666666667, 36.11958333333334], [72.53375, 36.12291666666667], [72.54291666666666, 36.124583333333334], [72.54291666666666, 36.127083333333346], [72.54541666666667, 36.12958333333333], [72.54875, 36.129583333333336], [72.55208333333333, 36.13125], [72.55208333333333, 36.13291666666666], [72.55375, 36.13291666666666], [72.55458333333333, 36.134583333333346], [72.55708333333332, 36.13458333333334], [72.55541666666666, 36.14541666666667], [72.54875, 36.14875000000001], [72.54875, 36.150416666666665], [72.55041666666666, 36.15125], [72.55041666666666, 36.15541666666667], [72.54875, 36.158750000000005], [72.54958333333333, 36.16291666666667], [72.54791666666667, 36.16625], [72.54625, 36.166250000000005], [72.54291666666666, 36.169583333333335], [72.53875, 36.17041666666667], [72.53625, 36.17375], [72.54124999999999, 36.177916666666654], [72.54208333333332, 36.18208333333334], [72.54374999999999, 36.18291666666667], [72.54541666666667, 36.192083333333336], [72.54958333333333, 36.192083333333336], [72.55041666666666, 36.19875000000001], [72.54625, 36.200416666666655], [72.54541666666667, 36.20458333333334], [72.54875, 36.20791666666668], [72.55291666666666, 36.20875], [72.55958333333332, 36.212916666666665], [72.56541666666668, 36.212916666666665], [72.56541666666668, 36.21791666666667], [72.56708333333333, 36.217916666666675], [72.57041666666666, 36.22125], [72.57124999999999, 36.22541666666666], [72.56958333333333, 36.22875000000001], [72.57374999999999, 36.234583333333326], [72.57208333333332, 36.23875], [72.57541666666665, 36.24125], [72.57624999999999, 36.24375000000001], [72.57541666666665, 36.24624999999999], [72.57791666666667, 36.24875], [72.57875, 36.25291666666667], [72.58208333333333, 36.25458333333333], [72.58208333333333, 36.25625], [72.58375, 36.257083333333334], [72.59291666666667, 36.25875000000001], [72.59708333333333, 36.261250000000004], [72.60208333333333, 36.26041666666667], [72.60708333333332, 36.264583333333334], [72.60708333333332, 36.26625000000001], [72.60958333333333, 36.268750000000004], [72.61375, 36.26958333333334], [72.62375, 36.26875], [72.62958333333333, 36.26458333333333], [72.63708333333332, 36.26541666666667], [72.64291666666666, 36.26041666666666], [72.64791666666666, 36.260416666666664], [72.65208333333332, 36.25875000000001], [72.65458333333333, 36.25541666666667], [72.65791666666667, 36.25458333333333], [72.66208333333333, 36.25541666666667], [72.66291666666666, 36.25375], [72.66624999999999, 36.254583333333336], [72.66874999999999, 36.25208333333333], [72.67375, 36.25125000000001], [72.67875, 36.25625], [72.67541666666666, 36.262083333333344], [72.67958333333333, 36.26541666666667], [72.68124999999999, 36.26875], [72.68875, 36.26958333333334], [72.69125, 36.27125000000001], [72.69125, 36.27375000000001], [72.69291666666666, 36.27458333333334], [72.70875, 36.27375], [72.71374999999999, 36.28041666666667], [72.71374999999999, 36.283750000000005], [72.71875, 36.28458333333333], [72.72041666666667, 36.28958333333334], [72.72708333333333, 36.29125000000001], [72.72708333333333, 36.29291666666666], [72.72874999999999, 36.29375], [72.72874999999999, 36.29541666666666], [72.73124999999999, 36.29624999999999], [72.73208333333332, 36.29875], [72.75125, 36.299583333333324], [72.75291666666666, 36.297083333333326], [72.75625, 36.29708333333333], [72.76124999999999, 36.30541666666667], [72.76708333333333, 36.30708333333334], [72.77208333333333, 36.311249999999994], [72.77374999999999, 36.316250000000004], [72.77791666666666, 36.317083333333336], [72.77875, 36.31958333333334], [72.78208333333333, 36.32125], [72.78458333333333, 36.32125], [72.78958333333333, 36.327083333333334], [72.79625, 36.32625], [72.80125, 36.32874999999999], [72.80208333333333, 36.33375], [72.80375, 36.33458333333334], [72.80458333333333, 36.34374999999999], [72.80874999999999, 36.34708333333333], [72.80708333333334, 36.34875000000001], [72.80708333333334, 36.35125], [72.81125, 36.35041666666667], [72.81375000000001, 36.35208333333333], [72.81458333333333, 36.35458333333334], [72.81875, 36.35541666666668], [72.82124999999999, 36.35958333333333], [72.83125, 36.36041666666667], [72.83458333333333, 36.364583333333336], [72.83958333333332, 36.365416666666675], [72.85208333333333, 36.363749999999996], [72.85458333333332, 36.36458333333333], [72.85374999999999, 36.367083333333326], [72.85541666666666, 36.367916666666666], [72.85541666666666, 36.37374999999999], [72.86125, 36.37708333333333], [72.86041666666667, 36.379583333333336], [72.86458333333333, 36.38375], [72.87041666666666, 36.384583333333346], [72.87541666666667, 36.388749999999995], [72.87541666666667, 36.39125], [72.87124999999999, 36.39458333333334], [72.86874999999999, 36.399583333333325], [72.86791666666666, 36.40541666666665], [72.86874999999999, 36.40791666666667], [72.86708333333333, 36.41041666666668], [72.87291666666667, 36.41541666666667], [72.87375, 36.418749999999996], [72.86541666666666, 36.42625], [72.86375000000001, 36.42625], [72.86125, 36.43041666666668], [72.85958333333333, 36.43041666666667], [72.85875, 36.437083333333334], [72.86041666666667, 36.43875], [72.87791666666666, 36.43791666666667], [72.88374999999999, 36.44291666666666], [72.88624999999999, 36.44291666666666], [72.89541666666666, 36.45375], [72.89708333333333, 36.45375], [72.90291666666666, 36.45875], [72.90958333333334, 36.45541666666667], [72.91708333333332, 36.45375], [72.92958333333333, 36.45374999999999], [72.93791666666668, 36.45708333333332], [72.93958333333333, 36.458749999999995], [72.93958333333333, 36.462083333333325], [72.94291666666666, 36.465416666666655], [72.94958333333332, 36.459583333333335], [72.96124999999999, 36.45708333333334], [72.96791666666667, 36.45708333333334], [72.97041666666667, 36.45458333333333], [72.97791666666666, 36.456250000000004], [72.98208333333332, 36.46041666666667], [72.98125, 36.46541666666666], [72.98541666666667, 36.46874999999999], [72.98541666666667, 36.47125], [72.98291666666665, 36.47291666666666], [72.98458333333333, 36.48041666666668], [72.97958333333332, 36.48291666666667], [72.97375, 36.49041666666667], [72.97375, 36.49625000000001], [72.97874999999999, 36.49791666666666], [72.98291666666665, 36.50208333333333], [72.98041666666666, 36.51208333333332], [72.98541666666667, 36.51208333333333], [72.98708333333333, 36.514583333333334], [72.99624999999999, 36.514583333333334], [73.00291666666666, 36.518750000000004], [73.01458333333332, 36.52041666666667], [73.01791666666666, 36.52458333333335], [73.02958333333333, 36.52791666666667], [73.03375000000001, 36.53125], [73.03791666666666, 36.53208333333333], [73.05041666666666, 36.53125], [73.05208333333333, 36.54125], [73.05125, 36.54208333333333], [73.05208333333333, 36.54625], [73.05041666666666, 36.54958333333334], [73.05375, 36.55791666666667], [73.05791666666666, 36.56291666666667], [73.05958333333332, 36.562083333333334], [73.06375, 36.56541666666667], [73.07041666666666, 36.566250000000004], [73.07458333333332, 36.57041666666666], [73.07624999999999, 36.577916666666674], [73.07541666666665, 36.580416666666665], [73.07291666666666, 36.58124999999999], [73.07541666666665, 36.582916666666655], [73.07708333333333, 36.591249999999995], [73.08041666666666, 36.59291666666666], [73.08125, 36.595416666666665], [73.08541666666666, 36.599583333333335], [73.08874999999999, 36.59875], [73.08958333333332, 36.60125], [73.09541666666667, 36.606249999999996], [73.09375, 36.611250000000005], [73.09208333333333, 36.61124999999999], [73.09208333333333, 36.61291666666668], [73.08874999999999, 36.61625], [73.07041666666666, 36.625416666666666], [73.06958333333333, 36.635416666666664], [73.07291666666666, 36.63875], [73.07291666666666, 36.641249999999985], [73.07458333333332, 36.64208333333334], [73.07374999999999, 36.643750000000004], [73.06958333333333, 36.64458333333333], [73.07041666666666, 36.65208333333333], [73.07291666666666, 36.65291666666667], [73.07374999999999, 36.658750000000005], [73.07208333333332, 36.66458333333333], [73.07291666666666, 36.67041666666668], [73.06958333333333, 36.67791666666667], [73.07041666666666, 36.68375], [73.07708333333333, 36.683749999999996], [73.07875, 36.68208333333334], [73.08208333333333, 36.68291666666667], [73.08458333333333, 36.681250000000006], [73.09125, 36.682083333333345], [73.09291666666667, 36.680416666666666], [73.09708333333333, 36.68125000000001], [73.09958333333333, 36.68374999999999], [73.10791666666665, 36.68708333333333], [73.11125, 36.68625], [73.11458333333333, 36.69041666666667], [73.12458333333333, 36.69541666666667], [73.12625, 36.69791666666668], [73.12875, 36.697916666666664], [73.13458333333332, 36.70125000000001], [73.13791666666665, 36.70125], [73.15208333333332, 36.708749999999995], [73.16791666666666, 36.71375000000001], [73.16874999999999, 36.71541666666666], [73.17041666666665, 36.71541666666667], [73.17291666666667, 36.72208333333334], [73.17875, 36.72041666666667], [73.18124999999999, 36.71791666666666], [73.18208333333332, 36.71458333333333], [73.18374999999999, 36.713750000000005], [73.18374999999999, 36.71208333333333], [73.18625000000002, 36.710416666666674], [73.18458333333332, 36.70791666666666], [73.18291666666666, 36.70791666666667], [73.18374999999999, 36.70374999999999], [73.18124999999999, 36.70041666666666], [73.18124999999999, 36.69291666666667], [73.18541666666667, 36.69041666666667], [73.18875, 36.691250000000004], [73.19208333333333, 36.690416666666664], [73.19708333333332, 36.69291666666667], [73.19791666666666, 36.694583333333334], [73.20291666666667, 36.69541666666667], [73.20541666666666, 36.698750000000004], [73.20875, 36.69958333333334], [73.20958333333333, 36.70124999999999], [73.21708333333333, 36.70041666666666], [73.22041666666667, 36.70374999999999], [73.22625, 36.704583333333346], [73.22958333333334, 36.70791666666666], [73.23291666666665, 36.70874999999999], [73.23291666666665, 36.71291666666667], [73.23625000000001, 36.714583333333344], [73.24208333333333, 36.71458333333334], [73.24125, 36.71041666666667], [73.24291666666666, 36.70875], [73.24875, 36.70791666666666], [73.25041666666667, 36.706250000000004], [73.26458333333332, 36.70541666666667], [73.26541666666667, 36.70708333333333], [73.26625, 36.70625], [73.26875, 36.70708333333332], [73.27125, 36.70541666666667], [73.28041666666667, 36.70541666666667], [73.28125, 36.70375], [73.28625, 36.70374999999999], [73.28791666666666, 36.701249999999995], [73.29124999999999, 36.69958333333334], [73.29458333333332, 36.69958333333333], [73.29541666666665, 36.70208333333333], [73.30958333333332, 36.70291666666667], [73.30958333333332, 36.704583333333346], [73.31125, 36.70541666666667], [73.31125, 36.709583333333335], [73.31375, 36.71124999999999], [73.32458333333332, 36.71041666666667], [73.32875, 36.71541666666667], [73.33125, 36.71541666666667], [73.33375, 36.71791666666667], [73.34625, 36.71791666666667], [73.34791666666666, 36.71958333333333], [73.34791666666666, 36.724583333333335], [73.34958333333333, 36.72541666666667], [73.35041666666666, 36.73208333333332], [73.34958333333333, 36.737083333333345], [73.35708333333332, 36.73708333333334], [73.35791666666665, 36.73875], [73.35875, 36.73791666666667], [73.36125, 36.738749999999996], [73.36291666666666, 36.73708333333334], [73.36874999999999, 36.735416666666666], [73.36958333333332, 36.73374999999999], [73.38291666666666, 36.73458333333333], [73.38624999999999, 36.73374999999999], [73.38708333333332, 36.73208333333333], [73.39041666666667, 36.732083333333335], [73.39125, 36.73374999999999], [73.39458333333333, 36.73375], [73.39625, 36.735416666666666], [73.39958333333333, 36.73541666666665], [73.40208333333332, 36.73708333333334], [73.40375, 36.73458333333333], [73.40958333333333, 36.73375], [73.41375, 36.73791666666668], [73.41375, 36.739583333333336], [73.42291666666667, 36.74791666666667], [73.42375, 36.743750000000006], [73.43041666666666, 36.74541666666667], [73.43041666666666, 36.74208333333333], [73.43374999999999, 36.74125000000001], [73.43625, 36.73791666666667], [73.43958333333333, 36.73791666666667], [73.44125, 36.73541666666666], [73.44458333333333, 36.73458333333334], [73.44708333333332, 36.731249999999996], [73.44958333333334, 36.73041666666667], [73.45541666666666, 36.73125], [73.45875, 36.73625], [73.46208333333333, 36.73958333333334], [73.46374999999999, 36.739583333333336], [73.46458333333332, 36.737083333333345], [73.47125, 36.73458333333333], [73.47125, 36.72958333333334], [73.47458333333333, 36.72958333333334], [73.47874999999999, 36.72541666666667], [73.48208333333332, 36.72541666666666], [73.48291666666665, 36.721250000000005], [73.48458333333335, 36.71958333333332], [73.48791666666666, 36.719583333333325], [73.48958333333333, 36.71708333333334], [73.49541666666666, 36.71625], [73.49624999999999, 36.71458333333333], [73.50125, 36.71458333333334], [73.50291666666666, 36.71791666666666], [73.50791666666666, 36.72041666666667], [73.51124999999999, 36.720416666666665], [73.51291666666665, 36.722916666666656], [73.51541666666667, 36.722916666666656], [73.51708333333333, 36.71875], [73.51875, 36.71874999999999], [73.52041666666666, 36.714583333333344], [73.52291666666666, 36.71291666666667], [73.53708333333333, 36.71458333333334], [73.54291666666666, 36.71791666666666], [73.54541666666667, 36.717083333333335], [73.54958333333333, 36.72041666666667], [73.55458333333333, 36.71541666666668], [73.55708333333332, 36.71541666666666], [73.56541666666666, 36.71791666666667], [73.57208333333332, 36.72124999999999], [73.57375, 36.72375], [73.58041666666668, 36.72458333333333], [73.58291666666666, 36.720416666666665], [73.58458333333333, 36.71041666666666], [73.58624999999999, 36.71041666666667], [73.58624999999999, 36.70874999999999], [73.58874999999999, 36.70708333333333], [73.58958333333332, 36.70291666666667], [73.59458333333333, 36.693749999999994], [73.60291666666666, 36.694583333333334], [73.61041666666667, 36.69791666666667], [73.61375, 36.69791666666668], [73.61625, 36.69374999999999], [73.62124999999999, 36.69374999999999], [73.63624999999999, 36.698750000000004], [73.63791666666665, 36.697083333333325], [73.64375, 36.696250000000006], [73.64458333333333, 36.69458333333333], [73.65041666666666, 36.69125], [73.66208333333333, 36.692916666666655], [73.66458333333333, 36.691250000000004], [73.67124999999999, 36.69041666666666], [73.68208333333332, 36.68958333333334], [73.69125, 36.690416666666664], [73.69375, 36.694583333333334], [73.69375, 36.69708333333334], [73.70791666666666, 36.710416666666674], [73.70791666666666, 36.712916666666665], [73.71208333333333, 36.71291666666667], [73.71291666666666, 36.71458333333332], [73.72375, 36.71541666666667], [73.73291666666665, 36.71041666666667], [73.73875, 36.71041666666667], [73.74458333333332, 36.70791666666666], [73.75041666666667, 36.70874999999999], [73.76541666666667, 36.70458333333334], [73.76875, 36.70541666666668], [73.77291666666666, 36.704583333333346], [73.77458333333333, 36.706250000000004], [73.77958333333333, 36.70708333333334], [73.78291666666667, 36.71041666666666], [73.78875, 36.70374999999999], [73.79124999999999, 36.70374999999999], [73.79208333333332, 36.70125], [73.79624999999999, 36.70125], [73.80125, 36.698750000000004], [73.80375, 36.70041666666666], [73.80375, 36.70374999999999], [73.80541666666666, 36.70458333333334], [73.80458333333333, 36.70625], [73.80791666666666, 36.709583333333335], [73.81208333333333, 36.70875], [73.81375, 36.70708333333334], [73.81541666666666, 36.70875], [73.82041666666666, 36.70875], [73.82291666666666, 36.71041666666665], [73.84458333333333, 36.70708333333333], [73.84625, 36.70541666666667], [73.85041666666667, 36.70458333333334], [73.85374999999999, 36.69958333333333], [73.85708333333332, 36.70041666666666], [73.87208333333334, 36.69958333333334], [73.88208333333333, 36.70208333333334], [73.88208333333333, 36.709583333333335], [73.88291666666666, 36.712083333333325], [73.88708333333332, 36.71625], [73.88791666666665, 36.72458333333333], [73.88958333333332, 36.72541666666667], [73.89041666666667, 36.728750000000005], [73.87875, 36.732083333333335], [73.87791666666666, 36.73375000000001], [73.87375, 36.73458333333333], [73.87291666666667, 36.736250000000005], [73.87625, 36.73708333333334], [73.87791666666666, 36.74125000000001], [73.88041666666666, 36.74125000000001], [73.88125, 36.743750000000006], [73.88374999999999, 36.745416666666664], [73.88291666666666, 36.75041666666667], [73.88458333333332, 36.75375], [73.88291666666666, 36.754583333333336], [73.87958333333333, 36.75375], [73.87708333333333, 36.75875000000001], [73.87375, 36.75958333333334], [73.87291666666667, 36.76458333333332], [73.87124999999999, 36.76541666666668], [73.86874999999999, 36.764583333333334], [73.86291666666666, 36.77041666666668], [73.86208333333333, 36.77458333333334], [73.86375, 36.776250000000005], [73.85125, 36.782083333333325], [73.84541666666667, 36.78291666666667], [73.84041666666666, 36.79125], [73.83624999999999, 36.79041666666666], [73.83375, 36.79208333333334], [73.83041666666666, 36.79208333333333], [73.82624999999999, 36.79041666666667], [73.82208333333334, 36.78625], [73.82041666666666, 36.78625], [73.81625, 36.78958333333333], [73.80791666666666, 36.79041666666667], [73.80541666666666, 36.795416666666654], [73.79875, 36.79625], [73.79791666666667, 36.80125], [73.79541666666665, 36.80291666666667], [73.79624999999999, 36.80708333333334], [73.79791666666667, 36.80791666666668], [73.79708333333333, 36.81791666666666], [73.79624999999999, 36.82041666666667], [73.79375, 36.820416666666674], [73.79291666666666, 36.82208333333334], [73.78875, 36.818749999999994], [73.78291666666667, 36.818749999999994], [73.78208333333333, 36.817083333333336], [73.77624999999999, 36.81791666666667], [73.77374999999999, 36.81375000000001], [73.77125, 36.81375], [73.75958333333332, 36.81708333333333], [73.75791666666666, 36.819583333333334], [73.75125, 36.819583333333334], [73.74791666666667, 36.82375], [73.74875, 36.827083333333334], [73.73791666666666, 36.82624999999999], [73.73458333333333, 36.82958333333334], [73.72708333333333, 36.830416666666665], [73.72375, 36.83541666666667], [73.71208333333333, 36.83458333333333], [73.70375, 36.83625000000001], [73.70291666666667, 36.83958333333333], [73.70458333333335, 36.84041666666667], [73.70458333333335, 36.84375], [73.70625, 36.844583333333325], [73.70791666666666, 36.84875], [73.70791666666666, 36.85041666666667], [73.70541666666666, 36.85041666666666], [73.70375, 36.85208333333333], [73.70458333333335, 36.857916666666675], [73.69874999999999, 36.85875], [73.69291666666666, 36.86208333333334], [73.69208333333333, 36.863749999999996], [73.69041666666666, 36.86375], [73.68958333333333, 36.865416666666675], [73.68708333333333, 36.86458333333333], [73.68374999999999, 36.868750000000006], [73.68208333333332, 36.867916666666666], [73.68124999999999, 36.87124999999999], [73.67791666666666, 36.874583333333334], [73.67791666666666, 36.877083333333346], [73.67375, 36.87791666666667], [73.66958333333334, 36.882083333333334], [73.66958333333334, 36.88458333333333], [73.67291666666667, 36.88791666666667], [73.67291666666667, 36.889583333333334], [73.66624999999999, 36.89625], [73.67208333333333, 36.90291666666668], [73.67124999999999, 36.904583333333335], [73.67291666666667, 36.90958333333333], [73.67208333333333, 36.91125], [73.67458333333333, 36.91291666666666], [73.67708333333333, 36.912083333333335], [73.67958333333333, 36.91208333333333], [73.67958333333333, 36.91374999999999], [73.68625, 36.91291666666665], [73.68708333333333, 36.91458333333333], [73.69375, 36.91541666666668], [73.69541666666666, 36.91375000000001], [73.70041666666665, 36.91375], [73.70291666666667, 36.91041666666667], [73.70541666666666, 36.91041666666667], [73.70625, 36.908750000000005], [73.71541666666666, 36.90458333333333], [73.72291666666666, 36.90458333333334], [73.72958333333332, 36.90291666666667], [73.73625, 36.90291666666667], [73.74374999999999, 36.907916666666665], [73.75291666666666, 36.911249999999995], [73.75708333333333, 36.907083333333325], [73.75708333333333, 36.90541666666667], [73.76374999999999, 36.904583333333335], [73.77041666666666, 36.905416666666675], [73.77208333333333, 36.903749999999995], [73.77374999999999, 36.89791666666667], [73.78041666666667, 36.897083333333335], [73.78541666666666, 36.89791666666667], [73.78875, 36.900416666666665], [73.79458333333332, 36.89958333333334], [73.79958333333333, 36.89458333333334], [73.79875, 36.892916666666665], [73.79958333333333, 36.89041666666667], [73.81625, 36.89125], [73.82124999999999, 36.897083333333335], [73.82624999999999, 36.89791666666666], [73.82791666666667, 36.89958333333334], [73.82791666666667, 36.90208333333334], [73.82541666666665, 36.90291666666667], [73.82541666666665, 36.908750000000005], [73.82708333333332, 36.909583333333345], [73.82624999999999, 36.91374999999999], [73.83208333333333, 36.91958333333332], [73.83208333333333, 36.922916666666666], [73.83541666666666, 36.92458333333333], [73.84291666666667, 36.923750000000005], [73.84458333333333, 36.92124999999999], [73.84708333333333, 36.92125], [73.85125, 36.91791666666666], [73.85874999999999, 36.91791666666667], [73.86541666666666, 36.91458333333333], [73.89125, 36.91291666666666], [73.89125, 36.91041666666666], [73.89375, 36.90791666666668], [73.89625, 36.90791666666668], [73.89708333333333, 36.90541666666667], [73.90708333333333, 36.90041666666667], [73.90541666666667, 36.89625], [73.90374999999999, 36.89541666666667], [73.90458333333333, 36.886250000000004], [73.89708333333333, 36.886250000000004], [73.89125, 36.88041666666667], [73.89458333333333, 36.87708333333333], [73.90791666666667, 36.874583333333334], [73.90875, 36.872916666666676], [73.91125, 36.872916666666676], [73.91208333333333, 36.869583333333345], [73.91708333333332, 36.86958333333334], [73.92291666666667, 36.875416666666666], [73.92791666666666, 36.87374999999999], [73.93208333333332, 36.87458333333333], [73.93875, 36.86958333333333], [73.94208333333333, 36.87041666666668], [73.94458333333333, 36.86708333333333], [73.94625, 36.86708333333334], [73.94874999999999, 36.864583333333336], [73.94874999999999, 36.86125000000001], [73.95458333333333, 36.86041666666666], [73.95708333333333, 36.85875], [73.95791666666666, 36.85458333333334], [73.95458333333333, 36.852083333333326], [73.95458333333333, 36.850416666666675], [73.95791666666666, 36.84625], [73.95791666666666, 36.843749999999986], [73.95958333333333, 36.84208333333333], [73.96708333333333, 36.84291666666667], [73.96708333333333, 36.83958333333333], [73.97125, 36.83708333333334], [73.97708333333333, 36.83791666666668], [73.97791666666666, 36.83625000000001], [73.98208333333332, 36.83625], [73.98625, 36.83291666666666], [73.99125, 36.83375000000001], [73.99291666666666, 36.83125000000001], [73.99541666666666, 36.83125000000001], [73.99791666666667, 36.834583333333335], [74.00541666666666, 36.83708333333334], [74.01374999999999, 36.83291666666666], [74.02291666666666, 36.83125], [74.02708333333332, 36.827083333333334], [74.02874999999999, 36.827083333333334], [74.02958333333333, 36.828749999999985], [74.03375, 36.82874999999999], [74.03708333333333, 36.82625], [74.04708333333333, 36.82541666666667], [74.05041666666666, 36.828749999999985], [74.05541666666666, 36.830416666666665], [74.06041666666665, 36.83624999999999], [74.06041666666665, 36.838750000000005], [74.06458333333333, 36.841249999999995], [74.07041666666667, 36.84041666666668], [74.07291666666666, 36.838750000000005], [74.07791666666665, 36.838750000000005], [74.07958333333333, 36.83708333333334], [74.08291666666666, 36.837916666666665], [74.08874999999999, 36.83708333333334], [74.09458333333333, 36.839583333333344], [74.09541666666667, 36.841249999999995], [74.10458333333332, 36.841249999999995], [74.10708333333332, 36.838750000000005], [74.11458333333333, 36.83875], [74.11541666666666, 36.841249999999995], [74.11708333333333, 36.84208333333333], [74.12458333333333, 36.84374999999999], [74.12625, 36.848749999999995], [74.13291666666666, 36.85041666666667], [74.13291666666666, 36.854583333333345], [74.12875, 36.85958333333333], [74.12875, 36.864583333333336], [74.13291666666666, 36.867916666666666], [74.13291666666666, 36.87041666666668], [74.13624999999999, 36.87375], [74.13874999999999, 36.873749999999994], [74.14208333333333, 36.87958333333334], [74.14708333333333, 36.88125], [74.15041666666666, 36.88458333333334], [74.15291666666666, 36.88375], [74.15958333333333, 36.88458333333333], [74.15958333333333, 36.88708333333334], [74.15625, 36.88958333333334], [74.15625, 36.89124999999999], [74.15208333333332, 36.892916666666665], [74.15291666666666, 36.89791666666667], [74.16125, 36.89874999999999], [74.16708333333332, 36.90208333333332], [74.17208333333333, 36.90291666666667], [74.17375, 36.90541666666667], [74.17208333333333, 36.91208333333333], [74.17541666666666, 36.916250000000005], [74.18124999999999, 36.916250000000005], [74.18541666666665, 36.91208333333333], [74.18958333333333, 36.91125], [74.19041666666666, 36.90958333333334], [74.20041666666665, 36.91125], [74.20291666666665, 36.90958333333334], [74.20291666666665, 36.90541666666667], [74.20458333333333, 36.903749999999995], [74.21541666666666, 36.907083333333325], [74.21875, 36.90541666666667], [74.22291666666668, 36.89708333333333], [74.24125, 36.89458333333333], [74.24541666666666, 36.89875], [74.25458333333333, 36.89875], [74.25874999999999, 36.90041666666667], [74.25958333333332, 36.90208333333334], [74.26458333333332, 36.90291666666668], [74.26875, 36.90708333333333], [74.27041666666666, 36.91208333333334], [74.27958333333333, 36.91041666666667], [74.28625, 36.91375], [74.29541666666665, 36.91208333333335], [74.30041666666666, 36.91708333333334], [74.30791666666666, 36.91791666666666], [74.31041666666665, 36.91958333333333], [74.31208333333333, 36.92541666666668], [74.31458333333333, 36.927083333333336], [74.31375, 36.927916666666675], [74.31458333333333, 36.93208333333334], [74.31708333333333, 36.933749999999996], [74.31791666666666, 36.93625000000001], [74.31708333333333, 36.93874999999999], [74.32041666666666, 36.94041666666667], [74.32624999999999, 36.94041666666667], [74.32958333333333, 36.94375], [74.33291666666666, 36.94458333333333], [74.33375, 36.95125], [74.33624999999999, 36.95125], [74.33958333333332, 36.955416666666665], [74.34458333333333, 36.95708333333334], [74.34541666666667, 36.96041666666666], [74.34958333333333, 36.962083333333325], [74.35624999999999, 36.96208333333334], [74.35708333333332, 36.963750000000005], [74.35791666666665, 36.96291666666668], [74.36791666666666, 36.96291666666668], [74.36791666666666, 36.96458333333333], [74.37458333333333, 36.96458333333332], [74.37708333333333, 36.96291666666666], [74.38791666666665, 36.96375], [74.39458333333333, 36.96958333333333], [74.39458333333333, 36.97291666666667], [74.41541666666666, 36.97541666666666], [74.41541666666666, 36.97708333333333], [74.41791666666666, 36.978750000000005], [74.41791666666666, 36.98375], [74.42041666666665, 36.98875], [74.41791666666666, 36.99125], [74.41458333333334, 36.992083333333326], [74.41375, 36.99375], [74.41624999999999, 36.99541666666667], [74.41791666666666, 36.99875], [74.41708333333332, 37.00458333333333], [74.42458333333333, 37.011250000000004], [74.42708333333333, 37.011250000000004], [74.42791666666666, 37.00875], [74.43124999999999, 37.00625], [74.43958333333333, 37.006249999999994], [74.44125, 37.00375000000001], [74.44458333333333, 37.00208333333334], [74.45208333333332, 37.002083333333324], [74.45375, 37.00375000000001], [74.45625, 37.00375000000001], [74.45625, 37.00208333333333], [74.46041666666666, 36.99875], [74.46541666666666, 36.998749999999994], [74.46708333333333, 36.99375], [74.46875, 36.99375], [74.47125000000001, 36.990416666666675], [74.47375, 36.99041666666666], [74.47541666666666, 36.988749999999996], [74.47874999999999, 36.98875], [74.48124999999999, 36.98708333333334], [74.49125, 36.98791666666666], [74.49458333333332, 36.985416666666666], [74.49541666666666, 36.98291666666667], [74.49958333333333, 36.98125], [74.49875, 36.97791666666667], [74.49958333333333, 36.97458333333334], [74.50541666666666, 36.97041666666668], [74.50541666666666, 36.96708333333333], [74.50791666666666, 36.96458333333333], [74.51708333333333, 36.96291666666667], [74.52041666666666, 36.959583333333335], [74.52874999999999, 36.95958333333334], [74.53458333333333, 36.95708333333334], [74.53958333333333, 36.96125], [74.53958333333333, 36.96291666666668], [74.54208333333332, 36.96541666666666], [74.54374999999999, 36.96541666666667], [74.54458333333332, 36.969583333333325], [74.54374999999999, 36.97208333333333], [74.53625, 36.97875000000001], [74.53625, 36.982083333333335], [74.53875000000001, 36.985416666666666], [74.53708333333333, 36.99124999999999], [74.53541666666666, 36.992916666666666], [74.52958333333333, 36.99458333333334], [74.52624999999999, 36.99791666666666], [74.52541666666666, 37.00458333333333], [74.52125, 37.00625000000001], [74.51791666666666, 37.00958333333333], [74.51875, 37.017083333333346], [74.53125, 37.02041666666666], [74.53208333333333, 37.022083333333335], [74.53375, 37.022083333333335], [74.53458333333333, 37.02541666666667], [74.54124999999999, 37.02458333333333], [74.54958333333333, 37.02541666666667], [74.55208333333333, 37.02708333333334], [74.55375, 37.03041666666667], [74.56041666666667, 37.029583333333335], [74.56541666666666, 37.03125], [74.56875, 37.029583333333335], [74.57291666666666, 37.03124999999999], [74.58291666666666, 37.03125], [74.58541666666666, 37.033750000000005], [74.59208333333332, 37.034583333333345], [74.59458333333333, 37.03708333333333], [74.59791666666666, 37.03791666666666], [74.60208333333333, 37.037083333333335], [74.60541666666666, 37.03791666666666], [74.61041666666667, 37.04208333333334], [74.61625, 37.04208333333333], [74.61874999999999, 37.04541666666666], [74.62124999999999, 37.04541666666667], [74.62458333333333, 37.047916666666666], [74.62291666666665, 37.059583333333336], [74.62875, 37.060416666666654], [74.63374999999999, 37.06375], [74.63374999999999, 37.06541666666667], [74.64291666666666, 37.067916666666676], [74.64458333333333, 37.06958333333334], [74.64541666666666, 37.068749999999994], [74.65124999999999, 37.069583333333334], [74.65958333333333, 37.06291666666666], [74.66125, 37.06291666666667], [74.66874999999999, 37.069583333333334], [74.67291666666667, 37.07041666666665], [74.67291666666667, 37.07291666666667], [74.66958333333332, 37.073750000000004], [74.66958333333332, 37.07541666666666], [74.67625, 37.082083333333344], [74.67958333333333, 37.08208333333334], [74.67958333333333, 37.08625], [74.68625, 37.08958333333334], [74.69291666666666, 37.08875], [74.69458333333333, 37.09125], [74.70041666666665, 37.08541666666666], [74.70124999999999, 37.08625], [74.70375, 37.08541666666667], [74.70458333333333, 37.07875], [74.70708333333333, 37.077083333333334], [74.70791666666666, 37.074583333333344], [74.70791666666666, 37.06958333333333], [74.70625, 37.067916666666676], [74.70625, 37.065416666666664], [74.70791666666666, 37.06541666666667], [74.71124999999999, 37.06125], [74.71458333333332, 37.05958333333333], [74.72291666666666, 37.057916666666664], [74.72291666666666, 37.05541666666666], [74.71791666666667, 37.05041666666666], [74.71708333333332, 37.03875], [74.71958333333335, 37.03625], [74.72458333333333, 37.03625], [74.72458333333333, 37.03041666666666], [74.72625, 37.029583333333335], [74.72625, 37.02791666666668], [74.72958333333332, 37.02458333333334], [74.73374999999999, 37.02375], [74.73625, 37.02041666666667], [74.73875, 37.02041666666666], [74.73958333333333, 37.018750000000004], [74.74125000000001, 37.018750000000004], [74.74374999999999, 37.02208333333333], [74.74708333333332, 37.02375], [74.75541666666666, 37.02291666666667], [74.75791666666666, 37.02375], [74.75874999999999, 37.02541666666667], [74.76458333333332, 37.02708333333334], [74.76875, 37.022916666666674], [74.77458333333333, 37.022083333333335], [74.77624999999999, 37.02541666666667], [74.78125, 37.02791666666666], [74.79041666666666, 37.02791666666667], [74.79124999999999, 37.029583333333335], [74.79541666666665, 37.03124999999999], [74.79458333333332, 37.03208333333334], [74.79541666666665, 37.03375], [74.79124999999999, 37.03791666666667], [74.79041666666666, 37.043749999999996], [74.79374999999999, 37.04541666666666], [74.79374999999999, 37.04708333333333], [74.79791666666667, 37.04791666666666], [74.79958333333333, 37.05125], [74.80208333333333, 37.05125000000001], [74.80375, 37.05291666666667], [74.81541666666668, 37.05375], [74.81708333333333, 37.05208333333333], [74.82791666666665, 37.04958333333334], [74.83041666666666, 37.05291666666667], [74.83291666666666, 37.05291666666667], [74.83791666666666, 37.058749999999996], [74.84124999999999, 37.056250000000006], [74.84375000000001, 37.05625], [74.84375000000001, 37.05458333333332], [74.84208333333332, 37.05375], [74.84208333333332, 37.05041666666666], [74.83958333333332, 37.04875], [74.83958333333332, 37.04375], [74.84375000000001, 37.03875], [74.84291666666667, 37.03791666666666], [74.84375000000001, 37.033750000000005], [74.84625, 37.03125], [74.84625, 37.02375], [74.83958333333332, 37.02041666666667], [74.83874999999999, 37.01541666666666], [74.84041666666666, 37.01541666666667], [74.84041666666666, 37.013749999999995], [74.84458333333333, 37.01208333333333], [74.84541666666667, 37.010416666666664], [74.85041666666666, 37.011250000000004], [74.85458333333332, 37.007083333333334], [74.85541666666666, 37.00208333333334], [74.85374999999999, 37.00125], [74.85374999999999, 36.998749999999994], [74.85541666666666, 36.99625], [74.85708333333332, 36.99625], [74.85791666666665, 36.99208333333332], [74.86041666666667, 36.990416666666675], [74.86041666666667, 36.98708333333334], [74.86375, 36.98374999999999], [74.86458333333333, 36.97958333333333], [74.86375, 36.97624999999999], [74.86791666666666, 36.97625], [74.87375, 36.97041666666667], [74.87541666666667, 36.963750000000005], [74.88208333333333, 36.95958333333334], [74.88041666666666, 36.95208333333332], [74.88374999999999, 36.94874999999999], [74.88541666666666, 36.94875], [74.88708333333332, 36.94375], [74.88541666666666, 36.93874999999999], [74.88374999999999, 36.93791666666667], [74.88374999999999, 36.93541666666667], [74.88791666666665, 36.93375000000001], [74.89791666666666, 36.93458333333333], [74.89958333333333, 36.932916666666664], [74.90541666666667, 36.93125], [74.90625, 36.92958333333333], [74.90958333333333, 36.92958333333333], [74.91208333333333, 36.93291666666668], [74.92041666666665, 36.93375], [74.91874999999999, 36.946250000000006], [74.92625, 36.94458333333333], [74.93208333333332, 36.94541666666666], [74.93124999999999, 36.954583333333346], [74.92375, 36.95958333333333], [74.92375, 36.96625], [74.92208333333332, 36.96791666666666], [74.92291666666667, 36.97291666666666], [74.91958333333332, 36.97875000000001], [74.92291666666667, 36.97958333333333], [74.93208333333332, 36.978750000000005], [74.93541666666665, 36.98291666666666], [74.94458333333333, 36.98791666666667], [74.95375, 36.988749999999996], [74.95625, 36.98708333333333], [74.96041666666666, 36.98875], [74.96541666666666, 36.98875], [74.96958333333333, 36.99208333333332], [74.97041666666667, 36.99541666666667], [74.97291666666666, 36.997083333333336], [74.97708333333333, 36.997083333333336], [74.97958333333332, 36.99458333333334], [74.98041666666666, 36.99041666666667], [74.98958333333334, 36.98958333333334], [74.99041666666666, 36.99125], [74.99791666666665, 36.99375], [74.99875, 36.99708333333334], [75.00208333333333, 36.998749999999994], [75.00291666666666, 37.00125], [75.01124999999999, 37.000416666666666], [75.01624999999999, 37.00208333333334], [75.01875, 37.004583333333336], [75.01875, 37.010416666666664], [75.02374999999999, 37.01208333333334], [75.02791666666666, 37.017083333333346], [75.03125, 37.015416666666674], [75.04291666666666, 37.01375], [75.04374999999999, 37.00791666666667], [75.05125, 37.00541666666666], [75.05291666666666, 37.00291666666667], [75.05791666666666, 37.00291666666667], [75.06125, 37.00124999999999], [75.06791666666666, 37.00208333333333], [75.07291666666666, 37.00124999999999], [75.07624999999999, 37.002083333333324], [75.07791666666665, 37.00375000000001], [75.07791666666665, 37.00625], [75.08125, 37.00874999999999], [75.08958333333332, 37.00791666666667], [75.09458333333333, 37.011250000000004], [75.10708333333334, 37.011250000000004], [75.11125, 37.00791666666667], [75.11458333333333, 37.00708333333333], [75.11625, 37.01125], [75.12541666666667, 37.01208333333332], [75.12875, 37.015416666666674], [75.12958333333333, 37.02041666666666], [75.13208333333333, 37.021249999999995], [75.13541666666666, 37.02541666666667], [75.14375, 37.02708333333334], [75.14958333333333, 37.02458333333334], [75.15124999999999, 37.01708333333335], [75.15291666666666, 37.01541666666666], [75.16458333333333, 37.01541666666667], [75.16874999999999, 37.011250000000004], [75.16791666666666, 37.005416666666655], [75.16541666666666, 37.00291666666668], [75.16125, 37.00291666666667], [75.15875, 37.000416666666666], [75.15958333333334, 36.98958333333334], [75.16791666666666, 36.98708333333334], [75.16958333333332, 36.985416666666666], [75.17375, 36.98625000000001], [75.17541666666666, 36.981249999999996], [75.17791666666666, 36.97875000000001], [75.18458333333332, 36.977083333333326], [75.18624999999999, 36.97541666666666], [75.18958333333333, 36.97541666666666], [75.19541666666666, 36.97291666666667], [75.19791666666666, 36.97625], [75.20124999999999, 36.97625], [75.20291666666667, 36.97458333333335], [75.21208333333333, 36.97375], [75.21374999999999, 36.97208333333334], [75.21624999999999, 36.97208333333333], [75.21541666666666, 36.97125], [75.21624999999999, 36.96541666666666], [75.22458333333333, 36.96375], [75.23374999999999, 36.95875000000001], [75.23708333333333, 36.958749999999995], [75.23958333333333, 36.96125], [75.24208333333333, 36.96041666666666], [75.24874999999999, 36.96125000000001], [75.25125, 36.96458333333334], [75.26124999999999, 36.96375], [75.26374999999999, 36.967083333333335], [75.26791666666666, 36.967083333333335], [75.26791666666666, 36.96958333333334], [75.27041666666666, 36.97291666666666], [75.27958333333332, 36.97208333333334], [75.28125, 36.97375000000001], [75.29458333333332, 36.97541666666667], [75.30208333333333, 36.969583333333325], [75.30375, 36.969583333333325], [75.30708333333332, 36.96541666666666], [75.31291666666667, 36.967083333333335], [75.31458333333333, 36.96958333333332], [75.31708333333333, 36.96875], [75.31791666666666, 36.96708333333334], [75.31958333333333, 36.96708333333332], [75.32124999999999, 36.96375000000001], [75.32124999999999, 36.96041666666665], [75.32374999999999, 36.95875], [75.32624999999999, 36.95791666666667], [75.33541666666666, 36.95875000000001], [75.33708333333333, 36.95708333333333], [75.35874999999999, 36.95791666666667], [75.36125, 36.95708333333333], [75.36125, 36.95458333333334], [75.36291666666666, 36.954583333333346], [75.36375, 36.95291666666667], [75.36625, 36.95291666666666], [75.36791666666666, 36.94958333333334], [75.37208333333332, 36.948750000000004], [75.37458333333333, 36.94625], [75.38708333333332, 36.94708333333334], [75.39375, 36.95041666666667], [75.39375, 36.954583333333346], [75.40124999999999, 36.955416666666665], [75.40374999999999, 36.94958333333333], [75.41041666666666, 36.94624999999999], [75.41041666666666, 36.94458333333334], [75.40791666666668, 36.94291666666666], [75.40625, 36.93625], [75.39375, 36.93375000000001], [75.39208333333333, 36.93125], [75.38708333333332, 36.92875], [75.38708333333332, 36.92541666666668], [75.38874999999999, 36.92541666666667], [75.39041666666665, 36.922916666666666], [75.39124999999999, 36.914583333333326], [75.38624999999999, 36.90458333333334], [75.38874999999999, 36.902916666666684], [75.39291666666666, 36.90291666666668], [75.39874999999999, 36.89875], [75.40458333333332, 36.89708333333333], [75.40541666666667, 36.89458333333333], [75.40791666666668, 36.89375000000001], [75.40958333333333, 36.89125000000001], [75.41791666666666, 36.89125], [75.42291666666667, 36.88791666666667], [75.41958333333332, 36.882083333333334], [75.41958333333332, 36.87958333333334], [75.42375, 36.874583333333334], [75.42291666666667, 36.869583333333345], [75.42375, 36.86625], [75.42791666666666, 36.86291666666666], [75.42791666666666, 36.861250000000005], [75.42541666666666, 36.85958333333333], [75.42458333333333, 36.85541666666668], [75.42875, 36.849583333333335], [75.42708333333333, 36.84458333333333], [75.42958333333334, 36.84208333333333], [75.43124999999999, 36.84208333333333], [75.43124999999999, 36.84041666666667], [75.42791666666666, 36.83791666666667], [75.42791666666666, 36.835416666666674], [75.42958333333334, 36.83541666666667], [75.43124999999999, 36.83291666666666], [75.43124999999999, 36.828749999999985], [75.42875, 36.823750000000004], [75.42458333333333, 36.82041666666667], [75.42541666666666, 36.81208333333333], [75.42208333333332, 36.79958333333334], [75.42708333333333, 36.79541666666667], [75.42791666666666, 36.79208333333333], [75.42375, 36.78291666666667], [75.42208333333332, 36.782083333333325], [75.42291666666667, 36.78125000000001], [75.42208333333332, 36.77291666666666], [75.42041666666665, 36.77125000000001], [75.42291666666667, 36.77041666666668], [75.42458333333333, 36.76791666666666], [75.42791666666666, 36.76791666666667], [75.42875, 36.762083333333344], [75.43124999999999, 36.75958333333334], [75.43541666666665, 36.75875000000001], [75.43624999999999, 36.74875], [75.43791666666667, 36.747083333333336], [75.44458333333333, 36.74625000000001], [75.44541666666666, 36.740416666666654], [75.45125, 36.73208333333333], [75.45208333333332, 36.72708333333333], [75.45125, 36.72541666666667], [75.45791666666668, 36.71958333333332], [75.46208333333333, 36.72041666666667], [75.46458333333332, 36.717083333333335], [75.47125, 36.716249999999995], [75.47375, 36.722916666666656], [75.47791666666666, 36.72375], [75.47874999999999, 36.72541666666667], [75.48124999999999, 36.72625], [75.48291666666665, 36.72625], [75.48458333333332, 36.72375], [75.49041666666666, 36.72958333333333], [75.49125, 36.73458333333333], [75.49458333333332, 36.73458333333333], [75.49874999999999, 36.73875], [75.50041666666667, 36.73875000000001], [75.50208333333333, 36.736250000000005], [75.50708333333333, 36.73375000000001], [75.50708333333333, 36.731249999999996], [75.51041666666666, 36.72625], [75.51958333333333, 36.72291666666667], [75.52374999999999, 36.72291666666666], [75.52791666666666, 36.720416666666665], [75.53458333333333, 36.72125], [75.53958333333333, 36.71874999999999], [75.54458333333332, 36.713750000000005], [75.54541666666665, 36.71124999999999], [75.54708333333333, 36.71125], [75.54291666666666, 36.70458333333334], [75.54208333333332, 36.698750000000004], [75.54791666666665, 36.696250000000006], [75.54875, 36.682916666666664], [75.55125, 36.68041666666667], [75.55208333333333, 36.67625], [75.55541666666666, 36.67625], [75.55708333333332, 36.673750000000005], [75.56041666666665, 36.67208333333332], [75.56041666666665, 36.67041666666667], [75.56375, 36.66958333333332], [75.56375, 36.66541666666666], [75.56541666666666, 36.665416666666665], [75.57041666666666, 36.65541666666666], [75.57458333333332, 36.65375], [75.57541666666667, 36.65041666666667], [75.57791666666665, 36.64791666666667], [75.57791666666665, 36.64458333333334], [75.57541666666667, 36.64208333333334], [75.57374999999999, 36.64208333333334], [75.57374999999999, 36.639583333333334], [75.57624999999999, 36.63708333333334], [75.57958333333333, 36.63708333333333], [75.58458333333333, 36.634583333333346], [75.58708333333333, 36.63125000000001], [75.59041666666666, 36.62958333333333], [75.59041666666666, 36.62708333333333], [75.59208333333332, 36.62541666666667], [75.59291666666667, 36.615416666666654], [75.59541666666667, 36.61458333333332], [75.59875, 36.610416666666666], [75.60375, 36.60958333333333], [75.60375, 36.61291666666666], [75.60791666666665, 36.61291666666666], [75.61208333333333, 36.60875], [75.61125, 36.60041666666666], [75.61291666666666, 36.59708333333334], [75.61708333333333, 36.59625], [75.62041666666666, 36.59208333333333], [75.62625, 36.592083333333335], [75.63541666666666, 36.588750000000005], [75.64208333333333, 36.59041666666666], [75.64625, 36.587916666666665], [75.65041666666666, 36.58791666666667], [75.65708333333333, 36.59208333333333], [75.66458333333333, 36.59125], [75.66541666666666, 36.59291666666666], [75.66708333333332, 36.59291666666666], [75.66958333333332, 36.59041666666668], [75.66958333333332, 36.59458333333334], [75.67125, 36.59708333333334], [75.67041666666665, 36.60041666666666], [75.68041666666666, 36.599583333333335], [75.68041666666666, 36.59791666666667], [75.68458333333332, 36.59458333333333], [75.68791666666667, 36.594583333333325], [75.69041666666666, 36.59625], [75.69375, 36.595416666666665], [75.69458333333333, 36.60125], [75.69874999999999, 36.60208333333333], [75.70291666666665, 36.60208333333333], [75.70374999999999, 36.59791666666666], [75.70625000000001, 36.59625], [75.71875, 36.59458333333334], [75.72041666666667, 36.592083333333335], [75.72708333333333, 36.592083333333335], [75.73124999999999, 36.59708333333334], [75.73625, 36.59708333333333], [75.73875, 36.594583333333325], [75.74374999999999, 36.59375], [75.74291666666666, 36.592083333333335], [75.74458333333332, 36.58958333333333], [75.74374999999999, 36.58708333333333], [75.74541666666666, 36.58624999999999], [75.74791666666665, 36.58125], [75.75041666666667, 36.580416666666665], [75.75125, 36.573750000000004], [75.75375, 36.568749999999994], [75.75625, 36.567083333333336], [75.75708333333333, 36.56291666666667], [75.75958333333332, 36.56208333333334], [75.76291666666665, 36.55791666666667], [75.75958333333332, 36.551249999999996], [75.75125, 36.551249999999996], [75.74874999999999, 36.545416666666654], [75.74458333333332, 36.54374999999999], [75.74291666666666, 36.54458333333332], [75.73458333333332, 36.54291666666666], [75.73291666666665, 36.53541666666667], [75.73458333333332, 36.533750000000005], [75.72791666666667, 36.52708333333334], [75.72874999999999, 36.52541666666667], [75.73041666666666, 36.525416666666665], [75.73124999999999, 36.522083333333335], [75.72708333333333, 36.52125000000001], [75.72541666666666, 36.51541666666667], [75.72291666666666, 36.51541666666666], [75.71624999999999, 36.51208333333333], [75.71291666666666, 36.50875000000001], [75.71124999999999, 36.504583333333336], [75.70291666666665, 36.500416666666666], [75.70291666666665, 36.49875000000001], [75.70124999999999, 36.49791666666667], [75.70041666666665, 36.48708333333334], [75.69874999999999, 36.48458333333333], [75.68875, 36.48291666666667], [75.69041666666666, 36.47958333333334], [75.68958333333333, 36.47291666666667], [75.69624999999999, 36.469583333333325], [75.69541666666666, 36.46874999999999], [75.69624999999999, 36.45958333333333], [75.69458333333333, 36.45791666666667], [75.69458333333333, 36.452083333333334], [75.69708333333332, 36.45041666666667], [75.69791666666666, 36.446250000000006], [75.69958333333334, 36.44458333333333], [75.69874999999999, 36.44041666666667], [75.69791666666666, 36.43958333333334], [75.69624999999999, 36.44041666666666], [75.69291666666666, 36.43625], [75.68791666666667, 36.434583333333336], [75.68708333333333, 36.42791666666667], [75.68541666666665, 36.42625], [75.67625, 36.42708333333333], [75.66958333333332, 36.424583333333345], [75.66541666666666, 36.42541666666667], [75.66541666666666, 36.42291666666667], [75.66291666666666, 36.42125], [75.66375, 36.41541666666669], [75.65875, 36.41374999999999], [75.65958333333333, 36.41291666666667], [75.65875, 36.40625], [75.66208333333333, 36.39708333333334], [75.65875, 36.39541666666666], [75.65791666666667, 36.39208333333333], [75.65625000000001, 36.39124999999999], [75.65625000000001, 36.38791666666667], [75.66125, 36.38625000000001], [75.66541666666666, 36.381249999999994], [75.67208333333332, 36.37791666666667], [75.67708333333333, 36.37291666666666], [75.68041666666666, 36.371249999999996], [75.68458333333332, 36.37125000000001], [75.68541666666665, 36.36708333333334], [75.68708333333333, 36.36708333333334], [75.68875, 36.36458333333333], [75.69208333333333, 36.36458333333333], [75.69458333333333, 36.36208333333334], [75.70041666666665, 36.36125000000001], [75.70208333333332, 36.35708333333333], [75.70291666666665, 36.34708333333334], [75.70625000000001, 36.34374999999999], [75.70791666666666, 36.34375000000001], [75.70875, 36.341249999999995], [75.71124999999999, 36.34041666666668], [75.71124999999999, 36.33708333333334], [75.70458333333333, 36.33291666666667], [75.70458333333333, 36.32791666666667], [75.69791666666666, 36.32625], [75.69541666666666, 36.32375000000001], [75.69708333333332, 36.32041666666667], [75.70208333333332, 36.316250000000004], [75.70208333333332, 36.31375], [75.70458333333333, 36.312083333333334], [75.70208333333332, 36.30625], [75.70541666666666, 36.30125], [75.70791666666666, 36.30041666666666], [75.70708333333333, 36.293749999999996], [75.70541666666666, 36.292916666666656], [75.70541666666666, 36.291250000000005], [75.71041666666666, 36.28541666666668], [75.70958333333333, 36.28291666666668], [75.70625000000001, 36.28041666666667], [75.70625000000001, 36.276250000000005], [75.70374999999999, 36.27541666666667], [75.69958333333334, 36.27041666666667], [75.69958333333334, 36.26875], [75.69624999999999, 36.26791666666667], [75.69375, 36.26375000000001], [75.69458333333333, 36.260416666666664], [75.69624999999999, 36.260416666666664], [75.69958333333334, 36.25625], [75.69958333333334, 36.24875], [75.70208333333332, 36.24708333333333], [75.70208333333332, 36.243750000000006], [75.70458333333333, 36.24125], [75.70291666666665, 36.23791666666667], [75.70291666666665, 36.23375000000001], [75.70374999999999, 36.231249999999996], [75.70625000000001, 36.22958333333332], [75.70458333333333, 36.22625000000001], [75.70541666666666, 36.22291666666667], [75.70875, 36.22041666666667], [75.71124999999999, 36.22041666666667], [75.71374999999999, 36.21791666666667], [75.71541666666666, 36.21124999999999], [75.71875, 36.20791666666668], [75.72291666666666, 36.20791666666668], [75.72458333333333, 36.206250000000004], [75.72541666666666, 36.20041666666667], [75.72874999999999, 36.19625], [75.73458333333332, 36.19458333333333], [75.73791666666666, 36.19208333333334], [75.73791666666666, 36.184583333333336], [75.73958333333333, 36.18375000000001], [75.74041666666666, 36.181250000000006], [75.74125, 36.17458333333334], [75.75041666666667, 36.169583333333335], [75.75208333333333, 36.16708333333332], [75.75708333333333, 36.166250000000005], [75.76041666666666, 36.16291666666667], [75.76374999999999, 36.16291666666666], [75.76541666666665, 36.15625], [75.76708333333333, 36.15458333333333], [75.77375, 36.15291666666667], [75.77708333333332, 36.15041666666667], [75.77791666666666, 36.139583333333334], [75.77958333333332, 36.137916666666676], [75.77874999999999, 36.13291666666667], [75.77708333333332, 36.13291666666667], [75.77458333333333, 36.12958333333332], [75.76958333333333, 36.128750000000004], [75.76791666666666, 36.126250000000006], [75.76458333333332, 36.12541666666667], [75.76541666666665, 36.12041666666668], [75.76124999999999, 36.11875], [75.75791666666666, 36.11541666666666], [75.75791666666666, 36.111250000000005], [75.75375, 36.10958333333333], [75.74624999999999, 36.11041666666667], [75.74291666666666, 36.107083333333335], [75.73708333333333, 36.10625], [75.73458333333332, 36.09374999999999], [75.73208333333332, 36.09291666666666], [75.72958333333332, 36.08958333333333], [75.72291666666666, 36.08708333333335], [75.72208333333333, 36.077083333333334], [75.72458333333333, 36.07541666666667], [75.72541666666666, 36.072083333333346], [75.71708333333332, 36.07291666666666], [75.71208333333333, 36.07041666666667], [75.70625000000001, 36.071250000000006], [75.70374999999999, 36.070416666666674], [75.70124999999999, 36.07375], [75.69874999999999, 36.07458333333334], [75.69874999999999, 36.07958333333334], [75.69708333333332, 36.08125000000001], [75.69458333333333, 36.081250000000004], [75.68541666666665, 36.08625], [75.68541666666665, 36.088750000000005], [75.69125, 36.092083333333335], [75.69208333333333, 36.09374999999999], [75.69375, 36.09374999999999], [75.69458333333333, 36.097083333333345], [75.69958333333334, 36.10124999999999], [75.69958333333334, 36.10291666666667], [75.69541666666666, 36.10625], [75.68791666666667, 36.10875], [75.68624999999999, 36.11208333333333], [75.67958333333333, 36.11875000000001], [75.67375, 36.11958333333334], [75.67208333333332, 36.12125], [75.66291666666666, 36.12208333333333], [75.66125, 36.11541666666667], [75.65708333333333, 36.111250000000005], [75.64458333333333, 36.11291666666668], [75.64208333333333, 36.11208333333333], [75.63624999999999, 36.11291666666667], [75.62791666666666, 36.119583333333345], [75.62041666666666, 36.12041666666667], [75.61708333333333, 36.122083333333336], [75.60208333333333, 36.12291666666666], [75.59625, 36.129583333333336], [75.59541666666667, 36.127916666666664], [75.59291666666667, 36.127916666666664], [75.58958333333332, 36.124583333333334], [75.58708333333333, 36.12458333333335], [75.58541666666666, 36.12291666666667], [75.58041666666666, 36.12291666666667], [75.57791666666665, 36.12125], [75.57874999999999, 36.11875], [75.57458333333332, 36.11291666666668], [75.57541666666667, 36.10124999999999], [75.56541666666666, 36.10041666666666], [75.56208333333333, 36.10375000000001], [75.54458333333332, 36.10791666666667], [75.53875, 36.11125000000001], [75.53291666666667, 36.11708333333333], [75.53291666666667, 36.11875000000001], [75.52125, 36.118750000000006], [75.51624999999999, 36.12125], [75.50791666666666, 36.121249999999996], [75.50625, 36.118750000000006], [75.50125, 36.11958333333334], [75.49708333333332, 36.117916666666666], [75.49958333333333, 36.11458333333333], [75.49624999999999, 36.11208333333333], [75.49624999999999, 36.110416666666666], [75.49374999999999, 36.11041666666667], [75.49208333333333, 36.10791666666667], [75.49041666666666, 36.10791666666667], [75.48875, 36.10458333333334], [75.48625000000001, 36.103750000000005], [75.48625000000001, 36.10208333333335], [75.48374999999999, 36.10041666666667], [75.49291666666666, 36.09541666666667], [75.49208333333333, 36.09458333333334], [75.49291666666666, 36.08958333333334], [75.48958333333333, 36.08708333333334], [75.49208333333333, 36.08375], [75.49541666666666, 36.08625], [75.49708333333332, 36.08458333333333], [75.50791666666666, 36.08291666666666], [75.51208333333332, 36.08041666666667], [75.51291666666665, 36.077083333333334], [75.51708333333333, 36.07375], [75.51791666666666, 36.07125000000001], [75.52125, 36.06958333333333], [75.52208333333333, 36.067083333333336], [75.53791666666666, 36.067083333333336], [75.53875, 36.065416666666664], [75.53958333333333, 36.062083333333334], [75.53708333333333, 36.059583333333336], [75.53875, 36.05374999999999], [75.53375, 36.050416666666656], [75.53375, 36.04875000000001], [75.53625, 36.04624999999999], [75.53208333333335, 36.04291666666667], [75.53208333333335, 36.041250000000005], [75.53458333333333, 36.03875], [75.53375, 36.03791666666667], [75.53458333333333, 36.03375], [75.53291666666667, 36.032916666666665], [75.53041666666667, 36.02708333333334], [75.52624999999999, 36.02375], [75.52624999999999, 36.02125], [75.52458333333333, 36.02041666666666], [75.52458333333333, 36.01875000000001], [75.52624999999999, 36.017916666666665], [75.52541666666666, 36.014583333333334], [75.51708333333333, 36.01375000000001], [75.51374999999999, 36.013749999999995], [75.51041666666666, 36.01625000000001], [75.50375, 36.017916666666665], [75.48875, 36.01958333333334], [75.48625000000001, 36.02291666666665], [75.47708333333333, 36.02708333333332], [75.46958333333333, 36.02541666666667], [75.45458333333333, 36.02541666666668], [75.45374999999999, 36.02708333333332], [75.44874999999999, 36.02708333333334], [75.44708333333332, 36.025416666666665], [75.44291666666666, 36.02541666666667], [75.42708333333333, 36.03208333333333], [75.42124999999999, 36.03041666666667], [75.40875, 36.03124999999999], [75.40458333333332, 36.03041666666665], [75.40208333333332, 36.033750000000005], [75.39625, 36.03541666666666], [75.38624999999999, 36.03458333333334], [75.38541666666666, 36.03625], [75.38208333333333, 36.03625], [75.37791666666666, 36.033750000000005], [75.37374999999999, 36.03374999999999], [75.36708333333333, 36.03458333333333], [75.36458333333333, 36.03541666666667], [75.36375, 36.03708333333332], [75.35541666666667, 36.036249999999995], [75.34958333333333, 36.038750000000014], [75.34541666666667, 36.03875], [75.34291666666667, 36.03708333333333], [75.34124999999999, 36.03958333333334], [75.33791666666666, 36.04041666666667], [75.32291666666666, 36.039583333333354], [75.32208333333332, 36.04125000000002], [75.31791666666666, 36.04125000000001], [75.31625, 36.04291666666666], [75.30541666666667, 36.042916666666656], [75.30125, 36.04458333333334], [75.29958333333333, 36.04791666666667], [75.29458333333332, 36.04958333333333], [75.28791666666666, 36.04625], [75.27624999999999, 36.04624999999999], [75.27374999999999, 36.048750000000005], [75.25958333333332, 36.04708333333332], [75.24708333333332, 36.04791666666667], [75.24458333333332, 36.051249999999996], [75.23374999999999, 36.05125], [75.23291666666665, 36.04958333333333], [75.23208333333332, 36.05041666666666], [75.22291666666666, 36.049583333333345], [75.22041666666667, 36.052083333333336], [75.20875, 36.051249999999996], [75.20458333333333, 36.057083333333324], [75.19958333333332, 36.06041666666667], [75.19708333333332, 36.06041666666667], [75.19208333333333, 36.05625000000001], [75.18624999999999, 36.05375], [75.18041666666666, 36.05875], [75.17708333333333, 36.05874999999999], [75.17541666666666, 36.05291666666667], [75.17208333333332, 36.05041666666666], [75.17124999999999, 36.04041666666667], [75.16791666666666, 36.038750000000014], [75.16708333333332, 36.03541666666667], [75.16125, 36.03125], [75.14958333333333, 36.029583333333335], [75.14625, 36.02791666666667], [75.14375, 36.03041666666666], [75.14291666666666, 36.033750000000005], [75.13791666666665, 36.034583333333345], [75.13791666666665, 36.036249999999995], [75.13374999999999, 36.03708333333333], [75.12791666666666, 36.04291666666667], [75.12208333333332, 36.04375], [75.12041666666666, 36.047916666666666], [75.11541666666666, 36.05041666666668], [75.11625, 36.05375000000001], [75.11375000000001, 36.05625000000001], [75.11208333333333, 36.05625000000001], [75.11125, 36.05958333333334], [75.10874999999999, 36.06125], [75.10708333333334, 36.06541666666667], [75.10291666666666, 36.06625], [75.09958333333333, 36.06875], [75.09958333333333, 36.07208333333334], [75.09791666666666, 36.07208333333333], [75.09791666666666, 36.07541666666666], [75.09625, 36.07708333333334], [75.09625, 36.081250000000004], [75.09208333333332, 36.08291666666666], [75.08874999999999, 36.08208333333333], [75.08708333333333, 36.07791666666667], [75.08291666666666, 36.073750000000004], [75.07458333333332, 36.075416666666655], [75.06708333333333, 36.08041666666668], [75.06625, 36.08375000000001], [75.06291666666667, 36.08625000000001], [75.06291666666667, 36.09041666666667], [75.06041666666665, 36.09125], [75.06041666666665, 36.09375000000001], [75.05874999999999, 36.09541666666668], [75.05458333333333, 36.09708333333333], [75.05208333333333, 36.096250000000005], [75.05041666666666, 36.09708333333333], [75.04875, 36.09374999999999], [75.04875, 36.08791666666667], [75.04624999999999, 36.08625000000001], [75.04458333333332, 36.07958333333334], [75.04208333333332, 36.07791666666667], [75.04374999999999, 36.070416666666674], [75.04208333333332, 36.06874999999999], [75.03958333333333, 36.068749999999994], [75.03041666666667, 36.06458333333334], [75.02958333333332, 36.059583333333336], [75.03125, 36.05791666666667], [75.02874999999999, 36.05541666666667], [75.02208333333333, 36.05458333333333], [75.01875, 36.051249999999996], [75.01791666666666, 36.052083333333336], [75.01458333333332, 36.05124999999999], [75.01208333333332, 36.047083333333326], [75.01291666666665, 36.04541666666667], [75.01124999999999, 36.043749999999996], [75.00708333333333, 36.04375], [75.00208333333333, 36.03875], [74.99708333333332, 36.03958333333335], [74.99708333333332, 36.04208333333334], [74.99291666666666, 36.04208333333334], [74.98124999999999, 36.04791666666667], [74.97874999999999, 36.04791666666667], [74.97208333333333, 36.05125], [74.96958333333333, 36.054583333333326], [74.96624999999999, 36.056250000000006], [74.96374999999999, 36.053749999999994], [74.96374999999999, 36.052083333333336], [74.95124999999999, 36.03958333333333], [74.94125, 36.040416666666665], [74.93708333333333, 36.042916666666656], [74.93208333333332, 36.04291666666668], [74.92291666666667, 36.040416666666665], [74.91375, 36.041250000000005], [74.90875, 36.036249999999995], [74.90875, 36.03458333333334], [74.90374999999999, 36.03041666666666], [74.90458333333332, 36.022916666666674], [74.90291666666666, 36.01958333333333], [74.89874999999999, 36.017916666666665], [74.89791666666666, 36.01625000000001], [74.89458333333333, 36.01624999999999], [74.89375, 36.01791666666667], [74.88958333333332, 36.01875000000001], [74.87625, 36.004583333333336], [74.87458333333333, 36.00625000000001], [74.87375, 36.01041666666667], [74.87458333333333, 36.01458333333333], [74.86791666666666, 36.02125], [74.86708333333333, 36.02708333333333], [74.85208333333333, 36.041250000000005], [74.84541666666667, 36.04291666666667], [74.83624999999999, 36.042083333333345], [74.83041666666666, 36.04375], [74.82541666666665, 36.04708333333332], [74.81291666666667, 36.04625], [74.80958333333332, 36.047916666666666], [74.80375, 36.047916666666666], [74.80208333333333, 36.04625], [74.79041666666666, 36.04458333333334], [74.77708333333332, 36.05041666666667], [74.77125, 36.05041666666666], [74.76625, 36.045416666666675], [74.76708333333333, 36.03875], [74.76374999999999, 36.036249999999995], [74.76208333333332, 36.03208333333333], [74.75958333333332, 36.03208333333333], [74.75791666666666, 36.029583333333335], [74.74875, 36.03041666666667], [74.74624999999999, 36.02791666666666], [74.73958333333333, 36.02791666666667], [74.73958333333333, 36.02625000000001], [74.72874999999999, 36.02625000000001], [74.72708333333333, 36.02958333333334], [74.71958333333335, 36.02958333333334], [74.71458333333332, 36.02708333333334], [74.71041666666666, 36.02708333333333], [74.70791666666666, 36.02458333333334], [74.70791666666666, 36.01958333333334], [74.70625, 36.018750000000004], [74.70458333333333, 36.011250000000004], [74.70291666666665, 36.01125000000001], [74.70041666666665, 36.007916666666674], [74.69291666666666, 36.00625], [74.69375, 36.00375], [74.69125000000001, 36.00041666666666], [74.69125000000001, 35.99791666666667], [74.68708333333333, 35.99458333333333], [74.68708333333333, 35.99041666666666], [74.68458333333334, 35.98791666666667], [74.68041666666666, 35.98708333333334], [74.67875, 35.98458333333333], [74.67291666666667, 35.98375], [74.67124999999999, 35.981249999999996], [74.66291666666667, 35.98041666666667], [74.66041666666666, 35.978750000000005], [74.65708333333333, 35.978750000000005], [74.65541666666667, 35.97625000000001], [74.65291666666666, 35.97625], [74.65374999999999, 35.97375], [74.65208333333332, 35.963750000000005], [74.64208333333333, 35.962916666666665], [74.64041666666665, 35.96041666666666], [74.63874999999999, 35.96041666666667], [74.63708333333332, 35.95625000000001], [74.63374999999999, 35.95541666666667], [74.63374999999999, 35.949583333333344], [74.63125, 35.94458333333333], [74.63125, 35.938750000000006], [74.62958333333333, 35.93791666666665], [74.62958333333333, 35.93541666666667], [74.63291666666666, 35.93208333333334], [74.63291666666666, 35.92541666666666], [74.63458333333332, 35.92125], [74.63291666666666, 35.91625], [74.63874999999999, 35.91041666666667], [74.64041666666665, 35.90541666666666], [74.63791666666665, 35.90208333333334], [74.63624999999999, 35.89541666666666], [74.63458333333332, 35.89458333333334], [74.63458333333332, 35.89125], [74.63208333333333, 35.88958333333333], [74.63208333333333, 35.88708333333334], [74.62958333333333, 35.88458333333334], [74.62124999999999, 35.883750000000006], [74.61375, 35.87791666666667], [74.61208333333333, 35.86791666666667], [74.60791666666665, 35.86625], [74.60624999999999, 35.863749999999996], [74.60708333333332, 35.861250000000005], [74.60541666666666, 35.861250000000005], [74.60624999999999, 35.85791666666666], [74.60541666633334, 35.845416667], [74.60791666633334, 35.841250000333325], [74.60791666633334, 35.838750000333334], [74.61041666633334, 35.83708333366667], [74.612083333, 35.828750000333336], [74.61874999966668, 35.821250000333336], [74.61708333300001, 35.815416667], [74.612083333, 35.81041666699999], [74.61041666633334, 35.802916667], [74.607083333, 35.800416667], [74.60874999966667, 35.77708333366666], [74.61124999966667, 35.776250000333334], [74.614583333, 35.772916667], [74.614583333, 35.771250000333325], [74.61708333300001, 35.770416667], [74.61958333300001, 35.76708333366667], [74.624583333, 35.76625000033332], [74.62624999966667, 35.763750000333346], [74.62791666633333, 35.763750000333346], [74.63374999966668, 35.75791666700002], [74.63291666633334, 35.75375000033334], [74.63458333300001, 35.75375000033333], [74.63458333300001, 35.75208333366666], [74.63124999966666, 35.75041666700001], [74.62791666633333, 35.745416667], [74.62124999966667, 35.746250000333326], [74.61291666633333, 35.73708333366667], [74.60541666633334, 35.736250000333335], [74.60374999966668, 35.73708333366667], [74.60291666633334, 35.739583333666666], [74.599583333, 35.74125000033334], [74.59624999966668, 35.740416667], [74.59291666633334, 35.74375000033333], [74.59291666633334, 35.745416667], [74.59124999966667, 35.74541666699999], [74.58958333300001, 35.74875000033334], [74.58374999966667, 35.75375000033334], [74.57874999966667, 35.751250000333336], [74.57791666633334, 35.752916666999994], [74.57541666633334, 35.75208333366666], [74.57041666633334, 35.75375000033334], [74.56958333300001, 35.75541666699999], [74.564583333, 35.755416667], [74.56374999966667, 35.757916667], [74.562083333, 35.758750000333336], [74.562083333, 35.762916667], [74.55874999966667, 35.762916667], [74.55458333300001, 35.765416667], [74.552083333, 35.770416667], [74.552083333, 35.77458333366667], [74.55041666633333, 35.775416667], [74.54791666633334, 35.78125000033334], [74.54208333300001, 35.78708333366667], [74.53874999966668, 35.78708333366667], [74.53541666633333, 35.79208333366666], [74.529583333, 35.79291666700001], [74.51874999966667, 35.797916666999996], [74.51124999966667, 35.80458333366668], [74.50874999966668, 35.80458333366667], [74.49874999966667, 35.81458333333333], [74.47791666666666, 35.81375000000001], [74.47458333333333, 35.81708333333333], [74.47125000000001, 35.81791666666667], [74.46875, 35.82041666666666], [74.46624999999999, 35.820416666666674], [74.46541666666666, 35.822083333333346], [74.46124999999999, 35.82041666666667], [74.44791666666666, 35.821250000000006], [74.44208333333333, 35.815416666666664], [74.44125, 35.81291666666666], [74.43041666666666, 35.81041666666667], [74.42958333333333, 35.80875], [74.41958333333332, 35.807916666666664], [74.41708333333332, 35.80541666666665], [74.40958333333333, 35.80541666666667], [74.40791666666667, 35.80291666666666], [74.40458333333333, 35.80125], [74.40124999999999, 35.80125000000001], [74.39791666666666, 35.798750000000005], [74.39291666666666, 35.797916666666666], [74.38458333333332, 35.79791666666666], [74.38208333333333, 35.80375000000001], [74.35874999999999, 35.802083333333336], [74.34291666666667, 35.80375000000001], [74.34041666666667, 35.80458333333334], [74.33958333333332, 35.80625], [74.33375, 35.80708333333334], [74.33125, 35.81041666666667], [74.32875, 35.809583333333336], [74.32291666666666, 35.81041666666666], [74.32041666666666, 35.81125], [74.31958333333333, 35.81291666666666], [74.31625, 35.81208333333334], [74.31375, 35.80625], [74.31041666666665, 35.806250000000006], [74.30791666666666, 35.80791666666667], [74.30041666666666, 35.80791666666667], [74.29708333333335, 35.81125], [74.29374999999999, 35.81125], [74.28875, 35.80791666666667], [74.28291666666667, 35.80791666666667], [74.27791666666666, 35.81208333333334], [74.26374999999999, 35.81375000000001], [74.26291666666665, 35.81541666666667], [74.25708333333333, 35.81708333333334], [74.25625, 35.81958333333333], [74.24541666666666, 35.81708333333334], [74.23958333333333, 35.81791666666666], [74.23625, 35.817083333333336], [74.22958333333332, 35.81958333333332], [74.22791666666666, 35.81791666666667], [74.22541666666666, 35.81791666666667], [74.21958333333333, 35.81208333333334], [74.21625, 35.812083333333334], [74.21625, 35.81041666666666], [74.21958333333333, 35.80708333333334], [74.22541666666666, 35.80625000000001], [74.22458333333333, 35.802083333333336], [74.22208333333333, 35.80041666666666], [74.22125, 35.79458333333333], [74.21791666666667, 35.79291666666666], [74.21875, 35.79125], [74.21625, 35.78791666666666], [74.21708333333333, 35.78541666666666], [74.22125, 35.78458333333334], [74.22041666666667, 35.77875], [74.21124999999999, 35.77625000000001], [74.21124999999999, 35.77458333333333], [74.20791666666666, 35.771249999999995], [74.20625, 35.77125], [74.20291666666665, 35.76708333333333], [74.19874999999999, 35.76708333333333], [74.19791666666666, 35.76541666666667], [74.19624999999999, 35.765416666666674], [74.19458333333334, 35.76208333333334], [74.18791666666667, 35.76125], [74.18541666666665, 35.75541666666667], [74.18291666666666, 35.754583333333336], [74.18124999999999, 35.752083333333346], [74.17625, 35.75208333333334], [74.17541666666666, 35.751250000000006], [74.17625, 35.74708333333334], [74.17458333333333, 35.745416666666664], [74.17541666666666, 35.740416666666675], [74.17041666666665, 35.73791666666666], [74.16291666666666, 35.73708333333334], [74.16291666666666, 35.732916666666654], [74.15791666666667, 35.72958333333333], [74.15708333333333, 35.72625000000001], [74.15458333333333, 35.72625000000001], [74.15458333333333, 35.72291666666667], [74.15708333333333, 35.71791666666666], [74.15625, 35.71541666666666], [74.14958333333333, 35.711250000000014], [74.14625, 35.71125000000002], [74.13958333333332, 35.71458333333334], [74.13708333333332, 35.71458333333334], [74.13624999999999, 35.71958333333333], [74.13458333333332, 35.721250000000005], [74.13125, 35.72291666666667], [74.12708333333333, 35.72291666666667], [74.12625, 35.73041666666666], [74.12041666666667, 35.73291666666666], [74.11708333333333, 35.738749999999996], [74.11208333333333, 35.73958333333333], [74.11041666666667, 35.74125], [74.10958333333333, 35.745416666666664], [74.10624999999999, 35.74708333333334], [74.09875000000001, 35.75458333333334], [74.09625, 35.75541666666666], [74.09291666666667, 35.753750000000004], [74.08458333333333, 35.75375], [74.08125, 35.752083333333346], [74.07708333333332, 35.75208333333334], [74.07458333333332, 35.75375], [74.06625, 35.75374999999999], [74.06291666666667, 35.756249999999994], [74.06375, 35.760416666666664], [74.05375, 35.76208333333334], [74.05458333333333, 35.76791666666667], [74.05041666666666, 35.77125], [74.04875000000001, 35.778749999999995], [74.04624999999999, 35.78041666666667], [74.04541666666665, 35.78541666666666], [74.04124999999999, 35.78791666666666], [74.04291666666666, 35.79291666666667], [74.04124999999999, 35.79458333333333], [74.03541666666666, 35.79625], [74.03458333333333, 35.80208333333333], [74.02958333333333, 35.80791666666667], [74.02791666666666, 35.80791666666667], [74.02791666666666, 35.81125], [74.03041666666667, 35.813750000000006], [74.03041666666667, 35.81541666666667], [74.02958333333333, 35.81958333333333], [74.02541666666666, 35.822083333333346], [74.02541666666666, 35.824583333333344], [74.01791666666666, 35.82291666666667], [74.01625, 35.821250000000006], [74.01208333333332, 35.821250000000006], [74.01124999999999, 35.81791666666667], [74.00375, 35.81291666666666], [73.99708333333332, 35.812916666666666], [73.99541666666666, 35.81458333333333], [73.99541666666666, 35.81958333333332], [73.99125, 35.82041666666666], [73.98958333333333, 35.82208333333334], [73.98374999999999, 35.818749999999994], [73.97874999999999, 35.81875], [73.97708333333333, 35.821250000000006], [73.97291666666666, 35.820416666666674], [73.97041666666667, 35.81708333333333], [73.96458333333332, 35.81708333333333], [73.96124999999999, 35.819583333333334], [73.96041666666666, 35.82291666666667], [73.95541666666666, 35.823750000000004], [73.95375, 35.826249999999995], [73.94541666666666, 35.82791666666667], [73.94291666666666, 35.83458333333333], [73.94291666666666, 35.84125], [73.94541666666666, 35.842083333333335], [73.94458333333333, 35.84958333333334], [73.93541666666667, 35.85124999999999], [73.92958333333333, 35.85041666666666], [73.92625, 35.85458333333334], [73.91791666666667, 35.85708333333334], [73.91708333333332, 35.85875], [73.90708333333333, 35.85791666666667], [73.90708333333333, 35.85125000000001], [73.90541666666667, 35.84791666666666], [73.89791666666666, 35.84791666666666], [73.89708333333333, 35.845416666666665], [73.89125, 35.84041666666667], [73.88374999999999, 35.83874999999999], [73.87541666666667, 35.83958333333333], [73.86874999999999, 35.845416666666665], [73.86625, 35.845416666666665], [73.86458333333333, 35.84875], [73.86208333333333, 35.84875], [73.85958333333333, 35.85791666666667], [73.85458333333332, 35.858749999999986], [73.85541666666666, 35.86458333333334], [73.85458333333332, 35.866249999999994], [73.84458333333333, 35.86791666666668], [73.84375, 35.86958333333334], [73.83958333333332, 35.87125], [73.83791666666666, 35.87458333333334], [73.83291666666666, 35.874583333333334], [73.83125, 35.877083333333346], [73.82875000000001, 35.87541666666667], [73.82875000000001, 35.87375], [73.82624999999999, 35.87291666666666], [73.82458333333332, 35.86875], [73.82124999999999, 35.86875000000001], [73.81458333333333, 35.86541666666668], [73.80624999999999, 35.864583333333336], [73.80375, 35.86708333333334], [73.80125, 35.866249999999994], [73.78791666666666, 35.868750000000006], [73.78458333333333, 35.87125], [73.78458333333333, 35.872916666666676], [73.78208333333333, 35.875416666666666], [73.78041666666667, 35.87541666666667], [73.77958333333333, 35.87708333333334], [73.77208333333333, 35.88125], [73.76625, 35.871249999999996], [73.76041666666666, 35.870416666666664], [73.76124999999999, 35.85791666666667], [73.76041666666666, 35.853750000000005], [73.75874999999999, 35.85208333333334], [73.75625, 35.85291666666667], [73.75208333333333, 35.85208333333334], [73.74958333333333, 35.85458333333333], [73.74125, 35.85791666666667], [73.74041666666666, 35.85708333333334], [73.72791666666666, 35.857916666666675], [73.72375, 35.854583333333345], [73.72125, 35.85458333333333], [73.71875, 35.85875], [73.71458333333332, 35.85958333333334], [73.71291666666666, 35.861250000000005], [73.71208333333333, 35.864583333333336], [73.70458333333335, 35.866249999999994], [73.70041666666665, 35.872083333333336], [73.69458333333333, 35.87291666666667], [73.68958333333333, 35.870416666666664], [73.68041666666666, 35.877916666666664], [73.67791666666666, 35.87791666666667], [73.67625000000001, 35.874583333333334], [73.67208333333333, 35.87125000000001], [73.66791666666666, 35.872083333333336], [73.66458333333333, 35.87125000000001], [73.65958333333333, 35.87374999999999], [73.65625, 35.87375000000001], [73.65208333333332, 35.877916666666664], [73.64458333333333, 35.87708333333333], [73.64291666666666, 35.87875000000001], [73.63791666666665, 35.87875000000001], [73.63624999999999, 35.874583333333334], [73.63125, 35.872916666666676], [73.62791666666666, 35.86875000000001], [73.62875, 35.86375], [73.62708333333333, 35.86291666666668], [73.62625, 35.860416666666666], [73.61791666666666, 35.85958333333334], [73.61541666666666, 35.86208333333333], [73.61541666666666, 35.863749999999996], [73.61125, 35.86375], [73.60874999999999, 35.866249999999994], [73.60541666666666, 35.86625], [73.60458333333332, 35.86791666666668], [73.60041666666666, 35.86625], [73.59708333333333, 35.86625], [73.59541666666667, 35.86791666666668], [73.58958333333332, 35.86791666666668], [73.58458333333333, 35.872916666666676], [73.57708333333332, 35.87291666666667], [73.57708333333332, 35.87125], [73.57458333333332, 35.86958333333334], [73.56958333333333, 35.86958333333333], [73.56625, 35.87375], [73.56208333333333, 35.87375], [73.56041666666667, 35.87458333333333], [73.55958333333332, 35.87708333333334], [73.55708333333332, 35.87708333333333], [73.55541666666666, 35.88208333333333], [73.54541666666667, 35.882916666666674], [73.54458333333332, 35.88041666666667], [73.54124999999999, 35.877916666666664], [73.54041666666666, 35.87375000000001], [73.53875, 35.87291666666667], [73.53791666666666, 35.870416666666664], [73.53875, 35.86458333333334], [73.53458333333333, 35.859583333333326], [73.53125, 35.85958333333333], [73.53041666666668, 35.85708333333333], [73.51458333333332, 35.85625000000001], [73.51124999999999, 35.85791666666667], [73.51124999999999, 35.859583333333326], [73.50874999999999, 35.862083333333345], [73.50458333333333, 35.86291666666667], [73.50208333333333, 35.86541666666667], [73.50208333333333, 35.86791666666668], [73.50041666666667, 35.86791666666668], [73.49958333333333, 35.87125000000001], [73.49708333333332, 35.87375], [73.49374999999999, 35.87458333333334], [73.49291666666666, 35.87625], [73.47791666666667, 35.868750000000006], [73.46875, 35.86875000000001], [73.46625, 35.87125000000001], [73.46291666666666, 35.87125000000001], [73.46124999999999, 35.87291666666667], [73.45124999999999, 35.87541666666667], [73.44624999999999, 35.87791666666668], [73.44541666666666, 35.87958333333333], [73.43708333333333, 35.882916666666674], [73.43625, 35.88958333333334], [73.43124999999999, 35.886250000000004], [73.42208333333333, 35.88541666666668], [73.42041666666665, 35.88375000000001], [73.40625000000001, 35.88458333333333], [73.40124999999999, 35.886250000000004], [73.39458333333333, 35.89625], [73.38958333333332, 35.897083333333335], [73.38791666666665, 35.898750000000014], [73.38874999999999, 35.90375], [73.38291666666666, 35.90458333333333], [73.38125, 35.90291666666666], [73.37124999999999, 35.90291666666666], [73.36791666666666, 35.90625], [73.36874999999999, 35.90708333333334], [73.36791666666666, 35.91291666666668], [73.36541666666666, 35.91541666666667], [73.36458333333333, 35.92291666666667], [73.36208333333333, 35.92458333333333], [73.36208333333333, 35.926249999999996], [73.35875, 35.92875000000001], [73.35624999999999, 35.92875], [73.35041666666666, 35.936249999999994], [73.34208333333333, 35.93874999999999], [73.33958333333332, 35.94125], [73.33958333333332, 35.94291666666667], [73.33458333333333, 35.943749999999994], [73.32958333333333, 35.94708333333333], [73.32791666666667, 35.95125], [73.32875, 35.95458333333334], [73.32708333333332, 35.95625000000001], [73.32791666666667, 35.96291666666667], [73.32458333333332, 35.96625], [73.31875, 35.96458333333334], [73.31708333333333, 35.96291666666667], [73.31375, 35.96291666666666], [73.31208333333333, 35.959583333333335], [73.30958333333332, 35.958749999999995], [73.30958333333332, 35.95708333333334], [73.30708333333332, 35.95541666666667], [73.30791666666666, 35.95041666666667], [73.30458333333333, 35.94875], [73.30375000000001, 35.94625000000001], [73.30208333333333, 35.946250000000006], [73.29374999999999, 35.93791666666665], [73.29208333333332, 35.93874999999999], [73.28791666666666, 35.937916666666666], [73.28625, 35.940416666666664], [73.28208333333335, 35.93958333333333], [73.27875, 35.94375], [73.27624999999999, 35.94375000000001], [73.27624999999999, 35.937916666666666], [73.27125, 35.93958333333334], [73.26708333333333, 35.93958333333333], [73.26458333333332, 35.937916666666666], [73.26208333333332, 35.93958333333334], [73.25541666666666, 35.93791666666666], [73.25625, 35.935416666666676], [73.25874999999999, 35.934583333333336], [73.25958333333332, 35.92958333333334], [73.25708333333333, 35.92541666666667], [73.25125, 35.92458333333334], [73.25125, 35.92291666666666], [73.25625, 35.91791666666667], [73.25541666666666, 35.916250000000005], [73.25375, 35.91625], [73.25375, 35.91375], [73.25208333333333, 35.912916666666675], [73.25291666666666, 35.90958333333334], [73.25125, 35.90541666666667], [73.25625, 35.90541666666667], [73.25791666666666, 35.90375000000001], [73.25791666666666, 35.90125000000001], [73.25458333333333, 35.90041666666667], [73.25208333333333, 35.89791666666667], [73.25291666666666, 35.88958333333333], [73.24958333333333, 35.886250000000004], [73.25541666666666, 35.883750000000006], [73.25541666666666, 35.88041666666667], [73.25874999999999, 35.87791666666667], [73.26041666666666, 35.871249999999996], [73.25708333333333, 35.868750000000006], [73.25708333333333, 35.86541666666666], [73.25041666666667, 35.86125000000001], [73.24708333333332, 35.86375], [73.24291666666666, 35.86291666666666], [73.23958333333333, 35.85958333333333], [73.23291666666665, 35.861250000000005], [73.23041666666666, 35.86041666666667], [73.22291666666666, 35.861250000000005], [73.22291666666666, 35.85958333333333], [73.22125, 35.85958333333333], [73.21958333333333, 35.85708333333334], [73.21875, 35.85208333333334], [73.21541666666666, 35.85124999999999], [73.21374999999999, 35.84875], [73.20791666666668, 35.845416666666665], [73.20458333333333, 35.845416666666665], [73.20208333333332, 35.842083333333335], [73.20041666666665, 35.84374999999999], [73.19791666666666, 35.84375], [73.18541666666667, 35.83958333333333], [73.18041666666666, 35.84375], [73.17791666666666, 35.849583333333335], [73.17541666666666, 35.850416666666675], [73.17541666666666, 35.852916666666665], [73.17208333333333, 35.85458333333333], [73.16375, 35.854583333333345], [73.16291666666666, 35.85291666666667], [73.16041666666666, 35.85208333333334], [73.16041666666666, 35.85041666666666], [73.15958333333333, 35.85125], [73.15708333333333, 35.85041666666667], [73.15625, 35.84875], [73.15708333333333, 35.84375], [73.15208333333332, 35.838750000000005], [73.15041666666666, 35.838750000000005], [73.14958333333333, 35.83708333333334], [73.14041666666667, 35.83708333333335], [73.13791666666665, 35.83875], [73.13458333333332, 35.838750000000005], [73.13208333333333, 35.842916666666675], [73.12375, 35.84291666666667], [73.12208333333332, 35.84458333333333], [73.11708333333333, 35.84541666666666], [73.11708333333333, 35.84875], [73.11541666666666, 35.85041666666666], [73.11208333333335, 35.85124999999999], [73.11125, 35.852916666666665], [73.10875, 35.85291666666668], [73.10541666666667, 35.85791666666667], [73.10125, 35.85875000000001], [73.10125, 35.860416666666666], [73.09875, 35.861250000000005], [73.09875, 35.86291666666666], [73.09708333333333, 35.86291666666667], [73.09375, 35.86625], [73.09291666666667, 35.86875], [73.08874999999999, 35.87041666666665], [73.08708333333333, 35.87291666666667], [73.08458333333333, 35.87291666666666], [73.08458333333333, 35.87125], [73.07791666666667, 35.86375], [73.07291666666666, 35.861250000000005], [73.07291666666666, 35.85791666666667], [73.07124999999999, 35.856249999999996], [73.06708333333333, 35.856249999999996], [73.06625, 35.85458333333333], [73.06208333333335, 35.85791666666666], [73.05791666666666, 35.85874999999999], [73.05041666666666, 35.85791666666666], [73.05041666666666, 35.85625], [73.04791666666667, 35.85375000000001], [73.04708333333333, 35.84791666666666], [73.04541666666665, 35.84791666666667], [73.04458333333332, 35.846250000000005], [73.03625, 35.84458333333334], [73.02708333333332, 35.838750000000005], [73.01458333333332, 35.83958333333334], [73.01291666666665, 35.83291666666667], [73.01041666666666, 35.829583333333346], [73.01041666666666, 35.826249999999995], [73.00791666666666, 35.82458333333333], [72.99875, 35.824583333333344], [72.99125, 35.826249999999995], [72.98875, 35.82875], [72.98875, 35.83291666666667], [72.98125, 35.83208333333333], [72.97958333333332, 35.83375000000001], [72.97375, 35.833749999999995], [72.97041666666667, 35.83541666666666], [72.96291666666666, 35.83625000000001], [72.95875, 35.83291666666667], [72.95291666666667, 35.83208333333333], [72.94791666666666, 35.83291666666667], [72.94291666666666, 35.83041666666668], [72.93791666666668, 35.83041666666667], [72.93541666666667, 35.82791666666667], [72.93374999999999, 35.82875], [72.93291666666666, 35.827083333333334], [72.93041666666666, 35.82791666666667], [72.92625, 35.82375], [72.92208333333333, 35.82375], [72.91125, 35.812916666666666], [72.89958333333333, 35.812916666666666], [72.89708333333333, 35.81375000000001], [72.89375, 35.817916666666655], [72.89458333333333, 35.82125000000001], [72.89125, 35.82541666666666], [72.89125, 35.832083333333344], [72.88958333333333, 35.83291666666667], [72.88874999999999, 35.83625000000001], [72.88458333333332, 35.83958333333332], [72.88458333333332, 35.84125], [72.88125, 35.84375], [72.88041666666666, 35.849583333333335], [72.88125, 35.85124999999999], [72.87958333333333, 35.85208333333333], [72.88125, 35.85458333333334], [72.86125, 35.85791666666667], [72.85374999999999, 35.86541666666667], [72.84875, 35.86791666666668], [72.84375, 35.86708333333334], [72.84291666666667, 35.868750000000006], [72.84125, 35.86875], [72.83791666666666, 35.872083333333336], [72.83874999999999, 35.87458333333334], [72.83208333333333, 35.87624999999999], [72.83041666666666, 35.88041666666666], [72.82708333333333, 35.882083333333334], [72.82708333333333, 35.883750000000006], [72.82541666666665, 35.88374999999999], [72.82374999999999, 35.88125]]]]}}]}