{"type": "FeatureCollection", "name": "indus2", "crs": {"type": "name", "properties": {"name": "urn:ogc:def:crs:OGC:1.3:CRS84"}}, "features": [{"type": "Feature", "properties": {"OBJECTID_1": 1, "FID_Indus_": 0, "OBJECTID": 1, "FID_waters": 1, "FID_wate_1": -1, "gid": 0.0, "FID_Combin": 5, "id_0": 6, "id": 6, "name": "Tarbela Catchment", "FID_wate_2": -1, "gid_1": 0.0, "Shape_Leng": 18.839106864, "FID_wate_3": -1, "gid_12": 0.0, "Shape_Le_1": 18.9367111316, "Shape_Area": 2.0737466816, "g_count": 942, "g_area": 454.4336768212141, "c_area": 20924.53404779999}, "geometry": {"type": "MultiPolygon", "coordinates": [[[[74.62791666622121, 35.74541666694569], [74.62474445922874, 35.74223254794719], [74.62844143550038, 35.739063711142954], [74.63134620257094, 35.736951153273445], [74.63874015511419, 35.736687083539756], [74.64032457351631, 35.73563080460501], [74.65088736286381, 35.739063711142954], [74.66145015221132, 35.750154639957834], [74.67570991783046, 35.74962650049044], [74.67887875463471, 35.746985803153564], [74.69129003211802, 35.74724987288727], [74.69921212412865, 35.753851616229454], [74.70554979773715, 35.75596417409894], [74.70554979773715, 35.74804208208832], [74.70475758853608, 35.739855920344], [74.70554979773715, 35.733782316469195], [74.70581386747084, 35.72770871259437], [74.70317317013395, 35.725596154724876], [74.70792642534033, 35.706583133899365], [74.70977491347615, 35.69892511162243], [74.71479223841621, 35.69628441428555], [74.71664072655204, 35.6912670893455], [74.71769700548677, 35.68545755520437], [74.71664072655204, 35.67911988159587], [74.71743293575308, 35.67674325399269], [74.71637665681834, 35.67040558038417], [74.72112991202471, 35.66961337118311], [74.7301082829701, 35.6590505818356], [74.74093514205128, 35.65640988449873], [74.7455563623908, 35.652448838493406], [74.75030961759717, 35.652448838493406], [74.75559101227093, 35.64663930435229], [74.76351310428156, 35.648751862221786], [74.7666819410858, 35.64980814115654], [74.77724473043331, 35.64505488595016], [74.77354775416168, 35.63449209660267], [74.77354775416168, 35.62762628352678], [74.76140054641205, 35.62392930725515], [74.75295031493405, 35.61811977311402], [74.74819705972767, 35.614422796842405], [74.7413312466518, 35.61283837844029], [74.73288101517379, 35.60966954163602], [74.71492427328303, 35.610197681103394], [74.71056712267718, 35.608745297568106], [74.7070021812724, 35.609405471902335], [74.70224892606602, 35.60861326270127], [74.69921212412862, 35.610065646236556], [74.69709956625911, 35.61032971597023], [74.69406276432171, 35.61032971597023], [74.6922142761859, 35.60821715810074], [74.68798916044689, 35.607953088367054], [74.68217962630574, 35.6080851232339], [74.67769044083305, 35.60782105350021], [74.67399346456142, 35.60755698376652], [74.66970233138899, 35.60663273969861], [74.66494907618262, 35.59950285688904], [74.66204430911208, 35.59369332274793], [74.65808326310675, 35.59316518328055], [74.65597070523725, 35.58920413727524], [74.65359407763405, 35.58946820700892], [74.65174558949825, 35.58709157940572], [74.64804861322662, 35.58656343993836], [74.64593605535711, 35.58154611499828], [74.64936896189505, 35.57732099925929], [74.64699233429187, 35.569927046716046], [74.65781919337306, 35.55910018763485], [74.66706163405212, 35.55513914162953], [74.66838198272058, 35.551046060757386], [74.6699664011227, 35.54708501475206], [74.66983436625586, 35.541011410877246], [74.66772180838635, 35.540615306276706], [74.66917419192163, 35.533749493200844], [74.67234302872588, 35.5260914709239], [74.67392744712801, 35.51856548351381], [74.67617203986437, 35.51618885591061], [74.6784166326007, 35.51526461184271], [74.67683221419853, 35.50100484622358], [74.68026512073646, 35.49836414888669], [74.69003570088292, 35.493082754212956], [74.69478895608928, 35.49017798714238], [74.70244697836623, 35.48251996486543], [74.70587988490416, 35.478030779392746], [74.70693616383892, 35.46746799004525], [74.71142534931161, 35.462714734838876], [74.71221755851266, 35.45743334016513], [74.71433011638217, 35.45030345735556], [74.71855523212118, 35.443437644279676], [74.71063314011055, 35.43762811013855], [74.7093127914421, 35.43287485493218], [74.71433011638217, 35.42997008786161], [74.71697081371904, 35.423632414253106], [74.71591453478429, 35.41623846170987], [74.71881930185486, 35.411749276237174], [74.72410069652861, 35.40963671836767], [74.72304441759385, 35.40092241715598], [74.72779767280021, 35.39669730141698], [74.72726953333284, 35.38930334887372], [74.73149464907183, 35.38296567526522], [74.72251627812646, 35.37240288591773], [74.71617860451796, 35.35708684136384], [74.71512232558321, 35.34652405201634], [74.70139069943147, 35.337017541603586], [74.69663744422508, 35.327511031190824], [74.68871535221444, 35.3301517285277], [74.6770962839322, 35.31853266024546], [74.6770962839322, 35.303744755158945], [74.66125209991094, 35.29054126847458], [74.65280186843293, 35.284731734333434], [74.64752047375919, 35.27205638711643], [74.63791666692072, 35.26208333307944], [74.63791666692072, 35.25874999951293], [74.63374999996256, 35.26041666629618], [74.61208333357905, 35.259583332904526], [74.60875000001255, 35.25708333272968], [74.59625000003751, 35.25291666667089], [74.59208333307942, 35.25041666649599], [74.59208333307942, 35.244583332754644], [74.58875000041223, 35.24124999918814], [74.58875000041223, 35.236249999737765], [74.58625000023738, 35.23458333295452], [74.58291666667088, 35.234583332954514], [74.57958333310438, 35.231249999388005], [74.57958333310438, 35.22958333260476], [74.57291666687075, 35.228749999213164], [74.57041666669585, 35.22624999993758], [74.55041666709559, 35.22624999993757], [74.54708333352909, 35.22541666654597], [74.54625000013743, 35.22374999976273], [74.54374999996259, 35.22374999976273], [74.54124999978774, 35.22041666619622], [74.5370833337289, 35.22041666619623], [74.53375000016247, 35.21874999941298], [74.51875000001257, 35.219583332804625], [74.51458333305442, 35.21791666602138], [74.51125000038729, 35.22041666619623], [74.50875000021239, 35.22041666619623], [74.50541666664589, 35.224583333154314], [74.50041666719551, 35.22624999993757], [74.49625000023735, 35.22124999958789], [74.48874999971275, 35.220416666196236], [74.48541666704563, 35.21708333262972], [74.48541666704563, 35.212916666570955], [74.48041666669587, 35.20874999961284], [74.47208333367894, 35.207916666221195], [74.46958333350409, 35.20291666587149], [74.46291666637109, 35.20291666587149], [74.46208333387881, 35.199583333204316], [74.45791666692071, 35.19541666624622], [74.45791666692071, 35.19374999946297], [74.45291666657096, 35.193749999462966], [74.44625000033733, 35.189583333404194], [74.44375000016242, 35.18958333340419], [74.44041666659592, 35.18624999983768], [74.43958333320433, 35.18208333287959], [74.43458333375389, 35.17958333270467], [74.4337500003623, 35.17374999986264], [74.42375000056211, 35.16458333255479], [74.42041666699566, 35.164583332554784], [74.41958333360401, 35.162916666670874], [74.41374999986266, 35.161249999887616], [74.41208333307941, 35.157916666321164], [74.40958333380388, 35.15624999953792], [74.40958333380388, 35.15458333275466], [74.40458333345413, 35.15208333257976], [74.40375000006253, 35.14708333312938], [74.40791666702063, 35.14458333295448], [74.41541666664591, 35.14374999956288], [74.41875000021241, 35.137916666720855], [74.42208333377891, 35.139583332604786], [74.42541666644604, 35.13874999921313], [74.4295833334042, 35.13541666654594], [74.4337500003623, 35.13458333315435], [74.43708333302948, 35.130416666196254], [74.4404166656966, 35.1320833329795], [74.43874999891335, 35.13041666619625], [74.43791666642107, 35.13041666619625], [74.43458333375389, 35.125416666745814], [74.42958333250488, 35.112916666770786], [74.42791666572163, 35.10958333320435], [74.42458333305444, 35.10624999963783], [74.42375000056211, 35.10291666607134], [74.42125000038726, 35.10291666697065], [74.41791666682076, 35.10041666589648], [74.41041666629616, 35.099583333404155], [74.40791666612131, 35.0970833332293], [74.40458333255481, 35.096249999837646], [74.40124999988763, 35.09375000056211], [74.39874999971278, 35.087916665921455], [74.39374999936302, 35.085416666645926], [74.39041666669584, 35.082083333079424], [74.38874999991265, 35.082083333079424], [74.387916666521, 35.07791666702064], [74.38541666634615, 35.07541666684574], [74.38541666634615, 35.07291666667089], [74.38208333277964, 35.06875000061211], [74.38041666599639, 35.06874999971279], [74.37958333350412, 35.06708333292954], [74.37708333332921, 35.06458333275462], [74.37374999976271, 35.06291666597138], [74.37208333297951, 35.05958333330426], [74.36875000031233, 35.057916666521], [74.35624999943798, 35.05791666652102], [74.35624999943798, 35.05708333312935], [74.34624999963785, 35.057083333129356], [74.34374999946294, 35.05958333330426], [74.32541666664588, 35.05958333330425], [74.32208333307943, 35.06124999918818], [74.31541666684575, 35.06125000008751], [74.31374999916318, 35.06125000008752], [74.3137500000625, 35.06041666669586], [74.3095833331044, 35.06041666669586], [74.3054166661463, 35.06458333365395], [74.29374999956286, 35.064583333653964], [74.28458333315433, 35.056250000637064], [74.28374999976273, 35.049583333504074], [74.2787500003123, 35.04791666672082], [74.2745833333542, 35.043750000662044], [74.2712499997877, 35.04374999976272], [74.26958333300445, 35.042083333878786], [74.26124999908825, 35.03708333352909], [74.25541666624622, 35.03791666602137], [74.24624999983769, 35.03791666692069], [74.24458333305444, 35.04124999958787], [74.24124999948793, 35.0412500004872], [74.23791666682075, 35.044583333154364], [74.23791666592143, 35.04791666672082], [74.2362500000375, 35.049583332604755], [74.2362500000375, 35.06624999953789], [74.23291666647106, 35.06791666632114], [74.2312499996878, 35.06541666704561], [74.21708333382884, 35.06541666704561], [74.21374999936302, 35.06458333365396], [74.21291666687074, 35.0687499997128], [74.21291666597142, 35.07375000006248], [74.21374999936302, 35.07874999951292], [74.21208333257977, 35.07958333380383], [74.21208333257977, 35.08625000003752], [74.20708333312939, 35.08874999931305], [74.20708333223007, 35.087916666820774], [74.20208333277964, 35.082083333079424], [74.18791666692067, 35.08208333307943], [74.18124999978772, 35.08125000058709], [74.18041666639607, 35.07958333290452], [74.17708333282962, 35.07958333290452], [74.17458333355404, 35.07791666702064], [74.16791666732041, 35.07791666702064], [74.16708333392876, 35.076250000237394], [74.16208333267974, 35.07625000023739], [74.16208333267974, 35.07708333272967], [74.15541666644606, 35.08125000058709], [74.15291666627121, 35.083749999862675], [74.1504166660963, 35.083750000761995], [74.14791666592146, 35.08625000003752], [74.14291666647102, 35.0862499991382], [74.14291666647102, 35.092916667170535], [74.1420833321801, 35.09541666644605], [74.1404166671955, 35.09708333412863], [74.13458333345415, 35.098750000012544], [74.13541666684574, 35.10208333267968], [74.13541666684574, 35.10874999981268], [74.1329166666709, 35.11208333337919], [74.13124999898832, 35.11208333337919], [74.13124999988766, 35.11291666677078], [74.12958333310439, 35.112916666770786], [74.1287499997128, 35.11458333355404], [74.12375000026236, 35.11458333265472], [74.12041666579654, 35.11625000033729], [74.11708333312936, 35.11625000033728], [74.11374999956291, 35.12124999978773], [74.10791666672083, 35.12208333317932], [74.10624999993763, 35.12374999996258], [74.10624999903825, 35.128749999413], [74.10958333260476, 35.130416666196254], [74.10958333260476, 35.132916666371095], [74.11208333277966, 35.134583333154346], [74.11291666617126, 35.13875000011245], [74.11291666617126, 35.14458333295448], [74.10875000011248, 35.14708333312938], [74.10708333332923, 35.14708333312938], [74.10624999903825, 35.14708333312939], [74.10124999958788, 35.144583332954475], [74.10124999958788, 35.142083333678954], [74.09874999941297, 35.137916666720855], [74.09291666657094, 35.137916666720855], [74.09041666639611, 35.14041666599638], [74.08874999961284, 35.144583333853795], [74.08541666604634, 35.144583332954475], [74.08374999926309, 35.14708333312938], [74.07708333302946, 35.147916666520985], [74.07375000036228, 35.15041666669589], [74.07374999946296, 35.151250000087494], [74.06624999983768, 35.149583333304236], [74.06624999983768, 35.14624999973774], [74.06374999966283, 35.1445833338538], [74.06124999948793, 35.14541666634612], [74.0470833327297, 35.145416667245456], [74.04541666684577, 35.14708333312939], [74.03874999971276, 35.147916666520985], [74.03624999953793, 35.14541666634613], [74.02874999991263, 35.14541666634613], [74.02874999991263, 35.14708333312938], [74.0229166670706, 35.15291666597142], [74.01874999921313, 35.15791666632117], [74.01791666672085, 35.161249999887616], [74.015416666546, 35.16291666667087], [74.00791666692072, 35.16375000006253], [74.00458333335422, 35.16624999933804], [74.00291666567165, 35.172916666471046], [74.00291666657097, 35.180416666995654], [74.00124999978772, 35.181249999487925], [74.00124999978772, 35.180416666995654], [73.99958333300447, 35.17874999931308], [73.99124999998759, 35.17875000021241], [73.98791666642109, 35.180416666096335], [73.98208333267974, 35.180416666096335], [73.97875000001255, 35.181250000387244], [73.9770833332293, 35.179583332704674], [73.96791666682078, 35.174583333254304], [73.96458333325427, 35.174583333254304], [73.96124999968777, 35.17208333307939], [73.96124999968777, 35.1679166661213], [73.95708333362899, 35.165416666845765], [73.95208333237991, 35.16624999933805], [73.95208333237991, 35.16458333345412], [73.94958333310439, 35.16291666667087], [73.94791666722045, 35.15874999971277], [73.94791666632113, 35.15375000026233], [73.95124999988764, 35.15041666669589], [73.95124999988764, 35.14291666707061], [73.95458333255482, 35.1404166668957], [73.95458333255482, 35.13541666654596], [73.94874999971279, 35.13208333387882], [73.94541666614629, 35.128749999413], [73.93708333312935, 35.128749999413], [73.93458333385382, 35.125416666745814], [73.9345833329545, 35.12124999978772], [73.93291666617127, 35.11958333300447], [73.93291666707057, 35.11624999943797], [73.93708333312935, 35.1154166669457], [73.94041666579653, 35.110416666595945], [73.93874999901328, 35.11041666659594], [73.93624999973775, 35.10791666642108], [73.93125000028732, 35.10624999963784], [73.92958333260475, 35.10374999946294], [73.92458333315437, 35.103750000362254], [73.92041666619622, 35.10041666679581], [73.91458333335419, 35.099583333404155], [73.91208333317934, 35.0970833332293], [73.90874999961284, 35.09708333322931], [73.90208333247989, 35.09791666662091], [73.89791666642105, 35.10041666679581], [73.89874999981271, 35.10791666642109], [73.8962499996378, 35.1079166673204], [73.89375000036227, 35.11041666659594], [73.89291666697068, 35.11041666659594], [73.89125000018743, 35.11041666659594], [73.88624999983767, 35.10791666642109], [73.88374999966283, 35.10541666624618], [73.8745833332543, 35.103750000362254], [73.86624999933804, 35.10374999946294], [73.86208333327926, 35.10291666697065], [73.86041666649601, 35.103750000362254], [73.85874999971276, 35.09958333340415], [73.84958333330422, 35.090416666995615], [73.84541666634613, 35.08541666664592], [73.84458333295453, 35.08541666664592], [73.84291666617128, 35.080416666296166], [73.8429166670706, 35.067083332929535], [73.84458333295453, 35.06374999936305], [73.84458333295453, 35.057083333129356], [73.84374999956287, 35.05291666617126], [73.84125000028735, 35.05208333277965], [73.83958333260478, 35.049583333504074], [73.83874999921318, 35.049583333504074], [73.84041666689569, 35.046249999937565], [73.84374999956287, 35.04291666637113], [73.8437500004622, 35.03458333245487], [73.84458333385385, 35.03374999996258], [73.84374999956287, 35.033749999962595], [73.83624999993759, 35.02958333300444], [73.83708333242993, 35.02708333282959], [73.83708333332925, 35.01958333320431], [73.83374999976274, 35.01541666714554], [73.83208333297951, 35.0154166662462], [73.82874999941299, 35.01208333357904], [73.82541666584649, 35.01041666679578], [73.82291666567164, 35.00791666662092], [73.82124999888839, 35.00375000056215], [73.81541666604636, 35.0020833337789], [73.80958333320433, 35.00208333287957], [73.80541666624623, 35.00624999983767], [73.80124999928807, 35.00624999983767], [73.78875000021242, 35.01208333267971], [73.7887499993131, 35.01375000036228], [73.7854166657466, 35.01708333302946], [73.78291666647101, 35.01791666642106], [73.77958333290456, 35.02124999998756], [73.77374999916321, 35.02124999998755], [73.76624999953788, 35.01458333375387], [73.75541666634615, 35.014583332854556], [73.75291666617125, 35.017083333928774], [73.74624999993762, 35.0162499996378], [73.74291666637112, 35.01708333302946], [73.74041666619627, 35.01958333320431], [73.73625000013743, 35.021249999987546], [73.73374999996258, 35.02124999998756], [73.73291666567167, 35.02124999998755], [73.73291666657099, 35.02041666659597], [73.72458333265473, 35.02041666659596], [73.72208333247988, 35.02291666677081], [73.72208333247988, 35.02541666604634], [73.7195833332043, 35.02708333372891], [73.7154166662462, 35.027916666221245], [73.71291666607135, 35.027916667120564], [73.7120833326797, 35.02791666712056], [73.70791666662092, 35.02625000033731], [73.70541666644607, 35.02291666677082], [73.70541666644607, 35.01791666642105], [73.70291666627116, 35.01708333302946], [73.69374999896333, 35.01708333302946], [73.69374999986263, 35.01625000053713], [73.69124999968778, 35.01624999963779], [73.68708333272969, 35.01708333302946], [73.68624999933803, 35.01874999981271], [73.680416666496, 35.01791666642105], [73.68041666559668, 35.01708333302946], [73.680416666496, 35.01541666624621], [73.67874999971275, 35.01208333357904], [73.68124999988765, 35.00958333340418], [73.68041666559668, 35.00541666644603], [73.680416666496, 35.00041666699565], [73.67708333292956, 34.99374999986264], [73.67124999918815, 34.991249999687795], [73.67041666669587, 34.98791666702061], [73.66374999956287, 34.98041666649601], [73.65208333297949, 34.980416666496], [73.6487500003123, 34.984583333454104], [73.6454166667458, 34.986250000237355], [73.64291666657095, 34.984583333454104], [73.6404166663961, 34.986249999338035], [73.6329166658715, 34.99374999986266], [73.6329166658715, 34.997083332529826], [73.63124999908825, 35.004583333054434], [73.62624999963782, 35.00625000073699], [73.62541666714554, 35.00791666662093], [73.62458333285457, 35.00791666662093], [73.62291666607132, 35.00791666662093], [73.61958333250487, 35.00624999983768], [73.61374999966279, 35.00041666609632], [73.61041666609634, 35.00041666609632], [73.60958333270469, 34.99791666682074], [73.60624999913819, 34.997083332529826], [73.59875000041222, 34.997083333429146], [73.59291666667087, 34.995416666645895], [73.58874999971277, 34.99625000003755], [73.58708333382884, 34.99624999913822], [73.58124999918817, 34.990416666296134], [73.57541666634614, 34.98958333380387], [73.57375000046221, 34.99125000058712], [73.56291666637111, 34.99124999968779], [73.55875000031233, 34.98958333290454], [73.55874999941301, 34.98874999951294], [73.55875000031233, 34.98791666702061], [73.56374999976276, 34.98375000006252], [73.56374999976276, 34.980416666496005], [73.56208333297951, 34.97958333400373], [73.56208333387885, 34.972916666870724], [73.56041666619626, 34.96958333330423], [73.55541666674583, 34.968749999912625], [73.55541666674583, 34.963749999562886], [73.55374999996258, 34.96208333277962], [73.55374999996258, 34.95875000011244], [73.55208333317933, 34.955416666546], [73.55374999996258, 34.95458333315435], [73.55374999996258, 34.95041666619625], [73.55208333228, 34.94875000031231], [73.55291666657098, 34.94291666657096], [73.54791666622123, 34.937083332829616], [73.54624999943798, 34.93375000016243], [73.53958333320435, 34.925416666246186], [73.53708333213012, 34.9254166671455], [73.5312499992881, 34.922916666970636], [73.52875000001256, 34.920416665896475], [73.52124999948796, 34.9179166666209], [73.50374999916318, 34.91791666662088], [73.5037500000625, 34.9170833332293], [73.5029166666709, 34.91541666644605], [73.49458333275464, 34.90708333342917], [73.49458333275464, 34.90291666647102], [73.49208333347912, 34.90124999968776], [73.49124999918814, 34.89708333362898], [73.48958333330427, 34.897083333628984], [73.48958333330427, 34.89625000023739], [73.48958333240495, 34.89458333345413], [73.48958333240495, 34.887083332929535], [73.49291666597139, 34.88291666687075], [73.48958333240495, 34.882083333479095], [73.48958333330427, 34.87958333330425], [73.49124999918814, 34.87458333295451], [73.49458333275464, 34.87125000028731], [73.49541666704562, 34.87124999938799], [73.49458333365396, 34.866249999937615], [73.49125000008752, 34.86624999993762], [73.47624999993758, 34.85958333280462], [73.47124999958788, 34.854583333354185], [73.47124999958788, 34.852916666570934], [73.46541666674585, 34.85041666639609], [73.46208333228003, 34.84791666712056], [73.4570833328296, 34.842916665871485], [73.456249999438, 34.83791666642105], [73.45041666659597, 34.834583332854606], [73.44624999963781, 34.83041666589645], [73.44041666589646, 34.829583333404166], [73.44041666679578, 34.82041666609631], [73.43791666572163, 34.81791666682079], [73.43958333340419, 34.814583333254284], [73.43958333340419, 34.803750000062514], [73.43541666644603, 34.801249999887666], [73.43541666644603, 34.800416666496], [73.43125000038725, 34.800416666496], [73.4295833327047, 34.802083333279256], [73.42624999913818, 34.802083333279256], [73.42541666574658, 34.80041666649599], [73.4212499996878, 34.799583334003714], [73.41541666594645, 34.7995833331044], [73.41291666667087, 34.79625000043723], [73.40791666542185, 34.796249999537906], [73.404583333654, 34.79958333310441], [73.40124999918817, 34.80124999988766], [73.39791666652098, 34.80124999988766], [73.39624999883841, 34.79958333310441], [73.39624999883841, 34.798749999712754], [73.39624999973773, 34.7962499995379], [73.39624999973773, 34.79458333365397], [73.39958333240492, 34.791250000087466], [73.40125000008749, 34.78791666652097], [73.40124999918817, 34.78041666689569], [73.39874999991264, 34.779583333504085], [73.39708333312939, 34.776249999937576], [73.39125000028736, 34.7720833329795], [73.3904166668957, 34.769583332804636], [73.3870833333292, 34.769583333703956], [73.3862499999376, 34.76791666692071], [73.3829166663711, 34.76708333352905], [73.37791666602135, 34.76708333262974], [73.3754166658465, 34.766250000137454], [73.37374999996257, 34.763749999962556], [73.37374999906325, 34.757916667120526], [73.36624999943797, 34.75791666622119], [73.36208333337919, 34.75374999926309], [73.36041666659594, 34.74874999981267], [73.36041666659594, 34.744583333753894], [73.35708333392876, 34.74041666679579], [73.35708333302944, 34.73958333340415], [73.35541666624619, 34.73958333340414], [73.3512500001874, 34.74291666697064], [73.34958333340415, 34.74708333302942], [73.34958333250484, 34.75208333337917], [73.34875000001256, 34.75624999943796], [73.35041666589649, 34.757083332829616], [73.35041666679581, 34.76124999978771], [73.35208333267974, 34.763749999962556], [73.34624999893833, 34.767083333529044], [73.34208333287955, 34.771250000487164], [73.33625000003752, 34.77874999921312], [73.3362499991382, 34.78708333312936], [73.33291666647102, 34.78708333312937], [73.3304166671955, 34.788749999912625], [73.32874999951294, 34.78874999991262], [73.32791666702065, 34.788749999912625], [73.32458333345414, 34.78624999973777], [73.31791666632114, 34.78541666724544], [73.31291666687076, 34.783750000462184], [73.3087499999126, 34.78041666689568], [73.3087499999126, 34.77708333332924], [73.3054166663461, 34.77374999976275], [73.30375000046224, 34.77374999976275], [73.301249999388, 34.77041666709556], [73.29458333315438, 34.771250000487164], [73.29458333315438, 34.772916666371096], [73.29208333297947, 34.7720833329795], [73.28624999923812, 34.77791666672084], [73.28541666584653, 34.782916666171275], [73.2837499999626, 34.78374999956287], [73.28041666639609, 34.79125000008748], [73.28041666639609, 34.793750000262385], [73.27625000033731, 34.79791666632115], [73.27291666677081, 34.7962499995379], [73.26958333320431, 34.7962499995379], [73.26708333213014, 34.793750000262385], [73.25791666662093, 34.792916666870724], [73.25541666644608, 34.796249999537906], [73.25041666609633, 34.79625000043723], [73.25041666609633, 34.79208333347912], [73.24708333252983, 34.787916666520964], [73.24458333235498, 34.78791666652097], [73.24291666647105, 34.78541666634612], [73.23041666649601, 34.785416666346116], [73.22791666542184, 34.78624999973776], [73.22374999936306, 34.782083332779614], [73.21958333330423, 34.78125000028735], [73.21208333367895, 34.77541666654599], [73.21208333277963, 34.76541666584648], [73.21541666634613, 34.76041666729543], [73.21791666652098, 34.75375000016243], [73.22208333257981, 34.75208333337916], [73.22208333257981, 34.748749999812674], [73.22041666669588, 34.74708333392874], [73.21791666652098, 34.742083333579046], [73.2129166670706, 34.738750000012544], [73.20708333242993, 34.73791666662094], [73.20624999993761, 34.73375000056211], [73.20624999903828, 34.72791666682076], [73.20458333225503, 34.72791666592144], [73.2029166663711, 34.724583333254245], [73.20374999886343, 34.72041666629616], [73.20124999958784, 34.71625000023738], [73.19708333352906, 34.71208333327929], [73.19708333262975, 34.707916667220445], [73.20041666619625, 34.70375000026235], [73.20041666619625, 34.692083332779646], [73.20208333387882, 34.691250000287305], [73.2029166663711, 34.68708333332922], [73.20125000048716, 34.68541666654597], [73.1979166660214, 34.68541666654596], [73.19374999996256, 34.687083333329205], [73.18958333300446, 34.6837499997627], [73.18708333372894, 34.677083333529076], [73.18708333282962, 34.67124999978773], [73.18458333355403, 34.66874999961282], [73.18291666587152, 34.66541666604631], [73.18291666587152, 34.66041666659595], [73.18374999926311, 34.65708333302945], [73.17958333320433, 34.657083333029455], [73.17708333302943, 34.655416666246204], [73.17208333357905, 34.655416666246204], [73.1712499992881, 34.653749999462946], [73.1679166666209, 34.65374999946294], [73.16708333232998, 34.65208333267969], [73.16208333287955, 34.652083333579014], [73.15958333360402, 34.64958333250485], [73.15208333307942, 34.6512500001874], [73.14708333362898, 34.647916666620915], [73.14291666667089, 34.647916666620915], [73.14291666577157, 34.650416666795756], [73.13958333220506, 34.652083333579014], [73.13458333275469, 34.652083333579014], [73.13375000026235, 34.652083333579014], [73.13041666669585, 34.64875000001257], [73.12541666634615, 34.64541666644607], [73.11541666654597, 34.642916667170475], [73.11124999958787, 34.642916666271155], [73.11125000048719, 34.64208333377888], [73.10708333262977, 34.639583333604044], [73.10541666584652, 34.635416666645874], [73.10541666584652, 34.627083333629], [73.10374999996259, 34.62208333327924], [73.10625000013744, 34.620416666496], [73.10541666584652, 34.61375000026237], [73.10291666567161, 34.61291666687072], [73.10374999906327, 34.60541666634611], [73.10208333317934, 34.603750000462185], [73.10208333317934, 34.59875000011249], [73.10124999978774, 34.59541666654598], [73.09874999961283, 34.593749999762736], [73.09874999961283, 34.59124999958789], [73.10124999978774, 34.58875000031229], [73.10208333317934, 34.586250000137454], [73.09374999926314, 34.58291666657095], [73.09375000016246, 34.579583333004436], [73.09124999998755, 34.575416666945664], [73.09041666659596, 34.575416666945664], [73.0895833332043, 34.568750000712036], [73.08791666732037, 34.565416667145534], [73.08874999891339, 34.56541666624622], [73.08874999891339, 34.55874999911322], [73.09041666569664, 34.557083334128606], [73.09041666569664, 34.55041666609634], [73.09124999908823, 34.54875000021241], [73.09708333372892, 34.54875000021241], [73.09958333300449, 34.54791666592143], [73.10458333245487, 34.54291666647105], [73.10708333352909, 34.54125000058712], [73.11208333297947, 34.53958333290455], [73.1162499990383, 34.53208333327927], [73.11708333332922, 34.526249999537924], [73.1162499990383, 34.52041666579651], [73.11791666582155, 34.51874999991265], [73.11791666582155, 34.51625000063706], [73.11541666654597, 34.512916666171236], [73.11208333297947, 34.51208333367895], [73.10874999941302, 34.50875000011246], [73.10791666692069, 34.505416666545955], [73.10458333245487, 34.501249999587856], [73.10124999978774, 34.499583333703924], [73.10124999978774, 34.49291666657097], [73.09874999961283, 34.489583333004475], [73.09875000051215, 34.483750000162445], [73.09375000016246, 34.48124999998753], [73.08208333357902, 34.48124999998753], [73.0820833326797, 34.478750000712004], [73.07958333340417, 34.47625000053717], [73.07958333340417, 34.47374999946293], [73.07791666662092, 34.47041666679581], [73.07708333233, 34.47041666679582], [73.0787499991132, 34.467916666620916], [73.0779166657216, 34.46374999966282], [73.07791666662092, 34.45541666664588], [73.07708333322933, 34.45291666647102], [73.07875000001252, 34.451249999687775], [73.07875000001252, 34.44624999933808], [73.0812499992881, 34.44208333327925], [73.08041666679577, 34.44208333327924], [73.07708333322933, 34.43874999971274], [73.07708333233, 34.437083332929554], [73.06958333270472, 34.42958333330427], [73.06791666682079, 34.42458333295452], [73.06791666592147, 34.42291666707058], [73.06541666664589, 34.42291666617126], [73.05958333290454, 34.422083333678984], [73.05791666612129, 34.426249999737756], [73.05124999988766, 34.427916666521014], [73.050416666496, 34.43125000008746], [73.0470833329295, 34.43125000008746], [73.0462499995379, 34.43125000008745], [73.04375000026238, 34.428749999912604], [73.04208333347913, 34.42541666724542], [73.03874999991262, 34.42458333295451], [73.03125000028734, 34.42458333295451], [73.02958333350409, 34.42291666707058], [73.02624999993759, 34.42291666617126], [73.02041666619624, 34.41708333332923], [73.01708333262974, 34.41624999993758], [73.01124999978771, 34.41041666709555], [73.01041666639613, 34.40708333352904], [73.00208333337919, 34.39874999961284], [73.00124999908826, 34.398749999612846], [73.00124999998758, 34.39791666622124], [73.00124999998758, 34.396249999438], [73.00291666677083, 34.39375000016241], [73.00375000016243, 34.386250000537146], [73.00541666694568, 34.385416666246215], [73.00541666694568, 34.37541666644602], [73.00708333282961, 34.37208333287958], [73.00958333300446, 34.370416666096325], [73.01041666639613, 34.37041666609633], [73.00791666622122, 34.36791666682075], [73.00541666694568, 34.36791666682075], [73.00041666659592, 34.364583333254295], [72.99208333357905, 34.36458333325429], [72.9862499998377, 34.3612499996878], [72.98458333215513, 34.35875000041221], [72.98458333305445, 34.35541666594645], [72.9829166662712, 34.35458333345411], [72.98208333287954, 34.351249999887614], [72.97458333235494, 34.347916666321176], [72.97208333307941, 34.345416667045576], [72.97041666629616, 34.345416666146264], [72.96708333362898, 34.349583333104356], [72.96708333362898, 34.34874999971277], [72.96458333255481, 34.34624999953792], [72.95791666632113, 34.345416667045576], [72.95708333292953, 34.343749999363], [72.95374999936303, 34.34291666687073], [72.947916666521, 34.342916666870735], [72.94208333277965, 34.33958333330423], [72.94208333367898, 34.338749999912636], [72.94125000028731, 34.33291666617128], [72.93874999921314, 34.33041666599639], [72.94041666689571, 34.32708333332919], [72.94124999938799, 34.32208333387883], [72.93708333242989, 34.31708333352906], [72.93041666619627, 34.31124999978772], [72.92958333280461, 34.30874999961287], [72.92458333335424, 34.30708333372894], [72.92291666657098, 34.30374999926312], [72.92041666639608, 34.30375000016244], [72.91791666622123, 34.29958333320434], [72.91791666712055, 34.29375000036225], [72.91874999961283, 34.293750000362245], [72.92458333335424, 34.28458333305446], [72.92458333245486, 34.28208333377888], [72.92208333317933, 34.27958333360403], [72.92208333317933, 34.2770833325298], [72.91208333247988, 34.267083333628996], [72.9120833333792, 34.26375000006249], [72.9154166669457, 34.26041666649604], [72.91541666604638, 34.25791666632113], [72.9129166667708, 34.25541666704561], [72.91291666587148, 34.252916666870696], [72.91208333247988, 34.25291666687069], [72.91124999908823, 34.252083333479106], [72.91124999998755, 34.245416666346095], [72.91041666659595, 34.23875000011248], [72.91375000016245, 34.23541666654597], [72.91458333265473, 34.22958333280462], [72.91791666622123, 34.226249999238114], [72.91708333282958, 34.22124999978769], [72.92041666639608, 34.21874999961284], [72.92625000013743, 34.21791666622125], [72.92791666602136, 34.21625000033731], [72.92708333352908, 34.2137500001624], [72.92791666602136, 34.21041666659596], [72.92791666692068, 34.20874999981271], [72.92458333335424, 34.20791666642105], [72.91874999961283, 34.202083333579026], [72.92041666549676, 34.19708333322929], [72.92041666639608, 34.18958333270466], [72.91791666622123, 34.186250000037546], [72.91541666604638, 34.18458333325428], [72.91458333265473, 34.1820833339787], [72.91124999908823, 34.18208333307938], [72.9079166664211, 34.178749999512945], [72.90041666679582, 34.17874999951295], [72.89708333322932, 34.17875000041227], [72.89541666644607, 34.180416666296125], [72.89041666609631, 34.182083333079376], [72.88708333342913, 34.18208333307938], [72.88541666664588, 34.18541666664588], [72.88124999968778, 34.185416666645885], [72.8695833331044, 34.173750000062505], [72.86624999953791, 34.17458333255478], [72.8595833324049, 34.17124999988767], [72.85458333295452, 34.17125000078698], [72.85125000028734, 34.17124999988765], [72.85124999938802, 34.170416666496], [72.84874999921317, 34.16958333310441], [72.84791666672083, 34.162083333479124], [72.84374999976274, 34.16041666669589], [72.84458333315433, 34.15708333312938], [72.84458333315433, 34.14458333315433], [72.84541666654599, 34.13958333370391], [72.84708333332924, 34.13875000031232], [72.84708333242992, 34.13374999996255], [72.84791666582151, 34.12958333300446], [72.84291666637114, 34.128749999612864], [72.83958333280464, 34.132083333179295], [72.83541666674586, 34.13374999996255], [72.83041666549678, 34.137083332629736], [72.82208333337917, 34.13958333280458], [72.81124999928807, 34.139583333703904], [72.81125000018744, 34.138750000312314], [72.80458333305444, 34.138750000312314], [72.79791666592143, 34.145416666546], [72.79791666682077, 34.149583332604784], [72.79458333325431, 34.153750000462196], [72.7887499995129, 34.15958333330423], [72.7887499995129, 34.16458333365397], [72.78958333380388, 34.16708333292951], [72.7920833330794, 34.16791666632116], [72.7912499996878, 34.17041666649601], [72.7887499995129, 34.17291666667085], [72.78875000041222, 34.17625000023737], [72.78708333272965, 34.18291666647105], [72.7837499991632, 34.184583333254295], [72.7845833325548, 34.188749999313075], [72.78041666649602, 34.1929166671705], [72.77624999953792, 34.19291666717049], [72.77291666597142, 34.19458333395374], [72.77208333257977, 34.19708333322928], [72.76791666562167, 34.19625000073699], [72.76208333367896, 34.19624999983766], [72.76125000028736, 34.19791666662093], [72.75458333315436, 34.19791666662093], [72.75291666547179, 34.19958333340418], [72.7529166663711, 34.20041666589645], [72.7454166658465, 34.207916666421056], [72.74291666657098, 34.20874999981271], [72.74291666657098, 34.21541666604634], [72.74541666674583, 34.217083333728894], [72.7454166658465, 34.22124999978767], [72.74124999978773, 34.223749999962585], [72.7462499992381, 34.229583333703935], [72.7462499992381, 34.23791666672082], [72.74708333262976, 34.23958333350407], [72.75124999958786, 34.240416666895726], [72.75291666547179, 34.24291666707057], [72.7529166663711, 34.246249999737756], [72.7495833328046, 34.24958333330426], [72.74958333370392, 34.252916666870696], [72.7462499992381, 34.25708333382885], [72.7462499992381, 34.259583333104366], [72.74374999906325, 34.26041666649604], [72.74208333317932, 34.26458333345415], [72.73624999943797, 34.267083333628996], [72.73124999998754, 34.26708333272966], [72.72708333302944, 34.26875000041224], [72.72458333285459, 34.26875000041223], [72.72291666607134, 34.272916666471005], [72.71708333232999, 34.277916666820765], [72.71374999966281, 34.27875000021236], [72.71041666699563, 34.28208333377887], [72.70791666682078, 34.282083332879544], [72.70791666592146, 34.282916667170525], [72.70708333342913, 34.287083333229305], [72.70541666574661, 34.288750000012556], [72.70541666664595, 34.29291666607133], [72.70791666682078, 34.295416666246176], [72.70874999931307, 34.30041666659593], [72.70708333342913, 34.30041666659593], [72.70541666574661, 34.30291666677077], [72.7012500005871, 34.302916665871464], [72.69875000041225, 34.30124999998753], [72.6937500000625, 34.30208333337919], [72.6854166661463, 34.302083333379194], [72.68208333347911, 34.302916666770784], [72.67874999991261, 34.30124999998753], [72.67874999991261, 34.30208333337919], [72.67541666634611, 34.30208333337918], [72.67208333277966, 34.304583332654715], [72.67124999938801, 34.30708333372894], [72.66291666637113, 34.30708333282962], [72.6579166669207, 34.314583333354214], [72.65291666657095, 34.3154166658465], [72.6504166663961, 34.32041666709556], [72.64458333265475, 34.320416667095564], [72.64041666659597, 34.32125000048717], [72.63624999963781, 34.32041666709557], [72.63541666624621, 34.3229166663711], [72.63208333267971, 34.32458333315436], [72.63208333267971, 34.3262499999376], [72.63541666624621, 34.332083332779625], [72.63458333285456, 34.336250000637044], [72.63208333267971, 34.33791666652097], [72.63125000018744, 34.34208333347908], [72.63208333267971, 34.34375000026233], [72.62624999983768, 34.348749999712766], [72.62041666609633, 34.347916667220474], [72.60875000041227, 34.34791666632117], [72.60624999933805, 34.35041666649601], [72.60208333327928, 34.352083333279275], [72.59375000026233, 34.35375000006251], [72.58708333312939, 34.352916666670865], [72.57874999921313, 34.35291666577153], [72.57124999958785, 34.349583333104356], [72.56708333352907, 34.352916666670865], [72.55874999961287, 34.352916666670865], [72.55625000033729, 34.351249999887614], [72.55041666659594, 34.351249999887614], [72.54541666624618, 34.350416667395336], [72.54124999928808, 34.34708333382883], [72.5379166666209, 34.34708333292952], [72.53624999983765, 34.34458333275466], [72.5304166660963, 34.344583333653986], [72.52458333325427, 34.342083332579755], [72.51958333290457, 34.34208333347909], [72.51625000023739, 34.34375000026233], [72.50874999971279, 34.343750000262325], [72.50458333275465, 34.34458333275467], [72.50291666597144, 34.34624999953791], [72.48958333260475, 34.34625000043724], [72.48624999993763, 34.34791666722048], [72.48208333297947, 34.34791666722049], [72.48124999958787, 34.354583333454116], [72.47958333370396, 34.35791666612129], [72.47625000013744, 34.35958333290455], [72.47708333262977, 34.366250000037496], [72.47458333335419, 34.37124999948792], [72.46874999961284, 34.36958333270468], [72.46708333372891, 34.370416666995645], [72.46291666677081, 34.369583333603984], [72.45708333302946, 34.36958333270468], [72.45541666624621, 34.36708333342915], [72.45291666607136, 34.36708333342915], [72.44958333250486, 34.37041666609633], [72.44458333305444, 34.37125000038724], [72.43708333252982, 34.37791666662092], [72.43374999986264, 34.378750000012516], [72.4312499996878, 34.37875000001252], [72.42874999951295, 34.38291666607131], [72.42541666684576, 34.38624999963781], [72.42791666612129, 34.389583333204314], [72.42791666612129, 34.394583333554074], [72.42541666594644, 34.39875000051216], [72.42291666577154, 34.4012499997877], [72.42458333255479, 34.4037499999626], [72.42458333255479, 34.404583333354196], [72.42458333345411, 34.40541666674584], [72.42208333327926, 34.40625000013743], [72.41874999971276, 34.40958333370395], [72.41708333292951, 34.40958333280463], [72.41208333257983, 34.40958333370395], [72.41208333347913, 34.40874999941298], [72.39791666672085, 34.40874999941298], [72.39374999976275, 34.40958333370396], [72.388749999413, 34.41208333387879], [72.388749999413, 34.41624999993758], [72.38374999906324, 34.41874999921316], [72.38124999978771, 34.42124999938801], [72.37708333282961, 34.42125000028732], [72.37541666604636, 34.42458333295451], [72.37541666694568, 34.42874999991261], [72.37375000016243, 34.43041666669585], [72.37375000016243, 34.43375000026235], [72.36624999963783, 34.43541666614629], [72.3612500001874, 34.43541666704561], [72.35791666662095, 34.43458333365396], [72.3529166662712, 34.43625000043722], [72.34875000021242, 34.43458333365396], [72.34208333307942, 34.437083333828866], [72.33874999951291, 34.437083333828866], [72.33208333327929, 34.440416666496], [72.33208333237997, 34.44124999988765], [72.33124999988763, 34.440416666496], [72.32458333275468, 34.440416666496], [72.32124999918818, 34.44124999988765], [72.31624999973775, 34.437083333828866], [72.30708333332922, 34.43874999971274], [72.30124999958787, 34.43874999971273], [72.29458333245486, 34.435416667045615], [72.29374999996259, 34.43708333292955], [72.28624999943798, 34.437083333828866], [72.2829166667708, 34.4362499995379], [72.28124999998755, 34.4329166668707], [72.27291666607135, 34.43291666687071], [72.27125000018742, 34.43041666669586], [72.26708333322932, 34.430416666695855], [72.26624999983767, 34.43208333257979], [72.26125000038729, 34.43291666687071], [72.25874999931307, 34.43708333292954], [72.25124999968779, 34.44458333345415], [72.25124999968779, 34.445416665946425], [72.24958333290454, 34.443750000062494], [72.24458333255478, 34.44374999916317], [72.24291666667092, 34.44541666594643], [72.23458333275465, 34.445416666845745], [72.23374999936306, 34.447916666121266], [72.23041666669587, 34.447916666121266], [72.22958333330422, 34.44958333290452], [72.22291666617127, 34.45374999986268], [72.22208333277962, 34.45374999986268], [72.22041666689574, 34.45541666664587], [72.21958333350409, 34.461250000387274], [72.21958333350409, 34.46624999983765], [72.22124999938802, 34.46875000001256], [72.22124999938802, 34.47708333392875], [72.22208333367894, 34.47958333320429], [72.22208333277962, 34.48874999961282], [72.22374999956287, 34.49124999978772], [72.21791666672084, 34.494583333354235], [72.21624999993759, 34.49625000013743], [72.21124999958789, 34.49625000013743], [72.20291666657096, 34.50291666637111], [72.20208333228004, 34.50291666637111], [72.20208333317936, 34.50624999993761], [72.20458333245489, 34.50875000011246], [72.20291666657096, 34.51291666617124], [72.20374999996261, 34.51291666617123], [72.20625000013746, 34.5137499995629], [72.20791666692071, 34.51708333312939], [72.21041666619624, 34.517916666520996], [72.21791666672084, 34.51791666652098], [72.22208333277962, 34.52291666687074], [72.22541666634612, 34.524583333653986], [72.2295833324049, 34.52458333275467], [72.2320833325798, 34.52708333292953], [72.23374999936306, 34.52708333292953], [72.23375000026238, 34.53458333255481], [72.2354166661463, 34.537916667020625], [72.22708333312937, 34.54208333307939], [72.22791666652103, 34.54708333342916], [72.22458333295452, 34.550416666995666], [72.22291666617127, 34.55041666609634], [72.21958333350409, 34.55374999966279], [72.21958333350409, 34.55875000001254], [72.2187500001125, 34.563749999462964], [72.21708333332924, 34.56458333285456], [72.21708333332924, 34.56791666642108], [72.22374999956287, 34.575416666046344], [72.22291666617127, 34.58124999978771], [72.22458333295452, 34.58208333317936], [72.22458333295452, 34.582916666570945], [72.2362499995379, 34.5804166663961], [72.23791666632115, 34.57874999961285], [72.24458333345416, 34.578749999612846], [72.25541666664589, 34.581250000687014], [72.26208333287957, 34.581249999787694], [72.26374999966282, 34.584583333354196], [72.26458333305442, 34.59125000048721], [72.26708333233, 34.59208333297948], [72.27041666679577, 34.595416666545994], [72.2745833328546, 34.59708333332924], [72.2754166662462, 34.59958333350408], [72.2754166662462, 34.60041666689574], [72.27791666642105, 34.600416665996356], [72.28291666587148, 34.604583332954505], [72.2862500003373, 34.604583333853846], [72.29541666674584, 34.61208333347912], [72.30291666637113, 34.61208333347911], [72.31291666707057, 34.61375000026237], [72.32124999918818, 34.61375000026237], [72.32291666597143, 34.61458333275465], [72.32791666632113, 34.6195833331044], [72.33124999988763, 34.619583334003714], [72.33124999988763, 34.61874999971275], [72.33208333327929, 34.61875000061207], [72.33458333345413, 34.61875000061207], [72.33874999951291, 34.61874999971274], [72.34124999968782, 34.62041666649599], [72.34458333235494, 34.62041666649599], [72.34791666682077, 34.6237500000625], [72.3504166660963, 34.62375000006251], [72.3529166662712, 34.62624999933803], [72.35458333305445, 34.62625000023735], [72.35458333305445, 34.62791666612128], [72.35791666662095, 34.62874999951292], [72.36041666589648, 34.63208333307943], [72.36124999928808, 34.636250000037535], [72.36625000053715, 34.63958333360402], [72.37041666569661, 34.6479166666209], [72.37291666587151, 34.65041666679576], [72.37291666677083, 34.66041666659595], [72.37458333355403, 34.66124999998753], [72.37374999926311, 34.66458333355406], [72.37541666694568, 34.66625000033729], [72.37874999961286, 34.66625000033729], [72.37958333300446, 34.667916667120544], [72.38625000013747, 34.67041666639608], [72.3929166663711, 34.6704166672954], [72.39624999903828, 34.67374999996258], [72.4004166668957, 34.67958333280461], [72.40374999956289, 34.680416666196265], [72.40458333295453, 34.68208333387878], [72.40791666652098, 34.68208333297945], [72.40874999901331, 34.68375000066202], [72.41374999936306, 34.68374999976271], [72.41458333275466, 34.68541666654596], [72.42291666667091, 34.688750000112464], [72.42625000023736, 34.688750000112464], [72.42625000023736, 34.6862499999376], [72.42958333290454, 34.68458333315437], [72.42958333380386, 34.68124999958786], [72.43874999931307, 34.67958333370392], [72.4479166657216, 34.679583333703924], [72.45041666679577, 34.676250000137436], [72.46124999908824, 34.67624999923811], [72.46874999961284, 34.675416666745825], [72.47041666639609, 34.67458333335417], [72.47041666639609, 34.675416666745825], [72.47208333317934, 34.67791666602136], [72.47458333335419, 34.67875000031233], [72.47541666674584, 34.68124999958787], [72.47875000031235, 34.68291666637112], [72.48374999976272, 34.68791666672086], [72.48291666637112, 34.690416665996395], [72.48291666637112, 34.698750000811906], [72.48624999993763, 34.70208333347908], [72.48624999993763, 34.707083332929535], [72.4879166658215, 34.7087500006121], [72.491249999388, 34.70874999971277], [72.49291666617125, 34.71124999988763], [72.49624999973776, 34.71291666667088], [72.49874999991262, 34.71291666667088], [72.49874999901328, 34.71208333327928], [72.50291666597144, 34.70874999971278], [72.50624999953789, 34.70875000061209], [72.51041666649604, 34.71041666649603], [72.51375000006249, 34.71041666649603], [72.51708333272967, 34.70708333292953], [72.52041666629617, 34.70541666704559], [72.52874999931305, 34.70541666704559], [72.52874999931305, 34.70625000043719], [72.5304166660963, 34.70625000043719], [72.53124999948795, 34.70625000043719], [72.53541666644605, 34.707916666321125], [72.53541666644605, 34.70874999971278], [72.53958333340417, 34.709583333104376], [72.54458333285459, 34.71458333345413], [72.54291666607133, 34.71708333362897], [72.54374999946299, 34.719583332904556], [72.5479166664211, 34.722083333079404], [72.55291666587146, 34.722916666471015], [72.55541666604637, 34.72458333325425], [72.55624999943797, 34.73124999948794], [72.55624999943797, 34.73958333340414], [72.55541666604637, 34.739583333404134], [72.55791666622122, 34.7437500003623], [72.56374999906325, 34.74374999946298], [72.56541666674582, 34.74625000053714], [72.5720833329795, 34.74791666642108], [72.5762499999376, 34.752083333379176], [72.5754166656467, 34.75541666604636], [72.5720833329795, 34.76124999978771], [72.57124999958785, 34.76625000013746], [72.57374999976275, 34.77041666619623], [72.57374999976275, 34.772083333878804], [72.5754166656467, 34.77208333297949], [72.5770833333292, 34.775416666545986], [72.5770833333292, 34.7920833325798], [72.57791666672085, 34.796249999537906], [72.58291666617129, 34.80124999988765], [72.58291666617129, 34.804583333454104], [72.58124999938804, 34.80541666594643], [72.58041666599638, 34.8104166662962], [72.58458333205516, 34.81374999986264], [72.58541666634613, 34.81875000021239], [72.5837500004622, 34.82458333305441], [72.58374999956288, 34.829583333404166], [72.58541666634613, 34.834583332854606], [72.58208333367895, 34.83791666642106], [72.58125000028735, 34.84124999998755], [72.5795833335041, 34.8420833333792], [72.58291666617129, 34.85208333317933], [72.58541666634613, 34.854583333354185], [72.58624999973773, 34.85791666692069], [72.58624999973773, 34.862916666371106], [72.58708333312939, 34.86541666654597], [72.58958333330423, 34.86708333332922], [72.59208333257982, 34.870416666895714], [72.59208333257982, 34.887916666321125], [72.59124999918816, 34.89124999988762], [72.59291666687074, 34.89208333327923], [72.59291666687074, 34.89541666684573], [72.59375000026233, 34.89541666594641], [72.59374999936301, 34.89875000041222], [72.59374999936301, 34.90208333397874], [72.59124999918816, 34.90374999986267], [72.59125000008748, 34.90791666682077], [72.58874999991264, 34.90958333360401], [72.58874999901332, 34.912916667170514], [72.58624999883841, 34.915416667345376], [72.58791666562166, 34.92291666607133], [72.58791666562166, 34.93124999998758], [72.58958333240491, 34.93458333355402], [72.58958333240491, 34.936249999437955], [72.59208333347914, 34.939583333004464], [72.59375000026233, 34.93958333300447], [72.59541666614626, 34.94791666602139], [72.59541666614626, 34.952916666371095], [72.59708333292951, 34.953749999762756], [72.59708333292951, 34.9595833335041], [72.59874999971277, 34.96208333277963], [72.59374999936301, 34.967083333129374], [72.59041666669589, 34.96958333330423], [72.58624999973773, 34.97125000008747], [72.58541666634613, 34.97375000026232], [72.58208333367895, 34.97708333292951], [72.58124999938804, 34.981249999887616], [72.5762499999376, 34.98625000023736], [72.575416666546, 34.98625000023736], [72.575416666546, 34.98958333380387], [72.57791666672085, 34.99291666647105], [72.57708333242988, 34.99708333342914], [72.57708333242988, 35.00208333287957], [72.57875000011245, 35.00291666627117], [72.57708333242988, 35.00791666662092], [72.5770833333292, 35.01041666679578], [72.58374999956288, 35.01625000053713], [72.59041666669589, 35.01625000053713], [72.59125000008748, 35.014583333753876], [72.59791666632117, 35.014583333753876], [72.6012499989883, 35.01624999963781], [72.60124999988761, 35.02291666677081], [72.60458333345412, 35.02625000033731], [72.60458333345412, 35.02958333390382], [72.60624999933805, 35.03374999996259], [72.61291666647105, 35.037916666021374], [72.61624999913825, 35.03791666602138], [72.6187500002124, 35.041249999587876], [72.6187500002124, 35.047916666720816], [72.62125000038725, 35.0504166659964], [72.6220833337789, 35.057083333129356], [72.62374999966283, 35.06041666669585], [72.62708333322928, 35.06041666669586], [72.63041666589646, 35.061250000087504], [72.63374999946296, 35.06374999936304], [72.63541666624621, 35.06708333382886], [72.64124999908825, 35.07041666649598], [72.64291666677083, 35.07041666649599], [72.64291666677083, 35.069583333104376], [72.64541666694566, 35.06708333382887], [72.65291666657095, 35.06708333382887], [72.65625000013745, 35.06874999971279], [72.65791666602138, 35.07124999988764], [72.66291666637113, 35.07375000006248], [72.66708333332923, 35.07458333345414], [72.66875000011248, 35.07458333255483], [72.66875000011248, 35.07541666684573], [72.67125000028733, 35.07708333272968], [72.67208333367898, 35.08041666629617], [72.67541666634611, 35.084583333254265], [72.67541666634611, 35.092916666271215], [72.68374999936304, 35.10458333375391], [72.68624999953789, 35.10458333375391], [72.68625000043721, 35.1054166671455], [72.69041666559667, 35.103750000362254], [72.6929166666709, 35.103749999462934], [72.69374999916317, 35.103749999462934], [72.6962500002374, 35.10958333410366], [72.69958333380384, 35.11458333355404], [72.70041666629618, 35.11875000051219], [72.70041666629618, 35.12875000031232], [72.69708333362901, 35.130416667095574], [72.69708333362901, 35.13541666654594], [72.69958333290452, 35.1362499999376], [72.69874999951293, 35.142083332779634], [72.70124999878846, 35.14541666634613], [72.71041666609631, 35.145416667245456], [72.71708333232999, 35.15208333347908], [72.71708333232999, 35.153749999363015], [72.72124999928809, 35.157916666321164], [72.72041666679581, 35.15791666632117], [72.71624999983766, 35.16624999933805], [72.71624999983766, 35.16958333290455], [72.71291666627121, 35.1720833330794], [72.70875000021238, 35.1720833330794], [72.70791666682078, 35.17041666719547], [72.70208333397875, 35.17041666629615], [72.70041666629618, 35.1720833330794], [72.6937500000625, 35.1720833330794], [72.6929166666709, 35.174583333254304], [72.68708333292955, 35.179583332704674], [72.68624999953789, 35.17958333270468], [72.68625000043721, 35.18541666644603], [72.68791666722046, 35.18791666662093], [72.68791666632114, 35.19291666607131], [72.69041666649599, 35.194583333753876], [72.69208333327924, 35.19874999981271], [72.69458333345415, 35.20124999998757], [72.69958333380384, 35.20208333337917], [72.69958333290452, 35.20958333390376], [72.70458333235496, 35.21625000013744], [72.70458333235496, 35.220416666196236], [72.70041666629618, 35.22458333315432], [72.69875000041225, 35.22791666672082], [72.7070833325298, 35.227916665821496], [72.71208333377888, 35.22958333350408], [72.71541666554674, 35.22958333260476], [72.71541666554674, 35.23375000046218], [72.71875000001256, 35.23624999973775], [72.72291666697066, 35.236249999737765], [72.72291666697066, 35.23874999991262], [72.72541666714551, 35.24124999918813], [72.72541666624619, 35.244583333653964], [72.72375000036226, 35.24874999971274], [72.71875000001256, 35.2529166666709], [72.71791666662091, 35.2529166666709], [72.72124999928809, 35.25541666684575], [72.72291666697066, 35.25874999951292], [72.72874999981269, 35.26041666629617], [72.73291666587147, 35.25958333380384], [72.73791666712056, 35.25958333290452], [72.73958333300448, 35.262916666471014], [72.74541666674583, 35.26208333307943], [72.74875000031233, 35.26041666629618], [72.7529166663711, 35.26041666629618], [72.75874999921314, 35.26625000003753], [72.76041666689571, 35.26625000003753], [72.76041666689571, 35.269583332704705], [72.76208333277964, 35.27208333377887], [72.76458333295449, 35.27291666627116], [72.76458333295449, 35.27708333322931], [72.76208333367896, 35.278750000012565], [72.76208333367896, 35.28125000018741], [72.75958333350411, 35.282916666970664], [72.75958333350411, 35.28791666642108], [72.76541666634616, 35.290416666595945], [72.76208333367896, 35.29458333355404], [72.76208333277964, 35.301249999787736], [72.76541666634616, 35.30208333317932], [72.7704166666959, 35.30791666602135], [72.7704166666959, 35.31708333332921], [72.77125000008749, 35.32291666617123], [72.77375000026234, 35.32541666634614], [72.77458333275467, 35.328749999912645], [72.77874999971277, 35.332083332579764], [72.7779166672205, 35.33208333347909], [72.77541666614627, 35.334583333654], [72.77541666614627, 35.33791666632112], [72.77291666687074, 35.34291666667087], [72.77791666632118, 35.34708333272966], [72.77791666632118, 35.34958333290456], [72.78208333327927, 35.35208333307941], [72.78208333327927, 35.35791666682075], [72.7812499989883, 35.362083332879536], [72.78625000023737, 35.36458333305444], [72.78458333345412, 35.36958333340419], [72.7845833325548, 35.37291666697064], [72.78041666649602, 35.37291666697064], [72.77375000026234, 35.37958333320433], [72.76958333330424, 35.38291666677082], [72.76708333312939, 35.38208333247986], [72.75541666564664, 35.38208333337917], [72.75374999976276, 35.38458333355407], [72.75041666619626, 35.38708333372893], [72.74374999996259, 35.388749999612855], [72.74374999996259, 35.39208333407867], [72.73874999961282, 35.394583333354205], [72.73874999961282, 35.39625000013746], [72.73291666587147, 35.39791666692071], [72.73041666659594, 35.402916666371084], [72.72708333302944, 35.406249999937586], [72.72374999946294, 35.4129166670706], [72.71958333250484, 35.417083333129376], [72.72124999928809, 35.41958333330423], [72.72708333392876, 35.42374999936305], [72.73291666587147, 35.42625000043722], [72.73624999943797, 35.42625000043723], [72.74041666549675, 35.42791666632115], [72.74291666657098, 35.43041666739532], [72.74874999941301, 35.4379166670206], [72.74874999941301, 35.443749999862625], [72.75124999958786, 35.44625000003753], [72.75541666564664, 35.447083333429134], [72.75541666654595, 35.45541666734539], [72.75874999921314, 35.45875000001252], [72.75875000011246, 35.46291666697068], [72.75624999903829, 35.46458333285461], [72.75291666547179, 35.46458333285459], [72.75125000048718, 35.46791666642104], [72.74124999978773, 35.46791666642105], [72.73791666712056, 35.47291666587148], [72.73791666622122, 35.47458333355404], [72.74208333317932, 35.477916667120546], [72.74208333317932, 35.48041666639608], [72.74458333245491, 35.48208333317933], [72.74708333352908, 35.48541666674583], [72.75875000011246, 35.49208333297946], [72.75458333315436, 35.49374999976271], [72.75291666727043, 35.498749999213146], [72.75791666672086, 35.502916666171245], [72.76291666707061, 35.50541666724546], [72.76291666617125, 35.50624999973775], [72.76291666707061, 35.508749999912595], [72.76208333367896, 35.514583333654], [72.7645833338538, 35.51541666704559], [72.77125000008749, 35.52124999988763], [72.77291666597142, 35.52124999988763], [72.774583333654, 35.52624999933806], [72.77458333275467, 35.53041666719549], [72.77708333292952, 35.53208333307942], [72.77458333275467, 35.53458333325426], [72.77458333275467, 35.54208333287954], [72.76958333330424, 35.5429166662712], [72.76708333312939, 35.5462499998377], [72.76708333223007, 35.549583333404144], [72.76291666617125, 35.5545833337539], [72.7570833333292, 35.55708333302943], [72.75541666654595, 35.558750000711996], [72.7570833333292, 35.55874999981267], [72.76208333277964, 35.56458333355402], [72.76624999973774, 35.56541666694568], [72.76624999973774, 35.56958333300446], [72.76874999901332, 35.5679166662212], [72.774583333654, 35.56791666622121], [72.77541666614627, 35.569583333004466], [72.77874999971277, 35.569583333903765], [72.77958333310437, 35.57124999978771], [72.78625000023737, 35.57208333317931], [72.80041666699567, 35.57208333317931], [72.80291666627119, 35.5754166667458], [72.80958333340419, 35.575416666745795], [72.81291666607132, 35.576250000137456], [72.81624999963782, 35.58041666619624], [72.81458333375389, 35.58375000066206], [72.81458333285457, 35.58875000011244], [72.81708333302947, 35.59041666689569], [72.81708333302947, 35.593749999562874], [72.81874999981272, 35.59458333295452], [72.81874999981272, 35.598750000811954], [72.82041666659592, 35.60041666669588], [72.82124999908825, 35.60541666614624], [72.82375000016242, 35.607083332929506], [72.82874999961285, 35.607083332929506], [72.8312499997877, 35.610416666496015], [72.8337499990633, 35.611249999887654], [72.83791666602139, 35.61458333345411], [72.83708333352905, 35.618749999512936], [72.83875000031232, 35.622083333079395], [72.83291666657095, 35.62208333307938], [72.82958333210513, 35.618749999512936], [72.8270833328296, 35.61875000041225], [72.8237499992631, 35.614583333454114], [72.8204166656966, 35.61458333255479], [72.81791666552175, 35.617083333629004], [72.81624999963782, 35.61708333362901], [72.81458333285457, 35.61791666702061], [72.80958333250487, 35.62374999986264], [72.80958333340419, 35.627083333429134], [72.80791666662094, 35.62875000021239], [72.80791666572162, 35.63291666717049], [72.80458333305444, 35.634583333953735], [72.80458333305444, 35.63791666662092], [72.80624999893837, 35.64041666679578], [72.8062499998377, 35.645416667145525], [72.80374999876346, 35.646250000537115], [72.8037499996628, 35.651249999987556], [72.80291666627119, 35.653750000162404], [72.79958333270469, 35.657083332829586], [72.79958333270469, 35.66124999978768], [72.80125000038726, 35.66625000013744], [72.79874999931309, 35.67041666709554], [72.79875000021241, 35.67541666654597], [72.79791666682077, 35.67541666654598], [72.7962500000375, 35.677916666720826], [72.7912499996878, 35.68125000028732], [72.78624999933805, 35.680416665996404], [72.78291666577155, 35.67708333332922], [72.77958333310437, 35.67708333332922], [72.77958333220505, 35.67791666672082], [72.77874999971277, 35.683750000462226], [72.77708333292952, 35.68791666742033], [72.78124999988762, 35.69458333365396], [72.78124999988762, 35.69791666632113], [72.77791666632118, 35.70041666649604], [72.77458333275467, 35.70041666739536], [72.77124999918819, 35.70291666667088], [72.77125000008749, 35.70458333345413], [72.76374999956289, 35.70458333345414], [72.76208333277964, 35.711250000587086], [72.75791666582154, 35.71541666664591], [72.75875000011246, 35.71875000021237], [72.76041666599639, 35.71958333270469], [72.76041666599639, 35.7204166660963], [72.76041666599639, 35.72208333287954], [72.75791666672086, 35.726249999837634], [72.75458333315436, 35.72791666662091], [72.7462500001375, 35.73541666714549], [72.74374999996259, 35.73541666714549], [72.74458333335423, 35.740416666595934], [72.74458333335423, 35.746250000337284], [72.74541666674583, 35.74791666712054], [72.74041666639607, 35.74958333300446], [72.7395833339038, 35.752083333179314], [72.7354166669457, 35.75374999996256], [72.72458333285459, 35.75374999996256], [72.72458333375391, 35.75541666674581], [72.71958333340416, 35.75708333352905], [72.71624999983766, 35.75708333352905], [72.7145833330544, 35.75875000031231], [72.71124999948798, 35.75875000031231], [72.71041666609631, 35.76125000048716], [72.70791666592146, 35.76124999958784], [72.70791666682078, 35.769583333504094], [72.71124999948798, 35.77541666634613], [72.70958333270471, 35.77708333312938], [72.70208333307943, 35.780416665796565], [72.70624999913821, 35.784583333653984], [72.71041666609631, 35.787083333828846], [72.71125000038728, 35.78958333400374], [72.71041666609631, 35.79291666577154], [72.71041666609631, 35.79874999951289], [72.71291666627121, 35.80041666629614], [72.71291666627121, 35.80541666664589], [72.7145833330544, 35.80874999931307], [72.71708333322931, 35.807916665921425], [72.72291666607134, 35.80874999931308], [72.72958333230503, 35.808750000212406], [72.73708333282963, 35.814583333953735], [72.73791666712056, 35.81458333305442], [72.74041666639607, 35.813749999662825], [72.74791666692067, 35.81374999966283], [72.75374999976276, 35.81624999983767], [72.76208333367896, 35.817083333229284], [72.7645833338538, 35.82041666679578], [72.76708333312939, 35.82041666679577], [72.76708333312939, 35.82208333267971], [72.76874999991264, 35.823749999462954], [72.77125000008749, 35.82374999946297], [72.77125000008749, 35.82541666624622], [72.77291666687074, 35.82624999963781], [72.77708333382884, 35.8262499996378], [72.78458333345412, 35.82374999946296], [72.78625000023737, 35.825416666246205], [72.79041666719547, 35.825416666246205], [72.79291666647106, 35.827083333029464], [72.79708333342916, 35.82708333302947], [72.79875000021241, 35.82541666624621], [72.8029166671705, 35.82624999963781], [72.8029166671705, 35.82791666642106], [72.80458333305444, 35.82874999981271], [72.80375000056216, 35.83541666604634], [72.80458333305444, 35.83791666622125], [72.81041666679579, 35.83958333300444], [72.81125000018744, 35.844583333354194], [72.80875000001254, 35.84874999941297], [72.81375000036229, 35.849583332804634], [72.82124999998757, 35.85541666654598], [72.81874999981272, 35.86041666599641], [72.81874999981272, 35.86458333295452], [72.82124999998757, 35.86708333312935], [72.82208333337917, 35.872083333479104], [72.82124999998757, 35.87291666597138], [72.82375000016242, 35.87624999953788], [72.82458333355407, 35.88041666649598], [72.82375000016242, 35.88124999988765], [72.82541666694567, 35.88375000006249], [72.82708333372892, 35.883750000062484], [72.82708333372892, 35.88208333327924], [72.8304166663961, 35.88041666649599], [72.83208333317936, 35.87624999953789], [72.83875000031232, 35.874583332754646], [72.8379166669207, 35.872083333479104], [72.84125000048722, 35.86874999991261], [72.84291666637114, 35.868749999912616], [72.84374999976274, 35.86708333312936], [72.84875000011249, 35.86791666652101], [72.85375000046218, 35.86541666634611], [72.86125000008747, 35.85791666672082], [72.88124999968778, 35.854583333154395], [72.87958333380385, 35.85208333297947], [72.88124999968778, 35.85124999958788], [72.8804166671955, 35.84958333280463], [72.88124999968778, 35.8437499999626], [72.88458333325428, 35.84124999978769], [72.88458333325428, 35.839583333004434], [72.88875000021238, 35.836249999437996], [72.88958333360404, 35.832916666770814], [72.89125000038729, 35.83208333337917], [72.89125000038729, 35.82541666624621], [72.89458333305441, 35.821249999288106], [72.89375000056214, 35.817916666620924], [72.89708333322932, 35.81374999966283], [72.89958333340417, 35.812916666271185], [72.91124999998755, 35.81291666627117], [72.92208333317933, 35.82374999946296], [72.92625000013743, 35.82374999946297], [72.93041666709559, 35.82791666642106], [72.93291666637111, 35.82708333302947], [72.93374999976271, 35.82874999981272], [72.93541666654596, 35.82791666642107], [72.93791666672087, 35.830416666595966], [72.94291666707056, 35.830416666595966], [72.947916666521, 35.832916666770814], [72.95291666687075, 35.83208333337916], [72.95874999971278, 35.832916666770814], [72.96291666667088, 35.836249999437996], [72.97041666719548, 35.83541666604634], [72.97374999986266, 35.833750000162404], [72.97958333360401, 35.83375000016241], [72.98125000038726, 35.83208333337916], [72.98875000001254, 35.832916666770814], [72.98875000001254, 35.8287499998127], [72.99125000018739, 35.82624999963782], [72.99874999981267, 35.82458333285455], [73.00791666712053, 35.824583332854566], [73.01041666639613, 35.82624999963782], [73.01041666639613, 35.82958333320432], [73.01291666657096, 35.83291666677082], [73.01458333335421, 35.83958333300444], [73.02708333332924, 35.838749999612844], [73.03624999973778, 35.844583333354194], [73.04458333365397, 35.84625000013744], [73.04541666704564, 35.847916666021376], [73.04708333382882, 35.847916666021376], [73.04791666722048, 35.85374999976272], [73.050416666496, 35.856249999937575], [73.050416666496, 35.85791666672083], [73.0579166670206, 35.858750000112465], [73.06208333307944, 35.857916666720804], [73.06625000003754, 35.85458333315438], [73.06708333342914, 35.85624999993758], [73.07125000038724, 35.856249999937575], [73.07291666717049, 35.857916666720826], [73.07291666717049, 35.861249999388015], [73.07791666662092, 35.863749999562856], [73.08458333375393, 35.87125000008752], [73.08458333375393, 35.872916665971374], [73.08708333302945, 35.87291666597139], [73.0887499998127, 35.87041666669586], [73.0929166667708, 35.868749999912616], [73.09375000016246, 35.86624999973775], [73.09708333372892, 35.86291666617126], [73.09875000051215, 35.86291666617126], [73.09875000051215, 35.86124999938801], [73.10124999978774, 35.86041666599642], [73.10124999978774, 35.85875000011247], [73.10541666674585, 35.857916666720826], [73.10875000031234, 35.85291666637113], [73.11125000048719, 35.85291666637113], [73.11208333387879, 35.85124999958787], [73.11541666654597, 35.85041666619621], [73.11708333332922, 35.84874999941298], [73.11708333332922, 35.84541666674584], [73.12208333367897, 35.84458333335419], [73.12375000046222, 35.842916666570936], [73.1320833334791, 35.84291666657094], [73.134583333654, 35.838749999612844], [73.13791666722047, 35.83874999961284], [73.14041666649604, 35.83708333282959], [73.14958333380389, 35.837083332829586], [73.15041666719549, 35.838749999612844], [73.15208333307942, 35.838749999612844], [73.15708333342917, 35.8437499999626], [73.15625000003752, 35.848749999412966], [73.15708333342917, 35.85041666619622], [73.15958333360402, 35.85124999958788], [73.16041666699562, 35.850416666196224], [73.16041666699562, 35.85208333297947], [73.16291666717052, 35.85291666637113], [73.16375000056212, 35.85458333315438], [73.17208333357905, 35.85458333315439], [73.17541666714556, 35.85291666637113], [73.17541666714556, 35.85041666619622], [73.17791666642108, 35.84958333280463], [73.18041666659593, 35.8437499999626], [73.18541666694568, 35.83958333300444], [73.19791666692072, 35.8437499999626], [73.20041666709558, 35.8437499999626], [73.20208333387882, 35.842083333179346], [73.20458333315435, 35.84541666674585], [73.20791666672085, 35.84541666674585], [73.2137500004622, 35.848749999412966], [73.21541666724545, 35.85124999958787], [73.21874999991263, 35.85208333297947], [73.21958333330423, 35.85708333332922], [73.22125000008748, 35.85958333350408], [73.22291666687073, 35.85958333350408], [73.22291666687073, 35.861249999388015], [73.23041666649601, 35.86041666599642], [73.23291666667086, 35.861249999388], [73.23958333380386, 35.85958333350408], [73.24291666647105, 35.86291666617126], [73.24708333342915, 35.863749999562856], [73.25041666699565, 35.861249999388], [73.25708333322928, 35.86541666634609], [73.25708333322928, 35.86874999991261], [73.26041666679579, 35.87125000008752], [73.25875000001253, 35.877916666321134], [73.25541666644608, 35.880416666496], [73.25541666644608, 35.8837500000625], [73.249583333604, 35.88624999933807], [73.2529166671705, 35.88958333290452], [73.2520833337789, 35.89791666682078], [73.25458333305443, 35.900416666096305], [73.25791666662093, 35.90124999948796], [73.25791666662093, 35.903749999662814], [73.25624999983768, 35.90541666644605], [73.25125000038724, 35.90541666644606], [73.2529166671705, 35.90958333340415], [73.2520833337789, 35.91291666607133], [73.25375000056215, 35.91374999946293], [73.25375000056215, 35.91624999963785], [73.25541666644608, 35.91624999963785], [73.25624999983768, 35.917916666421085], [73.25125000038724, 35.92291666677079], [73.25125000038724, 35.92458333265472], [73.25708333322928, 35.92541666604637], [73.25958333340418, 35.929583333004466], [73.25875000001253, 35.93458333335422], [73.25624999983768, 35.93541666674582], [73.25541666644608, 35.93791666602135], [73.26208333357903, 35.9395833328046], [73.26458333375393, 35.937916666021344], [73.26708333302946, 35.9395833328046], [73.27124999998756, 35.9395833328046], [73.27625000033731, 35.93791666602135], [73.27625000033731, 35.94374999976276], [73.27875000051216, 35.943749999762765], [73.28208333317934, 35.9395833328046], [73.28625000013744, 35.940416666196256], [73.2879166669207, 35.937916666021344], [73.2920833338788, 35.93874999941299], [73.29374999976272, 35.93791666602135], [73.30208333367898, 35.946249999937606], [73.30375000046224, 35.94624999993761], [73.30458333385383, 35.94875000011246], [73.30791666652101, 35.950416665996386], [73.30708333312936, 35.95541666634613], [73.30958333330427, 35.95708333312939], [73.30958333330427, 35.95874999991264], [73.31208333347911, 35.959583333304245], [73.31375000026236, 35.9629166659714], [73.31708333382886, 35.96291666597142], [73.3187499997128, 35.96458333275468], [73.32458333345414, 35.96624999953793], [73.32791666702065, 35.96291666597141], [73.32708333362899, 35.95624999973773], [73.32875000041224, 35.95458333295449], [73.32791666702065, 35.951249999388025], [73.3295833338039, 35.9470833333292], [73.33458333325427, 35.943749999762765], [73.33958333360403, 35.94291666637111], [73.33958333360403, 35.941249999587846], [73.34208333377887, 35.93874999941299], [73.35041666679581, 35.93625000013743], [73.35625000053716, 35.928749999612826], [73.35874999981269, 35.928749999612826], [73.36208333337919, 35.926249999437964], [73.36208333337919, 35.92458333265472], [73.36458333355404, 35.92291666677079], [73.36541666694569, 35.91541666624618], [73.36791666712054, 35.91291666607133], [73.3687500005122, 35.907083333229316], [73.36791666712054, 35.906249999837655], [73.37124999978772, 35.90291666627121], [73.38125000048717, 35.90291666627121], [73.3829166663711, 35.904583333054404], [73.38875000011245, 35.9037499996628], [73.38791666672086, 35.898749999313054], [73.3895833335041, 35.89708333342913], [73.39458333385386, 35.896250000037526], [73.40125000008749, 35.88624999933808], [73.40625000043724, 35.884583333454145], [73.42041666719547, 35.8837500000625], [73.4220833330794, 35.88541666684574], [73.43125000038725, 35.88624999933806], [73.43624999983768, 35.88958333290452], [73.43708333322928, 35.882916666670894], [73.44541666714554, 35.8795833331044], [73.44625000053713, 35.87791666632115], [73.45124999998757, 35.87541666614629], [73.4612499997877, 35.87291666597139], [73.46291666657095, 35.87125000008752], [73.46625000013745, 35.87125000008752], [73.4687500003123, 35.868749999912616], [73.47791666672083, 35.86874999991261], [73.49291666687071, 35.8762499995379], [73.49375000026237, 35.874583332754646], [73.49708333382887, 35.87374999936304], [73.4995833331044, 35.87125000008752], [73.500416666496, 35.86791666652101], [73.50208333327924, 35.867916666521005], [73.50208333327924, 35.86541666634611], [73.50458333345415, 35.86291666617125], [73.50875000041225, 35.86208333277966], [73.51124999968778, 35.85958333350408], [73.51124999968778, 35.85791666672082], [73.51458333325428, 35.856249999937575], [73.53041666679582, 35.85708333332922], [73.53125000018741, 35.85958333350408], [73.53458333375391, 35.85958333350408], [73.5387499998127, 35.86458333295451], [73.5379166664211, 35.87041666669586], [73.5387499998127, 35.87291666597138], [73.54041666659595, 35.873749999363035], [73.54124999998754, 35.877916666321134], [73.54458333355404, 35.880416666495975], [73.5454166669457, 35.8829166666709], [73.55541666674583, 35.88208333327923], [73.55708333352908, 35.87708333292954], [73.55958333370394, 35.877083332929544], [73.56041666709558, 35.87458333275464], [73.56208333387885, 35.87374999936305], [73.56624999993761, 35.873749999363035], [73.56958333350411, 35.869583333304256], [73.57458333385381, 35.86958333330427], [73.5770833331294, 35.871250000087514], [73.5770833331294, 35.87291666597139], [73.584583333654, 35.87291666597138], [73.58958333310437, 35.86791666652101], [73.59541666684578, 35.86791666652102], [73.59708333362897, 35.86624999973776], [73.60041666719549, 35.86624999973776], [73.60458333325431, 35.867916666521005], [73.60541666664591, 35.86624999973776], [73.60875000021241, 35.86624999973776], [73.61125000038726, 35.863749999562856], [73.61541666644604, 35.863749999562856], [73.61541666644604, 35.86208333277966], [73.61791666662094, 35.85958333350408], [73.62625000053714, 35.86041666599641], [73.62708333302947, 35.86291666617126], [73.62874999981273, 35.86374999956286], [73.62791666642109, 35.868749999912616], [73.63124999998757, 35.87291666597139], [73.63625000033733, 35.874583332754646], [73.63791666712052, 35.87874999971279], [73.64291666657095, 35.878749999712795], [73.6445833333542, 35.877083332929544], [73.6520833338788, 35.877916666321134], [73.65624999993759, 35.87374999936304], [73.65958333350409, 35.87374999936304], [73.66458333385384, 35.87125000008752], [73.66791666652102, 35.872083333479104], [73.67208333347912, 35.87125000008752], [73.67625000043722, 35.87458333275463], [73.67791666722047, 35.877916666321134], [73.680416666496, 35.877916666321134], [73.68958333380385, 35.87041666669585], [73.69458333325429, 35.872916665971395], [73.70041666699564, 35.872083333479104], [73.70458333305442, 35.86624999973776], [73.71208333357902, 35.8645833329545], [73.71291666697067, 35.86124999938801], [73.71458333375392, 35.85958333350408], [73.7187499998127, 35.85875000011247], [73.72124999998755, 35.85458333315437], [73.72375000016245, 35.85458333315438], [73.72791666712055, 35.857916666720826], [73.74041666709559, 35.85708333332923], [73.74125000048718, 35.85791666672082], [73.74958333350412, 35.85458333315438], [73.75208333367897, 35.852083332979475], [73.75624999973775, 35.85291666637112], [73.7587499999126, 35.85208333297947], [73.76041666669585, 35.85374999976272], [73.7612500000875, 35.85791666672082], [73.76041666669585, 35.87041666669585], [73.76625000043727, 35.87125000008752], [73.7720833332793, 35.88124999988764], [73.77958333380388, 35.877083332929544], [73.78041666719548, 35.875416666146286], [73.78208333307941, 35.8754166661463], [73.78458333325426, 35.87291666597139], [73.78458333325426, 35.87125000008752], [73.78791666682076, 35.86874999991261], [73.8012500001874, 35.86624999973775], [73.8037500003623, 35.86708333312936], [73.80625000053715, 35.86458333295452], [73.81458333355408, 35.865416666346114], [73.82124999978771, 35.868749999912616], [73.82458333335421, 35.86874999991261], [73.82625000013748, 35.87291666597138], [73.82875000031231, 35.87374999936305], [73.82875000031231, 35.875416666146286], [73.83125000048722, 35.877083332929544], [73.83291666637109, 35.87458333275464], [73.83791666672084, 35.87458333275463], [73.8395833335041, 35.87125000008752], [73.8437500004622, 35.869583333304256], [73.84458333385385, 35.867916666521005], [73.85458333365398, 35.866249999737754], [73.85541666704563, 35.8645833329545], [73.85458333365398, 35.85875000011247], [73.85958333310441, 35.85791666672081], [73.86208333327926, 35.84874999941298], [73.86458333345412, 35.84874999941297], [73.86625000023736, 35.84541666674584], [73.86875000041226, 35.84541666674585], [73.87541666664589, 35.83958333300443], [73.88375000056215, 35.838749999612844], [73.89125000018743, 35.840416666396095], [73.89708333302946, 35.84541666674585], [73.89791666642105, 35.847916666021376], [73.90541666694565, 35.847916666021376], [73.9070833337289, 35.85124999958787], [73.9070833337289, 35.857916666720826], [73.91708333352909, 35.85875000011249], [73.91791666692069, 35.85708333332924], [73.92624999993762, 35.85458333315438], [73.92958333350407, 35.850416666196224], [73.93541666724548, 35.85124999958787], [73.94458333365401, 35.849583332804634], [73.9454166670456, 35.842083333179346], [73.94291666687076, 35.841249999787685], [73.94291666687076, 35.83458333265474], [73.9454166670456, 35.82791666642107], [73.95375000006248, 35.8262499996378], [73.95541666684574, 35.82374999946296], [73.96041666719549, 35.82291666607131], [73.96124999968777, 35.81958333340418], [73.96458333325427, 35.81708333322928], [73.97041666699562, 35.817083333229284], [73.97291666717052, 35.82041666679578], [73.9770833332293, 35.821249999288106], [73.97875000001255, 35.818750000012514], [73.9837500003623, 35.81875000001253], [73.98958333320435, 35.82208333267971], [73.99124999998759, 35.82041666679578], [73.99541666694569, 35.81958333340419], [73.99541666694569, 35.81458333305442], [73.99708333372894, 35.81291666627118], [74.00374999996257, 35.81291666627117], [74.01125000048717, 35.81791666662093], [74.01208333387882, 35.8212499992881], [74.0162499999376, 35.821249999288106], [74.01791666672085, 35.82291666607129], [74.02541666724545, 35.82458333285456], [74.02541666724545, 35.8220833326797], [74.02958333330423, 35.81958333340419], [74.0304166666959, 35.81541666644602], [74.0304166666959, 35.81374999966283], [74.027916666521, 35.81124999948792], [74.027916666521, 35.807916666820745], [74.02958333330423, 35.80791666682074], [74.03458333365398, 35.80208333307939], [74.03541666704558, 35.79624999933803], [74.04124999988767, 35.79458333345412], [74.04291666667086, 35.79291666667086], [74.04124999988767, 35.78791666632115], [74.04541666684577, 35.78541666614626], [74.04625000023736, 35.78041666669588], [74.04875000041227, 35.778749999912634], [74.05041666719546, 35.77124999938803], [74.0545833332543, 35.76791666672085], [74.05374999986265, 35.7620833329795], [74.06375000056215, 35.76041666619626], [74.06291666717051, 35.75625000013746], [74.06624999983768, 35.75374999996256], [74.07458333375388, 35.753749999962565], [74.07708333302946, 35.752083333179314], [74.08124999998756, 35.75208333317932], [74.08458333355406, 35.753749999962565], [74.09291666657094, 35.75374999996256], [74.09625000013745, 35.75541666674582], [74.0987500003123, 35.754583333354226], [74.10624999993763, 35.74708333282961], [74.10958333350408, 35.74541666604636], [74.11041666689573, 35.74124999998759], [74.11208333367898, 35.73958333320433], [74.11708333312936, 35.738749999812676], [74.12041666669586, 35.73291666607134], [74.12625000043721, 35.7304166667958], [74.12708333382886, 35.722916666271196], [74.13124999988766, 35.7229166662712], [74.13458333345415, 35.72124999948795], [74.1362500002374, 35.7195833327047], [74.137083333629, 35.71458333325427], [74.13958333380384, 35.714583333254254], [74.14625000003753, 35.711249999687766], [74.14958333360403, 35.711249999687766], [74.15624999983766, 35.715416666645915], [74.15708333322931, 35.71791666682077], [74.15458333305446, 35.722916666271196], [74.15458333305446, 35.72624999983765], [74.15708333322931, 35.72624999983765], [74.1579166666209, 35.72958333340415], [74.16291666697066, 35.73291666607133], [74.16291666697066, 35.73708333302944], [74.17041666659594, 35.737916666421086], [74.1754166669457, 35.740416666595934], [74.17458333355404, 35.74541666604636], [74.17625000033729, 35.74708333282961], [74.1754166669457, 35.75124999978772], [74.17625000033729, 35.752083333179314], [74.18124999978772, 35.752083333179314], [74.18291666657097, 35.75458333335422], [74.18541666674584, 35.755416666745816], [74.18791666692067, 35.76124999958784], [74.19458333315436, 35.76208333297949], [74.1962499999376, 35.765416666546], [74.19791666672086, 35.765416666545995], [74.19875000011245, 35.7670833333292], [74.20291666707061, 35.76708333332919], [74.20624999973774, 35.77124999938804], [74.20791666652099, 35.77124999938803], [74.21125000008749, 35.77458333295448], [74.21125000008749, 35.77624999973773], [74.22041666649602, 35.778749999912634], [74.22124999988762, 35.784583332754664], [74.21708333382884, 35.78541666614626], [74.21625000043724, 35.787916666321166], [74.21874999971277, 35.79124999988761], [74.21791666722049, 35.792916666670855], [74.22124999988762, 35.794583333454106], [74.22208333327927, 35.80041666629614], [74.22458333345412, 35.802083333079395], [74.22541666684577, 35.80625000003755], [74.21958333310442, 35.80708333342915], [74.21625000043724, 35.81041666609633], [74.21625000043724, 35.812083332879574], [74.21958333310442, 35.81208333287957], [74.22541666684577, 35.817916666620924], [74.22791666702062, 35.81791666662092], [74.22958333380387, 35.819583333404175], [74.2362500000375, 35.817083333229284], [74.239583333604, 35.81791666662093], [74.24541666644603, 35.817083333229284], [74.25625000053714, 35.81958333340419], [74.25708333302947, 35.81708333322928], [74.26291666677082, 35.81541666644603], [74.26375000016242, 35.81374999966283], [74.2779166669207, 35.812083332879574], [74.28291666637114, 35.80791666682075], [74.2887500001125, 35.80791666682075], [74.29375000046218, 35.81124999948793], [74.29708333312936, 35.81124999948792], [74.30041666669587, 35.80791666682074], [74.30791666722047, 35.807916666820745], [74.310416666496, 35.80625000003756], [74.3137500000625, 35.80625000003755], [74.3162500002374, 35.81208333287958], [74.31958333380385, 35.81291666627118], [74.3204166671955, 35.81124999948792], [74.32291666647103, 35.810416666096316], [74.32875000021238, 35.809583332704676], [74.33125000038729, 35.81041666609632], [74.33375000056213, 35.80708333342915], [74.33958333340416, 35.806250000037544], [74.34041666679582, 35.80458333325429], [74.34291666697067, 35.803749999862646], [74.35875000051215, 35.80208333307937], [74.38208333367896, 35.803749999862646], [74.38458333385381, 35.797916666121296], [74.39291666687075, 35.7979166661213], [74.3979166672205, 35.79874999951289], [74.40124999988763, 35.8012499996878], [74.40458333345413, 35.80124999968779], [74.40791666702063, 35.80291666647105], [74.40958333380388, 35.80541666664589], [74.41708333342916, 35.8054166666459], [74.41958333360401, 35.80791666682073], [74.4295833334042, 35.80874999931308], [74.43041666679581, 35.81041666609633], [74.44124999998758, 35.81291666627118], [74.44208333337917, 35.81541666644602], [74.44791666712052, 35.82124999928811], [74.46125000048721, 35.82041666679578], [74.46541666654599, 35.8220833326797], [74.46624999993759, 35.82041666679578], [74.4687500001125, 35.82041666679578], [74.47125000028734, 35.81791666662094], [74.47458333385384, 35.817083333229284], [74.47791666652103, 35.813749999662825], [74.49874999951295, 35.81458333305443], [74.50875000021239, 35.80458333325429], [74.51124999948792, 35.8045833332543], [74.51875000001257, 35.797916667020615], [74.5295833332043, 35.79291666667086], [74.53541666604633, 35.792083333279265], [74.53874999961283, 35.787083333828825], [74.54208333317933, 35.787083333828825], [74.54791666602137, 35.78125000008748], [74.55041666619627, 35.77541666634613], [74.55208333297946, 35.77458333295447], [74.55208333297946, 35.7704166668957], [74.55458333315437, 35.765416666545995], [74.55875000011247, 35.7629166663711], [74.56208333277965, 35.76291666637109], [74.56208333277965, 35.75875000031232], [74.5637499995629, 35.757916666920714], [74.5645833329545, 35.755416666745816], [74.56958333330425, 35.75541666674582], [74.57041666669585, 35.75374999996256], [74.57541666614628, 35.752083333179314], [74.57791666632113, 35.75291666657096], [74.57874999971278, 35.751249999787724], [74.58375000006254, 35.75374999996256], [74.58958333290457, 35.74875000051219], [74.59124999968782, 35.74541666694568], [74.59291666647101, 35.74541666694568], [74.59291666647101, 35.743750000162436], [74.59625000003751, 35.740416666595934], [74.59958333270471, 35.74124999998759], [74.6029166662712, 35.739583333204344], [74.6037499996628, 35.73708333302944], [74.60541666644605, 35.73624999963783], [74.61291666607133, 35.73708333302943], [74.62124999998758, 35.74625000033728], [74.62791666622121, 35.74541666694569]]]]}}]}