{"type": "FeatureCollection", "name": "shigar", "crs": {"type": "name", "properties": {"name": "urn:ogc:def:crs:OGC:1.3:CRS84"}}, "features": [{"type": "Feature", "properties": {"OBJECTID": 1, "FID_waters": 1, "FID_wate_1": 0, "gid": 0.0, "FID_wate_2": -1, "gid_1": 0.0, "FID_wate_3": -1, "gid_12": 0.0, "Shape_Leng": 10.3429443769, "Shape_Area": 1.36164861121, "g_count": 1313, "g_area": 3448.3338269033, "c_area": 13719.880835298987}, "geometry": {"type": "MultiPolygon", "coordinates": [[[[75.60208333357906, 36.122916667270424], [75.60708333392876, 36.12208333387882], [75.61708333372894, 36.122083333878834], [75.62041666729544, 36.12041666709558], [75.62791666692073, 36.119583333703936], [75.635416666546, 36.114583333354176], [75.6362499999376, 36.11291666657098], [75.64458333385386, 36.11291666657098], [75.64458333385386, 36.112083333179335], [75.654583333654, 36.112083333179335], [75.65708333382884, 36.111249999787724], [75.66124999988762, 36.11541666674582], [75.66291666667087, 36.12208333387883], [75.66708333362902, 36.12208333387883], [75.6720833330794, 36.12125000048718], [75.67708333342915, 36.11875000031234], [75.679583333604, 36.11875000031234], [75.68624999983768, 36.112083333179314], [75.68624999983768, 36.11041666729539], [75.68958333340419, 36.10791666712054], [75.69541666714554, 36.10625000033728], [75.69958333320432, 36.1029166667708], [75.69958333320432, 36.101249999987544], [75.69541666714554, 36.09708333392876], [75.69458333375388, 36.09458333375392], [75.68958333340419, 36.092083333579005], [75.68541666644603, 36.08875000001257], [75.68541666644603, 36.08624999983766], [75.69458333375388, 36.082083333778876], [75.69874999981272, 36.079583333604035], [75.69874999981272, 36.07458333325429], [75.70375000016242, 36.0712500005871], [75.70375000016242, 36.070416667195495], [75.71208333317935, 36.070416667195495], [75.71708333352912, 36.07291666647103], [75.71958333370395, 36.07208333397875], [75.72541666654598, 36.072083333978746], [75.72624999993758, 36.06958333380385], [75.73125000028733, 36.06958333380385], [75.73791666652102, 36.06708333362901], [75.74125000008752, 36.0629166666709], [75.75124999988765, 36.0629166666709], [75.75541666684576, 36.0637500000625], [75.75958333380385, 36.06124999988764], [75.75958333380385, 36.05625000043721], [75.76208333307943, 36.05291666687071], [75.757083333629, 36.05208333347912], [75.7562500002374, 36.049583333304206], [75.7604166671955, 36.04874999991262], [75.76458333325428, 36.04625000063708], [75.76791666682078, 36.042916667070585], [75.76708333342913, 36.037083333329235], [75.77041666699563, 36.032083333878795], [75.77291666717053, 36.029583333703954], [75.77375000056213, 36.02625000013745], [75.77624999983766, 36.024583333354194], [75.77791666662091, 36.01875000051217], [75.78041666679582, 36.01708333372892], [75.78708333392876, 36.01708333372893], [75.7929166667708, 36.01375000016242], [75.81875000011246, 36.01375000016241], [75.81958333350411, 36.015416666945676], [75.82291666707056, 36.016250000337315], [75.82791666652099, 36.019583333903775], [75.82791666652099, 36.02208333317935], [75.83208333347909, 36.02208333317937], [75.83625000043725, 36.02041666729542], [75.84291666667087, 36.020416667295414], [75.84708333362897, 36.01958333390378], [75.85041666719549, 36.02208333317935], [75.85958333360401, 36.020416667295414], [75.86875000001254, 36.02041666729542], [75.87041666679579, 36.02291666657095], [75.87375000036229, 36.02291666657095], [75.87458333375389, 36.025416666745784], [75.88041666659592, 36.031250000487205], [75.88541666694567, 36.0320833338788], [75.88791666712052, 36.03624999993758], [75.8912499997877, 36.037083333329235], [75.89374999996261, 36.03958333350408], [75.89708333352905, 36.03958333350408], [75.89958333370396, 36.041250000287334], [75.90374999976274, 36.042083333678924], [75.91125000028734, 36.04208333367894], [75.91208333367894, 36.04791666652102], [75.90791666672084, 36.054583333653966], [75.91125000028734, 36.057083333828864], [75.91708333312937, 36.05708333382887], [75.92041666669587, 36.05875000061207], [75.92708333382888, 36.05875000061207], [75.9295833331044, 36.0595833331044], [75.9329166666709, 36.062916666670894], [75.93458333345416, 36.0629166666709], [75.94208333307944, 36.07041666719549], [75.94458333325429, 36.06875000041224], [75.94875000021239, 36.068750000412244], [75.95208333377889, 36.06708333362901], [75.95125000038729, 36.06375000006249], [75.95125000038729, 36.05458333365396], [75.95458333395374, 36.05375000026237], [75.95791666662092, 36.049583333304206], [75.95708333322932, 36.04541666724543], [75.96291666697067, 36.04375000046218], [75.96541666714552, 36.041250000287334], [75.97124999998755, 36.03875000011248], [75.9720833333792, 36.037083333329235], [75.97791666712055, 36.036249999937574], [75.98374999996258, 36.03208333387881], [75.98625000013743, 36.03208333387881], [75.98958333370393, 36.02875000031229], [75.98958333370393, 36.02708333352905], [75.99541666654596, 36.022083333179346], [76.00041666689572, 36.02208333317936], [76.00208333367897, 36.01875000051218], [76.0087499999126, 36.01875000051216], [76.01291666687075, 36.017916667120524], [76.0154166670456, 36.02041666729542], [76.02458333345413, 36.02041666729542], [76.02791666702063, 36.021249999787706], [76.03125000058714, 36.0237499999626], [76.04125000038727, 36.0237499999626], [76.04458333395377, 36.0245833333542], [76.06708333372893, 36.024583333354194], [76.06708333372893, 36.023749999962604], [76.08291666727041, 36.023749999962604], [76.09208333367894, 36.02041666729542], [76.0962500006371, 36.019583333903775], [76.09958333330422, 36.01791666712052], [76.10125000008748, 36.015416666945676], [76.09958333330422, 36.01208333337917], [76.09958333330422, 36.00625000053713], [76.09791666652097, 36.00541666714553], [76.09791666652097, 35.998750000012535], [76.09958333330422, 35.99624999983768], [76.10208333347913, 35.995416666446026], [76.10375000026238, 35.9929166671705], [76.10375000026238, 35.9862500000375], [76.10708333382883, 35.98374999986264], [76.10708333382883, 35.97791666702063], [76.10625000043723, 35.97625000023737], [76.10791666722048, 35.97625000023737], [76.11041666649601, 35.97375000006251], [76.11375000006251, 35.97208333327927], [76.11375000006251, 35.969583333104374], [76.11625000023736, 35.9679166672205], [76.12041666719551, 35.96791666722049], [76.12208333307939, 35.96541666704559], [76.1279166668208, 35.960416666695835], [76.13041666699564, 35.96041666669582], [76.13125000038724, 35.95791666652098], [76.13375000056215, 35.957916666520994], [76.13708333322933, 35.9537500004622], [76.13708333322933, 35.94958333350411], [76.13958333340418, 35.9470833333292], [76.14041666679577, 35.943749999762765], [76.14291666697068, 35.94125000048717], [76.14625000053718, 35.93291666657096], [76.1495833332043, 35.931249999787724], [76.15208333337921, 35.92875000051213], [76.15208333337921, 35.9262500003373], [76.1570833337289, 35.92124999998752], [76.16041666729541, 35.92041666659594], [76.15875000051216, 35.91458333375392], [76.15875000051216, 35.9079166666209], [76.15375000016246, 35.90291666717053], [76.1529166667708, 35.896250000037526], [76.14874999981271, 35.89374999986267], [76.14874999981271, 35.889583333803834], [76.15208333337921, 35.886250000237396], [76.1529166667708, 35.88041666649598], [76.15124999998756, 35.8795833331044], [76.15041666659596, 35.87625000043721], [76.14874999981271, 35.87541666704562], [76.15124999998756, 35.87041666669585], [76.1529166667708, 35.86541666724543], [76.15208333337921, 35.85958333350408], [76.15041666659596, 35.85791666672081], [76.14625000053718, 35.85791666672082], [76.14291666697068, 35.85458333315438], [76.14125000018743, 35.850416667095544], [76.14125000018743, 35.84791666692069], [76.14208333357902, 35.8479166669207], [76.14375000036227, 35.84625000013744], [76.14541666714553, 35.83958333390377], [76.14541666714553, 35.83541666694566], [76.14625000053718, 35.83541666694567], [76.15041666659596, 35.8337500001624], [76.15791666712056, 35.827083333928776], [76.16124999978774, 35.82625000053714], [76.16708333352909, 35.82125000018743], [76.17125000048719, 35.82041666679577], [76.17541666654597, 35.82375000036229], [76.20208333327929, 35.82375000036228], [76.20541666684574, 35.82625000053713], [76.21125000058714, 35.82625000053712], [76.21208333307942, 35.82791666642107], [76.21875000021242, 35.826250000537115], [76.22291666717052, 35.83375000016241], [76.22291666717052, 35.84124999978769], [76.24208333337918, 35.84124999978769], [76.24458333355403, 35.83958333390376], [76.24958333390379, 35.83958333390376], [76.25374999996257, 35.84041666729542], [76.25541666674582, 35.83791666712056], [76.26125000048717, 35.83708333372891], [76.26208333387882, 35.838750000512164], [76.265416666546, 35.838750000512164], [76.26708333332925, 35.840416667295415], [76.2729166670706, 35.840416667295415], [76.27458333385387, 35.84208333317935], [76.28208333347914, 35.842083333179346], [76.28541666704558, 35.842916666570936], [76.28708333382883, 35.841249999787685], [76.29041666649601, 35.84124999978769], [76.29291666667086, 35.8437499999626], [76.29958333380387, 35.8437499999626], [76.3087500002124, 35.834583333554065], [76.3087500002124, 35.83124999998755], [76.31541666644608, 35.832916666770814], [76.31875000001254, 35.836250000337316], [76.32708333392878, 35.836250000337316], [76.33708333372891, 35.83124999998756], [76.3437499999626, 35.830416666595966], [76.3520833338788, 35.83041666659596], [76.35875000011248, 35.82874999981271], [76.35958333350408, 35.828749999812715], [76.35624999993763, 35.83208333337916], [76.35458333315438, 35.83541666694566], [76.35624999993763, 35.840416667295415], [76.35624999993763, 35.8470833335291], [76.3512500004872, 35.852916667270456], [76.3520833338788, 35.85624999993757], [76.35708333332923, 35.85875000011247], [76.36125000028733, 35.859583333504084], [76.36375000046223, 35.862083333678974], [76.36375000046223, 35.86458333385382], [76.36958333330426, 35.86458333385383], [76.37375000026236, 35.86125000028732], [76.37541666704563, 35.85875000011247], [76.38208333327924, 35.86041666689572], [76.3904166671955, 35.86041666689573], [76.39458333325427, 35.85541666654598], [76.39791666682078, 35.85458333315437], [76.40291666717053, 35.85458333315438], [76.40541666644606, 35.85291666727045], [76.41375000036227, 35.85541666654598], [76.42291666677079, 35.85541666654597], [76.42791666712054, 35.85208333387879], [76.42791666712054, 35.85458333315438], [76.43541666674582, 35.86125000028732], [76.44125000048717, 35.86291666707057], [76.4462499999376, 35.86625000063707], [76.44791666672086, 35.86958333330426], [76.44875000011245, 35.87458333365395], [76.45291666707061, 35.878750000612115], [76.45375000046221, 35.88208333327924], [76.45708333312939, 35.884583333454145], [76.45958333330424, 35.884583333454145], [76.46208333347909, 35.88708333362899], [76.46541666704559, 35.88791666702059], [76.46791666722049, 35.89041666719549], [76.47625000023739, 35.890416667195495], [76.48208333307942, 35.8879166670206], [76.48708333342915, 35.88791666702059], [76.489583333604, 35.889583333803834], [76.49624999983769, 35.888750000412244], [76.49958333340419, 35.88625000023739], [76.50791666642107, 35.88625000023738], [76.51124999998757, 35.884583333454145], [76.51375000016242, 35.88208333327925], [76.51625000033732, 35.88124999988765], [76.52291666657095, 35.887916667020605], [76.5245833333542, 35.891250000587085], [76.52708333352905, 35.89125000058711], [76.53041666709555, 35.894583333254275], [76.53291666727046, 35.898750000212374], [76.5387500001125, 35.90125000038727], [76.54458333385384, 35.902083333778876], [76.54375000046218, 35.903750000562134], [76.54375000046218, 35.91708333392876], [76.54458333385384, 35.92291666677079], [76.54708333312936, 35.92791666712054], [76.55041666669587, 35.92708333372895], [76.55875000061212, 35.927083333728945], [76.56208333327925, 35.923750000162435], [76.56958333380385, 35.92625000033729], [76.57374999986268, 35.92291666677079], [76.58125000038729, 35.9220833333792], [76.58291666717054, 35.92041666659594], [76.58208333377888, 35.91791666642109], [76.58458333395373, 35.91541666714551], [76.58458333395373, 35.91125000018741], [76.58708333322932, 35.90875000001255], [76.59041666679582, 35.907916666620906], [76.5979166664211, 35.900416666995625], [76.59541666714551, 35.89458333325427], [76.59125000018742, 35.89208333397874], [76.59125000018742, 35.888750000412244], [76.58708333322932, 35.887083333628986], [76.58708333322932, 35.88375000006249], [76.58125000038729, 35.87708333382886], [76.57708333342914, 35.87541666704561], [76.57374999986268, 35.868749999912616], [76.58041666699563, 35.86375000046218], [76.58375000056213, 35.86208333367897], [76.58541666644608, 35.858750000112465], [76.58541666644608, 35.85125000048719], [76.58708333322932, 35.84958333370394], [76.58791666662091, 35.842916666570936], [76.58458333395373, 35.83958333390376], [76.58208333377888, 35.83958333390377], [76.57875000021238, 35.836250000337316], [76.57374999986268, 35.833750000162404], [76.57291666647103, 35.83208333337917], [76.5629166666709, 35.82208333357903], [76.56541666684575, 35.81958333340419], [76.56541666684575, 35.81375000056215], [76.5679166670206, 35.81125000038725], [76.56958333380385, 35.807916666820745], [76.57374999986268, 35.8054166666459], [76.57791666682078, 35.8045833332543], [76.57791666682078, 35.798750000412255], [76.58541666644608, 35.78958333310442], [76.59041666679582, 35.784583333653984], [76.58875000001257, 35.78041666669588], [76.58541666644608, 35.779583333304224], [76.58624999983766, 35.774583333853855], [76.59125000018742, 35.774583333853855], [76.59708333392877, 35.77208333367895], [76.6020833333792, 35.77208333367895], [76.6054166669457, 35.7704166668957], [76.60875000051215, 35.7670833333292], [76.61625000013743, 35.76291666727042], [76.61625000013743, 35.763749999762744], [76.62458333315436, 35.76791666672086], [76.62624999993761, 35.7695833335041], [76.63208333367896, 35.7704166668957], [76.64208333347909, 35.770416666895706], [76.6487500006121, 35.763749999762744], [76.64708333382885, 35.76208333387883], [76.64958333310437, 35.757916666920714], [76.65458333345413, 35.75791666692072], [76.65875000041223, 35.75541666674582], [76.66374999986266, 35.755416666745816], [76.67125000038726, 35.753749999962565], [76.67375000056211, 35.75541666674582], [76.6795833334042, 35.75541666674581], [76.6837500003623, 35.752083333179314], [76.68874999981267, 35.751249999787724], [76.69291666677083, 35.747916667120535], [76.69458333355408, 35.74458333355403], [76.69541666694568, 35.73874999981268], [76.69708333372893, 35.736250000537154], [76.69458333355408, 35.7345833337539], [76.69625000033733, 35.7312500001874], [76.69791666712052, 35.72541666644606], [76.70374999996261, 35.72541666644605], [76.70708333352906, 35.722083333778876], [76.70708333352906, 35.72041666699561], [76.71291666727046, 35.718750000212374], [76.71791666672084, 35.713749999862664], [76.72291666707059, 35.71208333397873], [76.72708333312937, 35.70958333380389], [76.72958333330422, 35.7062500002374], [76.72958333330422, 35.703750000062485], [76.73291666687072, 35.69958333310438], [76.73458333365399, 35.69958333310438], [76.7395833331044, 35.69458333365395], [76.7437500000625, 35.69375000026235], [76.74541666684576, 35.690416666695846], [76.74541666684576, 35.68708333312935], [76.74875000041226, 35.68708333312935], [76.75208333307944, 35.68375000046222], [76.75791666682079, 35.68125000028732], [76.75791666682079, 35.67541666654597], [76.75541666664589, 35.66875000031233], [76.75875000021239, 35.667083333529085], [76.75875000021239, 35.66458333335418], [76.75625000003754, 35.662916666570936], [76.7512500005871, 35.66208333317934], [76.74958333380386, 35.66374999996259], [76.7437500000625, 35.66458333335419], [76.73708333382889, 35.65791666712056], [76.73375000026238, 35.65625000033731], [76.73375000026238, 35.654583333554044], [76.72791666652103, 35.65458333355405], [76.72541666724544, 35.65375000016241], [76.71624999993759, 35.64458333375393], [76.70791666692071, 35.64041666679577], [76.70208333317936, 35.63958333340417], [76.7012499997877, 35.63708333322926], [76.69541666694568, 35.63125000038723], [76.69458333355408, 35.63125000038723], [76.68958333320433, 35.63125000038725], [76.68291666697064, 35.632083333778894], [76.6795833334042, 35.63208333377889], [76.67708333322929, 35.627916666820795], [76.67125000038726, 35.62208333397869], [76.66958333360401, 35.6220833339787], [76.65708333362898, 35.61124999988767], [76.65708333362898, 35.61208333327926], [76.65625000023738, 35.612916666670856], [76.64708333382885, 35.612916666670856], [76.64625000043725, 35.611249999887654], [76.637916666521, 35.611249999887654], [76.63541666724547, 35.60875000061208], [76.62541666654596, 35.604583333653984], [76.6204166670956, 35.599583333304224], [76.61458333335423, 35.59958333330423], [76.61208333317933, 35.59874999991262], [76.6095833339038, 35.60041666669588], [76.6054166669457, 35.597916666520966], [76.60458333355405, 35.59958333330422], [76.60124999998754, 35.59958333330423], [76.5995833332043, 35.601250000087475], [76.59625000053717, 35.60125000008748], [76.59625000053717, 35.60541666704557], [76.58791666662091, 35.6137500000625], [76.58291666717054, 35.61375000006252], [76.57791666682078, 35.61458333345411], [76.57291666647103, 35.61208333327925], [76.56875000041225, 35.61291666667085], [76.56208333327925, 35.612083333279244], [76.55791666722047, 35.608750000612076], [76.55375000026237, 35.607916667220465], [76.55208333347912, 35.60541666704558], [76.54791666652102, 35.60541666704558], [76.5362499999376, 35.602083333479136], [76.5320833338788, 35.59958333330422], [76.5320833338788, 35.60041666669588], [76.52541666674585, 35.602916666870726], [76.51958333390377, 35.60875000061207], [76.51375000016242, 35.612916666670856], [76.51041666659592, 35.6137500000625], [76.50458333375389, 35.6137500000625], [76.50291666697063, 35.61625000023736], [76.49958333340419, 35.616250000237365], [76.49541666644603, 35.62041666719552], [76.49375000056216, 35.623749999862646], [76.4887500002124, 35.62374999986264], [76.4862500000375, 35.62541666664588], [76.48291666647106, 35.62541666664588], [76.48208333307942, 35.626250000037544], [76.48291666647106, 35.63125000038723], [76.48291666647106, 35.63708333322926], [76.4854166666459, 35.64458333375393], [76.48208333307942, 35.64874999981269], [76.47958333380387, 35.6487499998127], [76.47875000041222, 35.65291666677081], [76.47041666649602, 35.65291666677081], [76.46958333310442, 35.654583333554044], [76.46625000043724, 35.655416666945655], [76.46625000043724, 35.65791666712056], [76.46291666687074, 35.66041666729541], [76.46208333347909, 35.66458333335419], [76.46208333347909, 35.66958333370394], [76.46041666669589, 35.67041666709554], [76.45958333330424, 35.67374999976272], [76.45708333312939, 35.67624999993764], [76.45708333312939, 35.67875000011247], [76.45541666724546, 35.678750000112466], [76.4504166668957, 35.678750000112466], [76.4504166668957, 35.67958333350407], [76.44125000048717, 35.67958333350407], [76.44125000048717, 35.67875000011247], [76.42958333390379, 35.678750000112466], [76.42958333390379, 35.67791666672082], [76.42041666659594, 35.67791666672082], [76.41625000053718, 35.677083333329215], [76.41041666679581, 35.67458333315437], [76.40624999983766, 35.6712500004872], [76.40624999983766, 35.67374999976273], [76.40125000038728, 35.677916666720826], [76.40125000038728, 35.677083333329215], [76.39458333325427, 35.67041666709553], [76.39374999986268, 35.66625000013744], [76.39208333307943, 35.66291666657093], [76.38875000041224, 35.65958333390382], [76.387083333629, 35.65375000016241], [76.38375000006249, 35.65291666677081], [76.37958333310439, 35.6487499998127], [76.37458333365396, 35.647083333928784], [76.37291666687072, 35.642083333579016], [76.36458333385383, 35.642083333579016], [76.36208333367898, 35.64041666679577], [76.35875000011248, 35.640416666795765], [76.35708333332923, 35.638750000012514], [76.35374999976273, 35.63875000001252], [76.3520833338788, 35.63708333322926], [76.3437499999626, 35.63708333322926], [76.33708333372891, 35.63541666644608], [76.32458333375388, 35.635416666446076], [76.32291666697068, 35.635416666446076], [76.32125000018745, 35.63791666662091], [76.31624999983768, 35.64125000018742], [76.31041666699565, 35.642083333579016], [76.30625000003755, 35.642083333579016], [76.29458333345411, 35.642083333579016], [76.29041666649601, 35.64625000053713], [76.28625000043724, 35.646250000537115], [76.28458333365398, 35.64791666642106], [76.27958333330423, 35.647916666421054], [76.27874999991263, 35.64375000036228], [76.27874999991263, 35.627916666820795], [76.27541666724545, 35.626250000037544], [76.2729166670706, 35.62374999986264], [76.26791666672085, 35.6220833339787], [76.26875000011245, 35.61708333362901], [76.2662499999376, 35.61375000006251], [76.26125000048717, 35.60875000061207], [76.25708333352907, 35.603750000262366], [76.25708333352907, 35.60208333347912], [76.25625000013747, 35.60291666687073], [76.24708333372894, 35.602916666870726], [76.24458333355403, 35.601250000087475], [76.24041666659593, 35.60125000008747], [76.23541666714556, 35.596250000637085], [76.23291666697065, 35.595416667245445], [76.2270833332293, 35.59541666724545], [76.22291666717052, 35.593750000462194], [76.22125000038727, 35.5962500006371], [76.21625000003752, 35.60125000008747], [76.21625000003752, 35.60291666687073], [76.21291666647102, 35.60541666704557], [76.20875000041224, 35.606250000437235], [76.20375000006248, 35.60625000043722], [76.19958333310439, 35.607083333828825], [76.19791666722045, 35.60875000061206], [76.1920833334791, 35.607083333828825], [76.187916666521, 35.60708333382883], [76.18625000063707, 35.60541666704558], [76.18291666707057, 35.60541666704557], [76.17958333350407, 35.608750000612076], [76.17708333332924, 35.608750000612076], [76.17458333315437, 35.607083333828825], [76.17125000048719, 35.607083333828825], [76.17125000048719, 35.60625000043722], [76.16875000031234, 35.60291666687073], [76.16374999996259, 35.59791666652098], [76.16708333352909, 35.596250000637085], [76.1704166670956, 35.5929166670706], [76.1704166670956, 35.591250000287346], [76.16458333335419, 35.585416666545996], [76.16708333352909, 35.58041666709556], [76.17458333315437, 35.580416667095555], [76.17708333332924, 35.57708333352906], [76.17791666672088, 35.572916666570954], [76.17791666672088, 35.56625000033728], [76.17458333315437, 35.56541666694567], [76.17208333387879, 35.56291666677082], [76.16791666692069, 35.56041666659592], [76.16458333335419, 35.55791666642107], [76.15875000051216, 35.55791666642107], [76.15625000033731, 35.55625000053713], [76.1495833332043, 35.55541666714555], [76.14874999981271, 35.55208333357905], [76.14458333375393, 35.55041666679578], [76.14291666697068, 35.5470833332293], [76.14291666697068, 35.542916667170516], [76.14541666714553, 35.541250000387265], [76.14625000053718, 35.53458333325426], [76.15124999998756, 35.53458333325426], [76.15541666694565, 35.53291666647101], [76.15375000016246, 35.522916666670874], [76.15375000016246, 35.51791666722044], [76.15791666712056, 35.51375000026234], [76.16541666674584, 35.5112500000875], [76.1704166670956, 35.51125000008751], [76.17208333387879, 35.50958333330424], [76.17541666654597, 35.51041666669584], [76.18041666689572, 35.510416666695846], [76.18375000046223, 35.50958333330425], [76.1887499999126, 35.5045833338538], [76.18708333312935, 35.50041666689571], [76.18291666707057, 35.49708333332922], [76.18291666707057, 35.489583333703926], [76.18125000028732, 35.48791666692068], [76.18125000028732, 35.48458333335418], [76.187916666521, 35.481249999787735], [76.19708333382886, 35.481249999787735], [76.19875000061211, 35.4795833339038], [76.19875000061211, 35.47875000051215], [76.19875000061211, 35.47708333372889], [76.1954166670456, 35.47208333337919], [76.18958333330426, 35.46625000053717], [76.18708333312935, 35.46625000053717], [76.18458333385382, 35.46375000036226], [76.18125000028732, 35.46375000036226], [76.17708333332924, 35.46125000018742], [76.1704166670956, 35.46125000018742], [76.16625000013744, 35.45958333340416], [76.15875000051216, 35.460416666795766], [76.14458333375393, 35.460416666795766], [76.14458333375393, 35.45958333340416], [76.14291666697068, 35.45958333340416], [76.14208333357902, 35.45958333340417], [76.14041666679577, 35.46291666697067], [76.13708333322933, 35.46458333375392], [76.12958333360405, 35.464583333753914], [76.1279166668208, 35.46375000036227], [76.1245833332543, 35.46791666642105], [76.1245833332543, 35.472083333379196], [76.12041666719551, 35.4729166667708], [76.11958333380386, 35.47124999998755], [76.11625000023736, 35.47124999998755], [76.11458333345412, 35.4695833332043], [76.11041666649601, 35.46958333320429], [76.10875000061209, 35.46708333392876], [76.09541666724544, 35.46708333392877], [76.0887500001125, 35.46625000053717], [76.08624999993759, 35.4687499998127], [76.08624999993759, 35.46958333320429], [76.08624999993759, 35.47291666677079], [76.0887500001125, 35.476250000337295], [76.0887500001125, 35.48291666657093], [76.09125000028735, 35.48458333335418], [76.09208333367894, 35.488750000312336], [76.0887500001125, 35.49458333315437], [76.085416666546, 35.49708333332922], [76.08041666709556, 35.49708333332922], [76.07791666692071, 35.495416666545964], [76.07124999978771, 35.49541666654596], [76.06375000016243, 35.50041666689571], [76.06208333337918, 35.502916667070565], [76.06208333337918, 35.50708333312934], [76.05958333320433, 35.50958333330424], [76.05958333320433, 35.51375000026235], [76.0537500003623, 35.51791666722045], [76.0504166667958, 35.52124999988763], [76.04875000001255, 35.51958333310438], [76.04458333395377, 35.51958333310437], [76.04458333395377, 35.516250000437196], [76.04125000038727, 35.5154166670456], [76.04125000038727, 35.5120833334791], [76.03791666682076, 35.508749999912595], [76.03708333342917, 35.504583333853816], [76.03458333325426, 35.50208333367897], [76.03458333325426, 35.498750000112466], [76.03208333307941, 35.49624999993762], [76.03125000058714, 35.492083333878774], [76.03208333307941, 35.48958333370394], [76.03041666719548, 35.487083333529085], [76.03041666719548, 35.48374999996258], [76.02875000041223, 35.48291666657093], [76.02875000041223, 35.47791666712054], [76.02708333362898, 35.47541666694565], [76.02041666649603, 35.46874999981271], [76.01791666722045, 35.4687499998127], [76.014583333654, 35.467916666421054], [76.00958333330425, 35.46958333320431], [76.00291666707056, 35.4695833332043], [76.00208333367897, 35.47124999998755], [75.99708333332921, 35.47291666677079], [75.99374999976271, 35.476250000337295], [75.98625000013743, 35.476250000337295], [75.98124999978775, 35.47708333372888], [75.97791666712055, 35.48041666729539], [75.97541666694572, 35.480416667295394], [75.97458333355405, 35.479583333903804], [75.97375000016245, 35.47875000051214], [75.97291666677081, 35.47791666712054], [75.9720833333792, 35.475416666945655], [75.96708333392877, 35.47041666659595], [75.96458333375392, 35.46708333392877], [75.96041666679577, 35.46625000053717], [75.94708333342913, 35.46625000053718], [75.94458333325429, 35.46708333392877], [75.94458333325429, 35.46375000036227], [75.94541666664588, 35.460416666795766], [75.94958333360404, 35.456249999837674], [75.94791666682079, 35.452083333778894], [75.95041666699564, 35.450416666995636], [75.95041666699564, 35.44541666664587], [75.95541666644607, 35.44291666647103], [75.95875000001257, 35.43958333380385], [75.96125000018742, 35.439583333803846], [75.96375000036227, 35.437083333629005], [75.96375000036227, 35.4337500000625], [75.96791666642105, 35.430416666496], [75.96791666642105, 35.42958333310441], [75.96791666642105, 35.427916667220465], [75.96625000053717, 35.42625000043722], [75.96625000053717, 35.41958333330422], [75.97041666659595, 35.41708333312936], [75.97041666659595, 35.410416666895685], [75.9695833332043, 35.40708333332924], [75.9720833333792, 35.40708333332925], [75.97291666677081, 35.40624999993757], [75.9720833333792, 35.40125000048721], [75.9720833333792, 35.394583333354205], [75.9770833337289, 35.392916666570954], [75.98124999978775, 35.392916666570954], [75.98208333317933, 35.38958333390378], [75.98541666674583, 35.38708333372892], [75.98958333370393, 35.38625000033727], [75.98958333370393, 35.387083333728924], [75.99875000011247, 35.385416666945666], [76.00291666707056, 35.381249999987574], [76.00291666707056, 35.37958333320432], [76.01291666687075, 35.37958333320433], [76.014583333654, 35.37791666642107], [76.0187500006121, 35.37874999981267], [76.02041666649603, 35.37874999981267], [76.02041666649603, 35.377916666421065], [76.02625000023738, 35.37208333357904], [76.02625000023738, 35.36791666662094], [76.02458333345413, 35.36791666662095], [76.02041666649603, 35.36458333395376], [76.02041666649603, 35.3587500002124], [76.01958333310439, 35.3587500002124], [76.01958333310439, 35.3562500000375], [76.01708333382885, 35.35291666647105], [76.014583333654, 35.351250000587136], [76.014583333654, 35.34791666702062], [76.01291666687075, 35.34541666684572], [76.0087499999126, 35.348750000412224], [76.00541666724547, 35.350416667195475], [76.00125000028731, 35.34958333380388], [75.99374999976271, 35.34458333345412], [75.98541666674583, 35.344583333454125], [75.98541666674583, 35.34124999988762], [75.98124999978775, 35.33958333310437], [75.98208333317933, 35.336250000437246], [75.98208333317933, 35.33041666669583], [75.9804166672954, 35.32874999991263], [75.97541666694572, 35.328749999912645], [75.9695833332043, 35.32541666724547], [75.96625000053717, 35.3212500002873], [75.96041666679577, 35.3212500002873], [75.95541666644607, 35.3204166668957], [75.94208333307944, 35.30708333352908], [75.9379166670206, 35.30458333335424], [75.937083333629, 35.30124999978773], [75.9329166666709, 35.29958333390379], [75.9329166666709, 35.2970833337289], [75.92791666722047, 35.292083333379196], [75.92625000043722, 35.289583333204284], [75.91791666652102, 35.28625000053716], [75.9129166670706, 35.282916666970664], [75.91125000028734, 35.28291666697066], [75.90958333350409, 35.27958333340416], [75.90708333332924, 35.277083333229314], [75.90708333332924, 35.27291666717047], [75.90291666727046, 35.26875000021238], [75.89958333370396, 35.262083333978744], [75.89708333352905, 35.26041666719549], [75.89625000013746, 35.2562500002374], [75.89958333370396, 35.252916666670885], [75.90541666654599, 35.251249999887655], [75.91041666689574, 35.247916667220466], [75.91458333385384, 35.24375000026237], [75.91458333385384, 35.23708333312937], [75.91958333330422, 35.23458333385383], [75.91625000063709, 35.23125000028733], [75.91625000063709, 35.22875000011248], [75.91624999973777, 35.22791666672082], [75.91208333277962, 35.227083333329226], [75.90374999976274, 35.219583333703945], [75.89708333262973, 35.214583333354206], [75.89208333317936, 35.2145833333542], [75.88874999961286, 35.21541666674585], [75.88458333265476, 35.21208333317934], [75.87624999963782, 35.203750000162415], [75.87124999928807, 35.20375000016241], [75.86791666662094, 35.203750000162415], [75.86208333287959, 35.204583333554076], [75.86041666609634, 35.20708333372892], [75.85541666664591, 35.20708333372892], [75.85291666647106, 35.208750000512175], [75.84791666612131, 35.20875000051216], [75.84791666612131, 35.20958333390376], [75.84041666649603, 35.21208333317935], [75.83708333292952, 35.213749999962594], [75.83541666614627, 35.213749999962594], [75.83374999936302, 35.21208333317935], [75.82958333330424, 35.21124999978769], [75.81624999993761, 35.21124999978769], [75.81124999958786, 35.212916666570955], [75.79624999943798, 35.21291666657095], [75.79374999926313, 35.2145833333542], [75.79041666659595, 35.2145833333542], [75.7845833328546, 35.218750000312305], [75.7812499992881, 35.219583333703945], [75.77374999966281, 35.219583333703945], [75.77291666627121, 35.2179166669207], [75.76958333270471, 35.21708333352905], [75.75208333327924, 35.21708333352904], [75.75124999988765, 35.218750000312305], [75.74374999936305, 35.22041666709554], [75.73624999973777, 35.22041666709555], [75.73291666617126, 35.21708333352905], [75.73374999956286, 35.213749999962594], [75.73291666617126, 35.207916667120564], [75.72958333260476, 35.20625000033732], [75.72791666582151, 35.20124999998757], [75.72458333315438, 35.20041666659592], [75.71874999941298, 35.197083333928795], [75.71708333262973, 35.19541666714552], [75.71624999923813, 35.19041666679577], [75.71874999941298, 35.187916666620936], [75.71874999941298, 35.18624999983768], [75.71874999941298, 35.18541666644603], [75.71541666584653, 35.182916667170495], [75.70874999961285, 35.1829166671705], [75.70541666604635, 35.18041666699565], [75.70541666604635, 35.17875000021241], [75.7070833328296, 35.17208333397872], [75.71291666657095, 35.165416666845765], [75.71541666584653, 35.15875000061208], [75.71791666602138, 35.156250000437225], [75.71291666657095, 35.152083333479084], [75.70541666604635, 35.15208333347908], [75.70208333247984, 35.152916666870745], [75.70041666659597, 35.15125000008748], [75.69708333302947, 35.15125000008749], [75.69624999963781, 35.149583333304236], [75.69208333267972, 35.14791666652099], [75.68541666644603, 35.14708333312938], [75.66541666594645, 35.14708333312938], [75.66541666594645, 35.146250000637046], [75.66208333327927, 35.14208333367895], [75.65541666614627, 35.13791666672085], [75.65541666614627, 35.13541666654595], [75.64874999991264, 35.13208333387882], [75.64708333312939, 35.13208333387881], [75.64541666634614, 35.12708333352907], [75.64458333295448, 35.12124999978772], [75.64124999938804, 35.12041666729539], [75.6370833333292, 35.11625000033728], [75.63458333315435, 35.11124999998754], [75.635416666546, 35.111249999987535], [75.64041666599638, 35.1079166673204], [75.65208333257976, 35.103750000362254], [75.65624999953792, 35.10041666679581], [75.65958333310442, 35.1004166667958], [75.65708333292952, 35.09708333322931], [75.65958333310442, 35.09125000038728], [75.66041666649602, 35.09125000038728], [75.66124999988762, 35.087916666820774], [75.66541666594645, 35.08625000003753], [75.66624999933805, 35.08458333325427], [75.67041666629615, 35.08291666647102], [75.6712499996878, 35.08291666647102], [75.67041666629615, 35.08041666719549], [75.66624999933805, 35.07791666702064], [75.6670833327297, 35.072916666670885], [75.6670833327297, 35.0587499999126], [75.6687499995129, 35.05708333312935], [75.6679166661213, 35.049583333504074], [75.66958333290455, 35.045416666545975], [75.6754166666459, 35.04541666654597], [75.67624999913818, 35.042083333878786], [75.6795833327047, 35.040416667095535], [75.68291666627118, 35.04041666709554], [75.68874999911321, 35.038750000312284], [75.69041666589646, 35.0370833335291], [75.69541666624622, 35.03541666674585], [75.69874999981272, 35.03208333317934], [75.69958333320432, 35.028750000512154], [75.70208333247984, 35.02541666694567], [75.70124999998757, 35.02124999998755], [75.69708333302947, 35.01791666732037], [75.69624999963781, 35.01791666732038], [75.69541666624622, 35.01791666732037], [75.69124999928812, 35.01708333392878], [75.68874999911321, 35.01375000036228], [75.68874999911321, 35.01125000018743], [75.68458333305443, 35.00791666662092], [75.68458333305443, 35.007083333229275], [75.68374999966284, 35.00791666662093], [75.6754166666459, 35.00791666662093], [75.6670833327297, 35.01625000053713], [75.66541666594645, 35.01625000053713], [75.65958333310442, 35.02208333337915], [75.65958333310442, 35.02375000016241], [75.65624999953792, 35.02708333372891], [75.65124999918817, 35.03041666729541], [75.64791666652098, 35.030416667295405], [75.64458333295448, 35.03291666657094], [75.64374999956289, 35.03708333352909], [75.63791666582154, 35.037916666920694], [75.63374999976276, 35.03291666657094], [75.61708333282962, 35.03291666657095], [75.61041666659594, 35.03208333317934], [75.60791666642109, 35.0345833333542], [75.60458333285459, 35.032083333179344], [75.59458333305446, 35.032083333179344], [75.59208333287955, 35.035416666745846], [75.5895833327047, 35.03625000013745], [75.58458333325427, 35.036250000137436], [75.58291666647102, 35.034583333354185], [75.57791666612133, 35.03458333335419], [75.57624999933807, 35.037916666920694], [75.57124999988764, 35.042916667270454], [75.56708333292954, 35.051250000287325], [75.56458333275464, 35.051250000287325], [75.55791666652101, 35.05791666652102], [75.55791666652101, 35.05874999991261], [75.55791666652101, 35.05958333330426], [75.55374999956291, 35.06375000026237], [75.5479166658215, 35.06375000026235], [75.54291666637113, 35.06791666722046], [75.54374999976272, 35.06875000061211], [75.53791666602137, 35.07458333345415], [75.53208333317934, 35.07958333380383], [75.52041666659596, 35.07958333380383], [75.51791666642106, 35.082083333978744], [75.51958333320431, 35.08875000021236], [75.51374999946296, 35.09458333395378], [75.51124999928811, 35.09458333395377], [75.51124999928811, 35.102083333579046], [75.51374999946296, 35.1045833337539], [75.51791666642106, 35.10625000053716], [75.52374999926309, 35.10625000053716], [75.526249999438, 35.1054166671455], [75.52791666622124, 35.11124999998754], [75.53041666639609, 35.112916666770786], [75.53041666639609, 35.11791666712053], [75.5295833330045, 35.12124999978772], [75.53208333317934, 35.12291666657097], [75.53791666602137, 35.128750000312316], [75.53291666657094, 35.13541666654596], [75.53208333317934, 35.13958333350411], [75.53041666639609, 35.13958333350411], [75.52874999961284, 35.14125000028736], [75.53208333317934, 35.1445833338538], [75.53291666657094, 35.14958333330424], [75.5295833330045, 35.15125000008749], [75.526249999438, 35.155416667045586], [75.52791666622124, 35.15875000061209], [75.52791666622124, 35.162916666670874], [75.526249999438, 35.16541666684577], [75.52874999961284, 35.166250000237376], [75.53208333317934, 35.16958333380388], [75.53291666657094, 35.17208333397872], [75.53208333317934, 35.17208333397872], [75.53124999978769, 35.174583333254304], [75.52874999961284, 35.1754166666459], [75.52874999961284, 35.17791666682076], [75.52541666604634, 35.1787500002124], [75.52458333265476, 35.181250000387244], [75.52124999998756, 35.18208333377891], [75.51541666624621, 35.182083333778905], [75.51124999928811, 35.18458333395375], [75.50958333250486, 35.18458333395376], [75.50958333250486, 35.183750000562156], [75.49874999931308, 35.183750000562156], [75.49291666647105, 35.18458333395375], [75.49041666629614, 35.18125000038725], [75.48624999933804, 35.18125000038725], [75.48458333255479, 35.18291666717051], [75.48041666649601, 35.1829166671705], [75.47208333257981, 35.175416666645894], [75.47124999918816, 35.17791666682074], [75.46541666634613, 35.1787500002124], [75.46291666617128, 35.18125000038725], [75.45874999921313, 35.18375000056216], [75.45374999976275, 35.18375000056216], [75.45374999976275, 35.17958333360401], [75.4520833329795, 35.17875000021241], [75.4520833329795, 35.17708333342915], [75.4479166660214, 35.18041666699563], [75.4454166658465, 35.180416666995654], [75.44291666657097, 35.17791666682074], [75.44041666639612, 35.17791666682076], [75.43624999943796, 35.175416666645894], [75.43041666659593, 35.1754166666459], [75.42708333302943, 35.1787500002124], [75.4212499992881, 35.17708333342915], [75.4137499996628, 35.17708333342915], [75.40791666592145, 35.17625000003749], [75.4062499991382, 35.17791666682075], [75.40124999968776, 35.1787500002124], [75.39624999933807, 35.17875000021241], [75.38708333292954, 35.174583333254304], [75.38708333292954, 35.17374999986264], [75.38124999918819, 35.17374999986264], [75.377916666521, 35.17541666664591], [75.36958333260475, 35.175416666645894], [75.36541666654597, 35.17208333397871], [75.36541666654597, 35.17041666719547], [75.36041666619627, 35.16958333380388], [75.35874999941302, 35.16791666702062], [75.35041666639609, 35.16791666702063], [75.34374999926314, 35.17125000058712], [75.34041666659596, 35.174583333254304], [75.3320833326797, 35.17791666682074], [75.32374999966282, 35.17875000021241], [75.32374999966282, 35.17958333360399], [75.32208333287957, 35.18208333377891], [75.31874999931307, 35.1820833337789], [75.31374999986264, 35.17875000021241], [75.31041666629619, 35.17541666664589], [75.30374999916319, 35.17291666647105], [75.30291666667091, 35.17125000058712], [75.29374999936306, 35.1754166666459], [75.28541666634612, 35.176250000037484], [75.28291666617127, 35.17291666647105], [75.28291666617127, 35.167083333629016], [75.28208333277962, 35.16458333345411], [75.27958333260479, 35.162916666670874], [75.27958333260479, 35.15958333310436], [75.27708333332924, 35.15875000061209], [75.27374999976274, 35.15541666704559], [75.27374999976274, 35.15625000043723], [75.27208333297949, 35.15625000043724], [75.26958333280464, 35.159583333104365], [75.26624999923814, 35.159583333104365], [75.26208333317936, 35.15791666722049], [75.25041666659592, 35.15791666722049], [75.25041666659592, 35.15708333382883], [75.2470833339288, 35.157083333828844], [75.24625000053716, 35.157083333828844], [75.2437500003623, 35.15958333310436], [75.24125000018739, 35.16625000023737], [75.23875000001254, 35.16875000041222], [75.24125000018739, 35.171250000587115], [75.24125000018739, 35.1754166666459], [75.23875000001254, 35.1762500000375], [75.23791666662095, 35.17958333360401], [75.23458333395376, 35.17958333360399], [75.23458333395376, 35.1829166671705], [75.23791666662095, 35.19208333357904], [75.23791666662095, 35.197083333928795], [75.2370833332293, 35.19708333392879], [75.2362499998377, 35.19708333392879], [75.22958333360401, 35.19708333392879], [75.22458333325426, 35.193750000362286], [75.21791666702063, 35.19291666697063], [75.21458333345413, 35.189583333404194], [75.21041666649603, 35.18958333340418], [75.21041666649603, 35.190416666795784], [75.2087500006121, 35.193750000362286], [75.2020833334791, 35.19708333392879], [75.1970833331294, 35.19708333392879], [75.19291666707056, 35.19874999981272], [75.19291666707056, 35.205416666945666], [75.19208333367898, 35.20875000051216], [75.19041666689571, 35.20958333390376], [75.18458333315436, 35.209583333903765], [75.18208333387884, 35.21041666729542], [75.18208333387884, 35.21875000031231], [75.17875000031233, 35.22041666709555], [75.17291666657098, 35.22041666709555], [75.17124999978773, 35.22374999976273], [75.1670833337289, 35.22374999976273], [75.1670833337289, 35.22708333332923], [75.16875000051215, 35.22958333350409], [75.1695833339038, 35.23958333330426], [75.16791666712055, 35.242083333479115], [75.16458333355405, 35.24375000026237], [75.16375000016245, 35.24375000026236], [75.1629166667708, 35.24875000061205], [75.16791666712055, 35.2495833331044], [75.16875000051215, 35.25124999988764], [75.17541666674583, 35.25458333345415], [75.17791666692068, 35.25458333345414], [75.17791666692068, 35.26291666647103], [75.17625000013743, 35.267083333429134], [75.17625000013743, 35.27458333395373], [75.17458333335424, 35.27958333340417], [75.17625000013743, 35.280416666795816], [75.17708333352908, 35.28458333375392], [75.18041666709559, 35.287916666421104], [75.18041666709559, 35.28874999981269], [75.18041666709559, 35.28958333320429], [75.17875000031233, 35.292916666770786], [75.17625000013743, 35.29541666694569], [75.17708333352908, 35.2995833339038], [75.17875000031233, 35.300416667295394], [75.17875000031233, 35.30458333335424], [75.17625000013743, 35.31125000048718], [75.17374999996258, 35.31125000048718], [75.17124999978773, 35.313749999762706], [75.17124999978773, 35.32125000028731], [75.16791666712055, 35.32291666707056], [75.16791666712055, 35.32625000063706], [75.1695833339038, 35.32791666652099], [75.1695833339038, 35.333750000262334], [75.17208333317933, 35.33458333365399], [75.1704166672954, 35.33791666722044], [75.1695833339038, 35.34291666667087], [75.16791666712055, 35.34375000006253], [75.1670833337289, 35.35041666719547], [75.1670833337289, 35.35208333397872], [75.16041666659595, 35.352083333978726], [75.1579166664211, 35.35374999986266], [75.15375000036227, 35.35208333397872], [75.14875000001257, 35.35208333397872], [75.14375000056214, 35.351250000587136], [75.1429166671705, 35.349583333803864], [75.13875000021238, 35.350416667195475], [75.13374999986269, 35.352916666471046], [75.13291666647103, 35.35625000003751], [75.12875000041225, 35.356250000037505], [75.1262500002374, 35.36041666699566], [75.12124999988765, 35.36125000038725], [75.120416666496, 35.3637500005621], [75.11291666687072, 35.36958333340419], [75.11291666687072, 35.37291666697064], [75.10625000063709, 35.37541666714555], [75.10625000063709, 35.377916666421065], [75.10291666707059, 35.381249999987574], [75.09958333350409, 35.38291666677082], [75.10208333367899, 35.38541666694567], [75.10125000028734, 35.392916666570954], [75.09708333332925, 35.3954166667458], [75.09624999993758, 35.3979166669207], [75.09125000048722, 35.399583333703966], [75.0879166669207, 35.40541666654598], [75.08708333352905, 35.408750000112484], [75.08708333352905, 35.41375000046219], [75.0837499999626, 35.41625000063709], [75.07791666712058, 35.41625000063709], [75.06625000053714, 35.41874999991262], [75.06291666697064, 35.425416667045624], [75.06458333375389, 35.42708333382881], [75.06208333357904, 35.429583333104404], [75.05875000001254, 35.43041666649601], [75.05708333322929, 35.433750000062496], [75.05458333395376, 35.43625000023736], [75.04708333342916, 35.435416666845754], [75.04458333325431, 35.437083333629005], [75.03708333362903, 35.437083333629005], [75.02625000043724, 35.43541666684575], [75.02125000008749, 35.43958333380385], [75.01874999991264, 35.43958333380385], [75.01541666724546, 35.44374999986263], [75.01541666724546, 35.44791666682078], [75.01791666652099, 35.449583333604025], [75.01791666652099, 35.462083333579024], [75.01625000063706, 35.46458333375392], [75.01041666689571, 35.465416667145526], [75.00624999993761, 35.47124999998755], [75.00458333315436, 35.47708333372889], [75.00374999976276, 35.47708333372889], [75.00041666709558, 35.47458333355405], [74.99374999996259, 35.47375000016246], [74.99041666729539, 35.47124999998755], [74.9854166669457, 35.476250000337295], [74.97874999981269, 35.476250000337295], [74.97708333392876, 35.47375000016246], [74.97291666697066, 35.473750000162454], [74.97125000018741, 35.476250000337295], [74.96624999983766, 35.47791666712054], [74.96624999983766, 35.47875000051215], [74.96375000056213, 35.48041666729539], [74.96125000038728, 35.48541666674583], [74.95958333360403, 35.49041666709557], [74.95458333325428, 35.49208333387878], [74.95291666647104, 35.497083333329215], [74.9504166671955, 35.50208333367897], [74.9504166671955, 35.507083333129344], [74.94875000041225, 35.507916666520984], [74.94875000041225, 35.50874999991258], [74.94875000041225, 35.50958333330425], [74.9462500002374, 35.512083333479104], [74.9395833331044, 35.514583333653995], [74.93708333382887, 35.51708333382885], [74.93291666687071, 35.51791666722044], [74.92791666652101, 35.52208333327928], [74.92708333312936, 35.524583333454125], [74.91624999993758, 35.52458333345413], [74.91624999993758, 35.52375000006248], [74.9079166669207, 35.52375000006247], [74.90625000013745, 35.52458333345412], [74.9037499999626, 35.53041666719549], [74.9037499999626, 35.534583333254254], [74.89541666694566, 35.53875000021241], [74.88958333320431, 35.544583333953774], [74.88958333320431, 35.545416666446044], [74.88625000053713, 35.54541666644605], [74.88375000036228, 35.542916667170516], [74.87875000001253, 35.54791666662089], [74.87375000056215, 35.55041666679579], [74.869583333604, 35.55375000036229], [74.8654166666459, 35.554583333753904], [74.85958333380387, 35.56041666659592], [74.86374999986265, 35.56208333337918], [74.86708333342915, 35.56541666694568], [74.86791666682075, 35.57041666729542], [74.87041666699565, 35.5712499997877], [74.87125000038725, 35.57374999996255], [74.8687500002124, 35.57458333335421], [74.8654166666459, 35.57875000031232], [74.86125000058712, 35.57875000031232], [74.85875000041227, 35.58041666709557], [74.85625000023737, 35.58374999976274], [74.85291666667086, 35.585416666545996], [74.84791666722049, 35.590416666895706], [74.84458333365399, 35.59125000028735], [74.84375000026233, 35.59291666707059], [74.83874999991264, 35.59625000063709], [74.83291666707062, 35.601250000087475], [74.83125000028735, 35.60125000008747], [74.83208333367895, 35.605416667045574], [74.8337500004622, 35.607083333828825], [74.83291666707062, 35.6137500000625], [74.83208333367895, 35.6137500000625], [74.8295833335041, 35.6137500000625], [74.8262499999376, 35.61791666702061], [74.81875000031232, 35.62125000058711], [74.81875000031232, 35.62458333325429], [74.81291666657097, 35.627916666820795], [74.80958333390379, 35.627916666820795], [74.80875000051219, 35.63125000038724], [74.80625000033729, 35.632916667170484], [74.80291666677078, 35.63208333377889], [74.79625000053716, 35.632916667170484], [74.79625000053716, 35.639583333404175], [74.79375000036231, 35.642083333579016], [74.79375000036231, 35.64291666697068], [74.7904166667958, 35.643750000362274], [74.77958333360402, 35.64375000036227], [74.77791666682077, 35.64458333375392], [74.77791666682077, 35.64541666714553], [74.76875000041224, 35.64958333320431], [74.76458333345414, 35.64958333320431], [74.76291666667089, 35.64791666642105], [74.75541666704561, 35.64791666642105], [74.74958333330426, 35.65291666677081], [74.74541666724548, 35.65291666677081], [74.74208333367898, 35.656250000337295], [74.73791666672082, 35.65791666712056], [74.7312500004872, 35.65875000051216], [74.72625000013744, 35.663749999962576], [74.72124999978774, 35.66958333370394], [74.71625000033731, 35.671250000487184], [74.71625000033731, 35.674583333154374], [74.71708333372891, 35.677083333329215], [74.71625000033731, 35.680416666895724], [74.71708333372891, 35.68375000046222], [74.71708333372891, 35.689583333304256], [74.71541666694566, 35.6954166670456], [74.71041666659596, 35.69875000061211], [74.70874999981271, 35.70208333327924], [74.70874999981271, 35.70791666702065], [74.70708333392878, 35.71041666719549], [74.70375000036228, 35.72208333377887], [74.70375000036228, 35.726249999837634], [74.70541666714553, 35.72791666662089], [74.70458333375393, 35.73541666714549], [74.70458333375393, 35.74708333372894], [74.70541666714553, 35.74708333372893], [74.70541666714553, 35.75541666674582], [74.70291666697068, 35.75374999996256], [74.69958333340418, 35.75374999996256], [74.69458333395374, 35.74875000051218], [74.69041666699565, 35.74708333372894], [74.67875000041226, 35.74708333372894], [74.67458333345411, 35.75041666729538], [74.67124999988766, 35.749583333903786], [74.66125000008748, 35.749583333903786], [74.6504166668957, 35.73874999981268], [74.63958333370397, 35.7354166671455], [74.63875000031231, 35.737083333928744], [74.63124999978771, 35.73625000053715], [74.6287500005122, 35.73958333320434], [74.62458333355409, 35.741249999987595], [74.62458333355409, 35.743750000162436], [74.62791666712053, 35.74541666694569], [74.63041666729544, 35.74791666712055], [74.63291666657096, 35.752083333179314], [74.63374999996256, 35.75791666692072], [74.62791666712053, 35.76374999976276], [74.62458333355409, 35.76624999993759], [74.62124999998758, 35.7662499999376], [74.6112500001874, 35.776250000637056], [74.60875000001255, 35.77708333312937], [74.60791666662095, 35.78041666669588], [74.60791666662095, 35.793750000062516], [74.6070833332293, 35.80041666719547], [74.6104166667958, 35.80291666647105], [74.61208333357905, 35.80708333342915], [74.61208333357905, 35.81041666699565], [74.61708333392875, 35.815416666446026], [74.61791666642108, 35.81958333340418], [74.61708333392875, 35.822916666970684], [74.61208333357905, 35.828749999812715], [74.61208333357905, 35.832916666770814], [74.6104166667958, 35.83708333372891], [74.60791666662095, 35.83875000051216], [74.60791666662095, 35.84124999978769], [74.60541666644605, 35.84541666674585], [74.60541666644605, 35.85041666709553], [74.60541666644605, 35.857916666720826], [74.6070833332293, 35.86125000028733], [74.6070833332293, 35.86541666724543], [74.61208333357905, 35.86791666652101], [74.6137500003623, 35.87791666722047], [74.61958333320433, 35.8829166666709], [74.62375000016243, 35.884583333454145], [74.62958333390378, 35.884583333454145], [74.63208333317937, 35.887083333628986], [74.63208333317937, 35.88958333380384], [74.63458333335421, 35.8912500005871], [74.63458333335421, 35.894583333254275], [74.63791666692072, 35.898750000212374], [74.63791666692072, 35.90208333377888], [74.64041666709556, 35.90624999983765], [74.63958333370397, 35.90624999983765], [74.63958333370397, 35.90875000001255], [74.63374999996256, 35.91458333375392], [74.63374999996256, 35.916250000537154], [74.63291666657096, 35.91625000053716], [74.63374999996256, 35.917916666421085], [74.63374999996256, 35.925416666945694], [74.63291666657096, 35.932083333179314], [74.63041666729544, 35.933749999962565], [74.62958333390378, 35.937916666920664], [74.63124999978771, 35.938750000312325], [74.63124999978771, 35.944583333154355], [74.63374999996256, 35.94958333350411], [74.63374999996256, 35.95541666724546], [74.63708333352906, 35.956250000637056], [74.63875000031231, 35.96041666669583], [74.64458333315434, 35.963750000262344], [74.64791666672085, 35.96291666687073], [74.65125000028735, 35.962916666870754], [74.6529166670706, 35.96875000061209], [74.6529166670706, 35.976250000237364], [74.65541666724545, 35.976250000237364], [74.65708333312938, 35.97875000041222], [74.66041666669588, 35.978750000412205], [74.66291666687073, 35.98041666719547], [74.66791666722048, 35.98041666719546], [74.67124999988766, 35.98125000058712], [74.67291666667091, 35.98374999986265], [74.67875000041226, 35.9845833332543], [74.68041666719552, 35.987083333429155], [74.6845833332543, 35.987916666820745], [74.68708333342914, 35.99041666699566], [74.6879166668208, 35.99458333395375], [74.69125000038724, 35.997916666620945], [74.69125000038724, 36.000416666795786], [74.69375000056215, 36.00708333392879], [74.70041666679577, 36.008749999812714], [74.70291666697068, 36.01124999998756], [74.70791666642106, 36.01958333390378], [74.70791666642106, 36.024583333354194], [74.71041666659596, 36.027083333529056], [74.71458333355406, 36.027083333529056], [74.71958333390381, 36.02958333370395], [74.7270833335291, 36.029583333703954], [74.72875000031235, 36.02625000013745], [74.73958333350407, 36.02625000013745], [74.73958333350407, 36.027916666920696], [74.74625000063708, 36.0279166669207], [74.74874999991262, 36.030416667095544], [74.75458333365395, 36.03041666709554], [74.75791666722046, 36.029583333703954], [74.76124999988764, 36.0320833338788], [74.76708333362899, 36.03875000011248], [74.76625000023739, 36.04541666724543], [74.7695833338039, 36.048749999912616], [74.7695833338039, 36.04958333330421], [74.77125000058709, 36.049583333304206], [74.77708333342918, 36.05041666669587], [74.78208333377887, 36.04874999991261], [74.7904166667958, 36.04458333385383], [74.7954166671455, 36.044583333853836], [74.79708333392875, 36.04625000063708], [74.80208333337919, 36.046250000637095], [74.80208333337919, 36.04708333312935], [74.80375000016244, 36.047916666521026], [74.80958333390379, 36.04708333312935], [74.825416666546, 36.047083333129365], [74.82875000011245, 36.044583333853836], [74.83625000063705, 36.04208333367893], [74.84958333310442, 36.04208333367893], [74.85375000006252, 36.04041666689574], [74.85375000006252, 36.03958333350408], [74.86374999986265, 36.02958333370395], [74.86791666682075, 36.024583333354194], [74.86791666682075, 36.0212499997877], [74.869583333604, 36.01875000051217], [74.87458333395375, 36.014583333554064], [74.87458333395375, 36.00625000053713], [74.87541666644603, 36.00625000053713], [74.87541666644603, 36.004583333753885], [74.88874999981272, 36.01791666712052], [74.89375000016241, 36.01791666712052], [74.89458333355407, 36.016250000337315], [74.89791666712057, 36.01625000033732], [74.89875000051217, 36.01791666712052], [74.9037499999626, 36.02041666729543], [74.9045833333542, 36.02291666657095], [74.9045833333542, 36.03041666709555], [74.9087500003123, 36.03458333315433], [74.9087500003123, 36.03624999993759], [74.91374999976273, 36.04125000028735], [74.91791666672083, 36.04041666689574], [74.92291666707058, 36.041250000287334], [74.92791666652101, 36.04125000028734], [74.93208333347911, 36.04291666707058], [74.93708333382887, 36.04291666707058], [74.94124999988765, 36.04041666689574], [74.95291666647104, 36.04041666689573], [74.95374999986268, 36.042083333678924], [74.96375000056213, 36.05208333347911], [74.96624999983766, 36.05541666704562], [74.96624999983766, 36.05625000043722], [74.97208333357906, 36.05208333347912], [74.98791666712056, 36.04458333385383], [74.99708333352908, 36.042083333678924], [74.99708333352908, 36.03958333350408], [75.00208333387883, 36.03875000011248], [75.00374999976276, 36.04041666689573], [75.0070833333292, 36.043750000462175], [75.01125000028736, 36.043750000462175], [75.01291666707061, 36.045416667245426], [75.01291666707061, 36.04874999991261], [75.0145833338538, 36.05125000008746], [75.01874999991264, 36.051250000087464], [75.02208333347909, 36.05458333365397], [75.02708333382884, 36.054583333653966], [75.03124999988762, 36.05791666722047], [75.02958333310437, 36.0595833331044], [75.02958333310437, 36.063750000062505], [75.03541666684578, 36.06708333362901], [75.0420833330794, 36.06875000041225], [75.04374999986265, 36.07041666719549], [75.04374999986265, 36.073749999862635], [75.0420833330794, 36.07458333325428], [75.0420833330794, 36.07791666682079], [75.04458333325431, 36.07958333360403], [75.0454166666459, 36.08458333395373], [75.04875000021241, 36.08791666662093], [75.04875000021241, 36.09375000036226], [75.05041666699567, 36.097083333928765], [75.05125000038726, 36.097083333928765], [75.05458333395376, 36.097083333928765], [75.05875000001254, 36.095416667145514], [75.06041666679579, 36.091250000187415], [75.06291666697064, 36.09041666679576], [75.06291666697064, 36.08624999983766], [75.06541666714554, 36.083750000562134], [75.06708333392879, 36.08041666699563], [75.07791666712058, 36.074583333254274], [75.08291666657095, 36.073749999862635], [75.08708333352905, 36.0779166668208], [75.0879166669207, 36.08125000038729], [75.09041666709555, 36.08291666717048], [75.09624999993758, 36.081250000387286], [75.09624999993758, 36.07708333342913], [75.09958333350409, 36.07208333397875], [75.09958333350409, 36.068750000412244], [75.10291666707059, 36.066250000237346], [75.10625000063709, 36.06625000023734], [75.10708333312937, 36.0637500000625], [75.11041666669587, 36.05958333310439], [75.11208333347912, 36.05625000043722], [75.11625000043722, 36.05375000026236], [75.11541666704562, 36.050416666695874], [75.11625000043722, 36.05041666669587], [75.120416666496, 36.04791666652102], [75.12124999988765, 36.044583333853836], [75.1237500000625, 36.042916667070585], [75.12958333380385, 36.042083333678924], [75.13541666664588, 36.03624999993758], [75.13791666682079, 36.03458333315434], [75.14125000038729, 36.03458333315434], [75.14375000056214, 36.03291666727046], [75.14375000056214, 36.03041666709555], [75.14624999983766, 36.0287500003123], [75.14624999983766, 36.027916666920696], [75.14958333340417, 36.029583333703954], [75.15541666714552, 36.02958333370395], [75.16124999998755, 36.031250000487205], [75.1670833337289, 36.03541666654598], [75.16791666712055, 36.038750000112486], [75.17124999978773, 36.04041666689573], [75.17208333317933, 36.042916667070585], [75.17208333317933, 36.05041666669586], [75.17541666674583, 36.052916666870715], [75.17708333352908, 36.058750000612065], [75.18041666709559, 36.05875000061207], [75.18541666654596, 36.054583333653966], [75.18541666654596, 36.05375000026236], [75.19208333367898, 36.05625000043722], [75.1970833331294, 36.060416666496], [75.20291666687075, 36.05875000061207], [75.20791666722045, 36.05375000026237], [75.2087500006121, 36.05208333347912], [75.2087500006121, 36.05125000008746], [75.21791666702063, 36.05125000008746], [75.22041666719548, 36.052083333479125], [75.22291666647106, 36.049583333304206], [75.23291666717051, 36.049583333304206], [75.23375000056211, 36.05125000008746], [75.2445833337539, 36.051250000087464], [75.2470833339288, 36.04791666652102], [75.26875000031231, 36.04791666652102], [75.27374999976274, 36.048749999912616], [75.27624999993759, 36.04625000063708], [75.28791666652103, 36.046250000637095], [75.29291666687074, 36.04958333330422], [75.29458333365397, 36.048749999912616], [75.29791666722048, 36.04874999991262], [75.300416666496, 36.045416667245426], [75.30541666684576, 36.042916667070585], [75.31625000003754, 36.042916667070585], [75.31791666682079, 36.04125000028733], [75.32208333377889, 36.04041666689574], [75.32291666717049, 36.04041666689572], [75.32291666717049, 36.039583333504076], [75.32958333340417, 36.03958333350408], [75.32958333340417, 36.04041666689573], [75.33791666642105, 36.04041666689574], [75.3429166667708, 36.03791666672083], [75.34958333390382, 36.038750000112486], [75.35208333317934, 36.037083333329235], [75.36374999976272, 36.037083333329235], [75.36708333332922, 36.03458333315433], [75.37375000046222, 36.03458333315433], [75.377916666521, 36.03374999976273], [75.3820833334791, 36.03624999993758], [75.3887500006121, 36.03541666654598], [75.39625000023739, 36.03541666654598], [75.40041666719549, 36.03458333315434], [75.40458333325427, 36.0312500004872], [75.40875000021242, 36.030416667095544], [75.4212500001874, 36.03041666709555], [75.4212500001874, 36.031250000487205], [75.42958333320433, 36.031250000487205], [75.43124999998759, 36.029583333703954], [75.43458333355403, 36.02958333370394], [75.44291666657097, 36.02625000013745], [75.44291666657097, 36.02541666674579], [75.44374999996256, 36.025416666745784], [75.44708333352906, 36.02541666674579], [75.44875000031232, 36.02708333352905], [75.45374999976275, 36.02708333352905], [75.45374999976275, 36.02625000013746], [75.45458333315435, 36.0254166667458], [75.46958333330423, 36.0254166667458], [75.46958333330423, 36.02625000013745], [75.47958333310442, 36.02625000013745], [75.48291666667086, 36.023749999962604], [75.48625000023736, 36.02291666657096], [75.49125000058713, 36.01875000051216], [75.49708333342915, 36.01791666712052], [75.50375000056215, 36.017916667120524], [75.51041666679579, 36.01625000033731], [75.51375000036228, 36.01375000016242], [75.51541666714553, 36.01375000016242], [75.51708333392878, 36.01375000016242], [75.51708333392878, 36.01458333355407], [75.52541666694566, 36.014583333554064], [75.52458333355406, 36.020416667295414], [75.53208333317934, 36.029583333703954], [75.53291666657094, 36.03291666727044], [75.53458333335419, 36.033749999762726], [75.53458333335419, 36.037083333329235], [75.53291666657094, 36.04291666707059], [75.53625000013744, 36.04625000063708], [75.5337499999626, 36.05041666669587], [75.5379166669207, 36.05375000026237], [75.53875000031235, 36.05375000026237], [75.5379166669207, 36.05458333365396], [75.5379166669207, 36.06124999988764], [75.53875000031235, 36.06541666684574], [75.5379166669207, 36.06708333362901], [75.52208333337921, 36.06708333362901], [75.52124999998756, 36.06958333380384], [75.51791666642106, 36.07125000058709], [75.5129166669707, 36.077083333429115], [75.51125000018743, 36.08125000038729], [75.5020833337789, 36.084583333953724], [75.49708333342915, 36.084583333953724], [75.49374999986264, 36.085416666446065], [75.49208333307939, 36.083750000562134], [75.48958333380386, 36.08624999983766], [75.49291666647105, 36.089583333404164], [75.49291666647105, 36.09541666714552], [75.48875000041227, 36.097083333928765], [75.48375000006251, 36.10041666659595], [75.48875000041227, 36.10625000033729], [75.49625000003755, 36.11208333317933], [75.499583333604, 36.11541666674582], [75.49708333342915, 36.11791666692068], [75.4987500002124, 36.117916666920664], [75.50125000038724, 36.11958333370392], [75.50624999983768, 36.11958333370392], [75.50791666662093, 36.12125000048718], [75.51625000053713, 36.12125000048717], [75.52124999998756, 36.11875000031233], [75.53291666657094, 36.11875000031234], [75.53291666657094, 36.11708333352909], [75.53875000031235, 36.111249999787724], [75.54458333315438, 36.10791666712055], [75.54875000011248, 36.10625000033729], [75.55041666689573, 36.10625000033729], [75.55458333385383, 36.10625000033729], [75.56208333347911, 36.10375000016246], [75.56541666704561, 36.10041666659594], [75.56791666722046, 36.10124999998754], [75.57541666684574, 36.101249999987544], [75.57458333345414, 36.10541666694569], [75.57458333345414, 36.112916666570975], [75.57541666684574, 36.11541666674582], [75.57791666702065, 36.11708333352909], [75.57791666702065, 36.12125000048717], [75.5804166671955, 36.12291666727043], [75.58541666664593, 36.122916667270424], [75.58958333360403, 36.12458333315436], [75.59291666717053, 36.127916666720864], [75.5979166666209, 36.128750000112454], [75.5979166666209, 36.1270833333292], [75.60208333357906, 36.122916667270424]]], [[[78.8179166670206, 33.64208333397875], [78.82374999986268, 33.63875000041224], [78.82625000003753, 33.641250000587085], [78.83208333377888, 33.641250000587085], [78.83458333395373, 33.63958333380384], [78.83875000001257, 33.63875000041223], [78.84208333357901, 33.63875000041224], [78.84291666697067, 33.638750000412244], [78.84291666697067, 33.63791666702058], [78.8495833332043, 33.636250000237396], [78.8562500003373, 33.632916666670894], [78.8604166672954, 33.6329166666709], [78.86374999996258, 33.63458333345415], [78.86708333352908, 33.63458333345415], [78.87125000048718, 33.6329166666709], [78.87541666654596, 33.62791666722047], [78.887916666521, 33.62791666722046], [78.887916666521, 33.62708333382887], [78.894583333654, 33.62708333382887], [78.8954166670456, 33.627083333828864], [78.8954166670456, 33.62625000043721], [78.89625000043725, 33.62625000043721], [78.89708333382885, 33.62625000043721], [78.90041666649603, 33.62291666687071], [78.90458333345413, 33.622916666870715], [78.90708333362898, 33.621250000087514], [78.91958333360401, 33.621250000087514], [78.9295833334042, 33.61958333330426], [78.93208333357904, 33.61708333312936], [78.93625000053714, 33.61458333385383], [78.94375000016242, 33.61458333385382], [78.94625000033733, 33.61708333312935], [78.95374999996261, 33.61708333312935], [78.95708333352906, 33.61541666724543], [78.9587500003123, 33.615416667245434], [78.96208333387881, 33.61541666724543], [78.96624999993759, 33.612916667070586], [78.97041666689574, 33.612916667070586], [78.97291666707059, 33.61041666689573], [78.9762500006371, 33.60875000011248], [78.97791666652103, 33.60875000011248], [78.97791666652103, 33.60958333350406], [78.99458333345416, 33.60958333350408], [79.0012500005871, 33.60708333332922], [79.00458333325429, 33.60708333332922], [79.00791666682079, 33.60875000011247], [79.01041666699564, 33.612916667070586], [79.01958333340417, 33.612916667070586], [79.02375000036227, 33.6187499999126], [79.02625000053717, 33.61958333330426], [79.04208333317933, 33.619583333304256], [79.04374999996259, 33.62125000008751], [79.05125000048719, 33.6212500000875], [79.05875000011247, 33.62041666669587], [79.06041666689572, 33.622083333479104], [79.06375000046222, 33.62125000008751], [79.074583333654, 33.62125000008751], [79.07791666722045, 33.61874999991261], [79.08541666684575, 33.61874999991261], [79.08625000023738, 33.618749999912616], [79.08791666702065, 33.61625000063708], [79.09208333307942, 33.61625000063708], [79.09958333360402, 33.61541666724543], [79.1070833332293, 33.619583333304256], [79.10875000001255, 33.621250000087514], [79.1104166667958, 33.621250000087514], [79.1112500001874, 33.621250000087514], [79.11625000053715, 33.61708333312936], [79.11791666642108, 33.613750000462176], [79.12291666677083, 33.613750000462176], [79.12708333372893, 33.611250000287335], [79.13124999978771, 33.611250000287335], [79.13541666674581, 33.60875000011247], [79.13541666674581, 33.60458333315438], [79.13875000031231, 33.60291666727044], [79.14291666727041, 33.602083333878795], [79.14374999976275, 33.6020833338788], [79.14458333315434, 33.602083333878795], [79.14708333332925, 33.59791666692069], [79.14708333332925, 33.59541666674584], [79.1529166670706, 33.59291666657093], [79.15541666724545, 33.58875000051215], [79.15708333312938, 33.58875000051216], [79.16041666669588, 33.5870833337289], [79.16291666687073, 33.584583333554065], [79.16625000043723, 33.58458333355406], [79.16708333382883, 33.581249999987556], [79.17124999988766, 33.57958333320431], [79.17958333380386, 33.57125000018742], [79.17958333380386, 33.56875000001253], [79.18374999986264, 33.56708333322928], [79.18708333342914, 33.567083333229284], [79.19041666699565, 33.56541666644603], [79.1920833337789, 33.562916667170505], [79.19541666644608, 33.562916667170505], [79.19708333322934, 33.56125000038724], [79.20041666679577, 33.561250000387254], [79.20541666714553, 33.556250000037544], [79.20708333392878, 33.55541666664589], [79.21041666659596, 33.55125000058711], [79.21375000016246, 33.551250000587125], [79.21708333372891, 33.54958333380386], [79.21958333390381, 33.54708333362901], [79.22458333335419, 33.546250000237364], [79.22791666692069, 33.54708333362902], [79.23041666709554, 33.54958333380387], [79.2312500004872, 33.54958333380387], [79.23291666727044, 33.54958333380387], [79.23958333350407, 33.546250000237364], [79.24708333312935, 33.54458333345411], [79.24791666652101, 33.542083333279265], [79.25125000008752, 33.54124999988761], [79.2520833334791, 33.53958333310442], [79.26291666667089, 33.53958333310442], [79.26291666667089, 33.538750000612076], [79.26458333345414, 33.537916667220486], [79.26458333345414, 33.53375000026233], [79.26791666702064, 33.52958333330424], [79.2695833338039, 33.52958333330423], [79.27291666647102, 33.526250000637035], [79.27541666664592, 33.52541666724545], [79.27708333342918, 33.522916667070604], [79.27708333342918, 33.52208333367896], [79.27708333342918, 33.52125000028736], [79.27541666664592, 33.51875000011245], [79.27541666664592, 33.51291666727042], [79.27208333307942, 33.50875000031231], [79.27458333325427, 33.50625000013747], [79.27541666664592, 33.502083333179314], [79.27541666664592, 33.49958333390379], [79.28125000038727, 33.49708333372894], [79.28458333395378, 33.492083333379185], [79.28458333395378, 33.48874999981268], [79.28624999983771, 33.487083333928744], [79.2945833337539, 33.4845833337539], [79.2945833337539, 33.48291666697064], [79.29625000053716, 33.47958333340416], [79.30124999998759, 33.47458333395377], [79.30291666677078, 33.468750000212374], [79.30291666677078, 33.46541666664592], [79.30541666694569, 33.46208333397874], [79.30541666694569, 33.45708333362899], [79.30375000016244, 33.45375000006248], [79.30041666659594, 33.449583333104385], [79.30041666659594, 33.44708333382885], [79.30124999998759, 33.44458333365394], [79.30375000016244, 33.44291666687075], [79.30375000016244, 33.438749999912595], [79.30541666694569, 33.436250000637074], [79.30791666712054, 33.43625000063707], [79.31625000013747, 33.427916666720826], [79.31708333352907, 33.426249999937625], [79.31708333352907, 33.42125000048719], [79.31791666692072, 33.4170833335291], [79.32041666709557, 33.414583333354194], [79.32041666709557, 33.411249999787685], [79.32291666727042, 33.40875000051216], [79.32291666727042, 33.401249999987556], [79.32041666709557, 33.397916666421054], [79.32041666709557, 33.39458333375392], [79.31875000031232, 33.393750000362274], [79.31875000031232, 33.38958333340417], [79.30958333390379, 33.38041666699565], [79.31124999978772, 33.37958333360398], [79.31291666657097, 33.37541666664588], [79.31291666657097, 33.37291666647104], [79.31458333335422, 33.37041666719552], [79.31875000031232, 33.370416667195514], [79.32125000048717, 33.367083333629004], [79.32125000048717, 33.36375000006251], [79.32374999976275, 33.36124999988766], [79.325416666546, 33.35625000043723], [79.325416666546, 33.352916666870726], [79.32791666672085, 33.347916666520966], [79.33458333385386, 33.34375000046218], [79.33958333330423, 33.33875000011244], [79.34125000008748, 33.33875000011244], [79.34541666704558, 33.335416666545996], [79.34541666704558, 33.3287500003123], [79.34708333382883, 33.3254166667458], [79.34708333382883, 33.320416667295426], [79.34958333310442, 33.31708333372893], [79.34958333310442, 33.312916666770825], [79.35208333327928, 33.310416666595934], [79.35208333327928, 33.30958333320432], [79.35208333327928, 33.30791666642107], [79.35041666649602, 33.302916666970646], [79.34791666722049, 33.3012500001874], [79.34791666722049, 33.296249999837706], [79.34708333382883, 33.29208333377886], [79.34541666704558, 33.289583333604014], [79.34208333347914, 33.28791666682076], [79.34208333347914, 33.285416666645915], [79.33958333330423, 33.28374999986266], [79.33958333330423, 33.277916667020634], [79.33708333312939, 33.274583333454125], [79.33541666724545, 33.27458333345413], [79.33541666724545, 33.27041666649603], [79.33708333312939, 33.268750000612094], [79.33625000063705, 33.266250000437196], [79.33708333312939, 33.2612500000875], [79.33874999991264, 33.25958333330424], [79.33874999991264, 33.25625000063707], [79.33291666707062, 33.252916667070565], [79.33125000028735, 33.24958333350407], [79.33125000028735, 33.24208333387878], [79.32791666672085, 33.240416667095595], [79.325416666546, 33.23791666692068], [79.325416666546, 33.23541666674582], [79.32291666727042, 33.23208333317933], [79.31875000031232, 33.231249999787735], [79.31291666657097, 33.231249999787735], [79.30875000051219, 33.22875000051214], [79.30875000051219, 33.22541666694564], [79.31124999978772, 33.22124999998755], [79.31124999978772, 33.21874999981271], [79.30875000051219, 33.21791666642104], [79.31041666729544, 33.21458333375392], [79.30875000051219, 33.20958333340416], [79.30625000033729, 33.20708333322932], [79.30625000033729, 33.202916667170484], [79.30208333337919, 33.19875000021238], [79.29958333320434, 33.19875000021238], [79.29874999981269, 33.198750000212385], [79.2954166662462, 33.20291666717048], [79.2879166666209, 33.20291666717047], [79.28541666644605, 33.20541666644607], [79.2795833327047, 33.20624999983767], [79.27791666592145, 33.20958333340416], [79.27291666647102, 33.21208333357902], [79.27208333307942, 33.21874999981271], [79.27208333307942, 33.22041666659595], [79.26958333290457, 33.2187499998127], [79.26458333255482, 33.2187499998127], [79.26291666667089, 33.216250000537165], [79.25958333310439, 33.21541666714552], [79.25374999936304, 33.21541666714552], [79.25208333257979, 33.217083333928755], [79.25124999918819, 33.2220833333792], [79.24874999991262, 33.2220833333792], [79.24291666617125, 33.22541666694564], [79.24291666617125, 33.22875000051214], [79.2379166658215, 33.23374999996258], [79.23124999958787, 33.233749999962576], [79.22874999941303, 33.23291666657094], [79.22708333262977, 33.23458333335417], [79.22291666657094, 33.235416666745834], [79.21708333282959, 33.23791666692068], [79.21708333282959, 33.237083333529085], [79.21374999926309, 33.233749999962576], [79.21291666587149, 33.227083333728885], [79.21374999926309, 33.223750000162454], [79.21041666659596, 33.22041666659595], [79.20958333320431, 33.216250000537165], [79.21041666659596, 33.21291666697067], [79.20708333302946, 33.210416666795766], [79.20041666589647, 33.209583333404176], [79.19791666662093, 33.21458333375392], [79.19541666644608, 33.21458333375393], [79.19458333305444, 33.217083333928755], [79.19124999948792, 33.2195833332043], [79.1845833332543, 33.22041666659595], [79.18208333307939, 33.21791666732037], [79.18208333307939, 33.21208333357901], [79.17958333290454, 33.210416666795766], [79.17458333255479, 33.210416666795766], [79.17458333255479, 33.202916667170484], [79.17291666667091, 33.200416666995636], [79.17041666649601, 33.200416666995636], [79.16458333275466, 33.19374999986264], [79.16374999936306, 33.191250000587104], [79.16208333257983, 33.19125000058709], [79.16041666579656, 33.18958333380385], [79.15541666634613, 33.187083333629], [79.15374999956289, 33.185416666845754], [79.15291666617128, 33.182083333279245], [79.15208333277963, 33.18208333327925], [79.15124999938803, 33.18208333327925], [79.145416666546, 33.186250000237344], [79.14458333315434, 33.186250000237344], [79.14458333315434, 33.18875000041224], [79.13958333280465, 33.192916666471035], [79.13624999923815, 33.192916666471035], [79.13291666657096, 33.195416666645876], [79.13208333317937, 33.198750000212385], [79.12958333300446, 33.20125000038723], [79.12708333282961, 33.202083333778894], [79.12208333247986, 33.202083333778894], [79.10874999911323, 33.200416666995636], [79.1070833332293, 33.19958333360404], [79.10458333305445, 33.20208333377889], [79.10458333305445, 33.204583333953735], [79.1029166662712, 33.20708333322932], [79.09958333270471, 33.20708333322932], [79.0987499993131, 33.20958333340416], [79.09458333325426, 33.210416666795766], [79.09458333325426, 33.21125000018742], [79.09291666647101, 33.21458333375392], [79.08791666612132, 33.215416667145526], [79.08624999933807, 33.21874999981271], [79.08291666667088, 33.22124999998755], [79.07874999971278, 33.22124999998755], [79.07374999936303, 33.22291666677079], [79.07124999918818, 33.22541666694564], [79.06958333330425, 33.230416667295394], [79.0670833331294, 33.23208333317933], [79.0670833331294, 33.237916666920675], [79.07458333275468, 33.239583333703926], [79.08041666649603, 33.245416666545964], [79.07791666632113, 33.24541666654596], [79.07124999918818, 33.25208333367897], [79.0670833331294, 33.253750000462226], [79.06208333277965, 33.25375000046222], [79.05291666637113, 33.26125000008751], [79.04624999923811, 33.2612500000875], [79.04541666584652, 33.26041666669584], [79.04541666584652, 33.26125000008749], [79.04124999978774, 33.264583333653995], [79.04041666639608, 33.26791666722044], [79.03791666622124, 33.27041666649604], [79.03541666604633, 33.27124999988763], [79.03541666604633, 33.27208333327927], [79.03541666604633, 33.276250000237376], [79.03458333265473, 33.277916667020634], [79.03708333282958, 33.28291666647101], [79.03874999961283, 33.284583333254254], [79.03874999961283, 33.290416666995604], [79.03291666587148, 33.29291666717051], [79.03374999926314, 33.297916666620885], [79.03708333282958, 33.30291666697064], [79.03708333282958, 33.30541666714556], [79.03458333265473, 33.307083333928745], [79.03041666659595, 33.307083333928745], [79.02791666642105, 33.30874999981266], [79.0254166662462, 33.31541666694568], [79.02708333302945, 33.31708333372893], [79.02708333302945, 33.32041666729544], [79.0212499992881, 33.32458333335421], [79.0187499991132, 33.32458333335421], [79.01791666662092, 33.32291666657097], [79.01291666627117, 33.32291666657097], [79.00958333270472, 33.32374999996255], [79.00541666664589, 33.32708333352906], [79.00124999968779, 33.32708333352906], [78.99958333290454, 33.32541666674581], [78.99458333255478, 33.32458333335421], [78.99458333255478, 33.3254166667458], [78.9854166661463, 33.32541666674581], [78.98124999918815, 33.326250000137456], [78.97708333312937, 33.33041666709556], [78.97708333312937, 33.33458333315434], [78.97041666599637, 33.33624999993759], [78.96541666654599, 33.338750000112434], [78.96291666637109, 33.33875000011244], [78.96041666619624, 33.34208333367894], [78.96041666619624, 33.346250000637106], [78.95708333262974, 33.34874999991263], [78.95708333262974, 33.35041666669588], [78.95374999996261, 33.35625000043722], [78.9554166658465, 33.358750000612076], [78.95041666639611, 33.3637500000625], [78.95041666639611, 33.367083333629004], [78.95291666657096, 33.36875000041225], [78.95291666657096, 33.37208333397871], [78.94958333300445, 33.37541666664589], [78.9470833328296, 33.379583333603975], [78.93958333320433, 33.37958333360399], [78.93958333320433, 33.38375000056215], [78.93708333302948, 33.386249999837666], [78.93708333302948, 33.38708333322926], [78.93291666607132, 33.38708333322927], [78.92791666662094, 33.388750000012514], [78.92458333305444, 33.392083333579016], [78.92374999966279, 33.39458333375392], [78.92041666609634, 33.395416667145525], [78.91208333307941, 33.3995833332043], [78.90958333380388, 33.399583333204305], [78.90958333380388, 33.40208333337921], [78.90625000023738, 33.40791666712056], [78.90291666667088, 33.41041666729541], [78.894583333654, 33.411249999787685], [78.89208333347909, 33.41458333335419], [78.86958333370393, 33.41458333335419], [78.86708333352908, 33.4170833335291], [78.86708333352908, 33.417916666920696], [78.86291666657098, 33.41791666692068], [78.85458333355405, 33.41625000013744], [78.8520833333792, 33.41875000031234], [78.8479166664211, 33.41875000031233], [78.84541666714551, 33.418750000312336], [78.84541666714551, 33.41958333370394], [78.84291666697067, 33.42208333387879], [78.84208333357901, 33.42541666654597], [78.83708333322932, 33.42541666654597], [78.83458333395373, 33.42791666672082], [78.83375000056213, 33.43625000063707], [78.83541666644608, 33.4387499999126], [78.83208333377888, 33.44041666669585], [78.82958333360405, 33.442916666870765], [78.82958333360405, 33.445416667045606], [78.82625000003753, 33.448750000612115], [78.82625000003753, 33.45124999988762], [78.81958333380385, 33.45625000023739], [78.8162500002374, 33.4595833338039], [78.8162500002374, 33.46458333325427], [78.8129166666709, 33.46791666682076], [78.810416666496, 33.47375000056211], [78.810416666496, 33.47624999983765], [78.810416666496, 33.47791666662091], [78.81458333345415, 33.48208333357905], [78.81458333345415, 33.48291666697065], [78.80625000043722, 33.488749999812676], [78.80375000026237, 33.488749999812676], [78.79958333330427, 33.49291666677078], [78.79874999991262, 33.49708333372893], [78.80041666669587, 33.49791666712053], [78.80041666669587, 33.50208333317931], [78.79708333312936, 33.499583333903786], [78.79375000046218, 33.500416667295376], [78.79125000028733, 33.50291666657097], [78.78541666654598, 33.50458333335422], [78.78291666727046, 33.50708333352906], [78.78291666727046, 33.50791666692072], [78.7820833338788, 33.509583333703915], [78.7737499999626, 33.51791666672086], [78.76958333390377, 33.51875000011244], [78.76458333355407, 33.51791666672086], [78.75874999981272, 33.51791666672084], [78.75541666714554, 33.52208333367895], [78.75291666697063, 33.522916667070604], [78.75208333357904, 33.522916667070604], [78.75208333357904, 33.52708333312937], [78.74875000001254, 33.530416666695885], [78.74624999983769, 33.53041666669588], [78.74208333377891, 33.53458333365398], [78.74624999983769, 33.54124999988761], [78.74624999983769, 33.547916667020615], [78.75208333357904, 33.55208333397871], [78.75291666697063, 33.55708333342914], [78.75458333375389, 33.561250000387254], [78.75708333392879, 33.562916667170505], [78.75708333392879, 33.56624999983769], [78.75874999981272, 33.56958333340418], [78.75458333375389, 33.57125000018742], [78.75375000036229, 33.57458333375387], [78.75041666679579, 33.57708333392879], [78.74791666662094, 33.57625000053714], [78.7429166671705, 33.57625000053713], [78.74125000038725, 33.581249999987556], [78.74125000038725, 33.59041666729541], [78.74041666699566, 33.592916666570936], [78.7429166671705, 33.594583333354194], [78.7429166671705, 33.5970833335291], [78.74958333340419, 33.60374999976273], [78.75041666679579, 33.607916666720826], [78.75375000036229, 33.61125000028733], [78.75375000036229, 33.61874999991261], [78.75791666642107, 33.622083333479104], [78.75791666642107, 33.62291666687071], [78.77625000013745, 33.6229166668707], [78.78041666709555, 33.62375000026237], [78.78291666727046, 33.62625000043721], [78.79041666689574, 33.62708333382887], [78.79958333330427, 33.63625000023739], [78.80208333347912, 33.641250000587085], [78.80208333347912, 33.64458333325427], [78.80291666687071, 33.64458333325427], [78.80291666687071, 33.64541666664593], [78.80708333382887, 33.64541666664593], [78.810416666496, 33.64541666664593], [78.8179166670206, 33.64208333397875]]], [[[78.61958333330426, 33.49041666659593], [78.62125000008751, 33.488749999812676], [78.62458333365396, 33.48874999981267], [78.63208333327924, 33.4812500001874], [78.6362500002374, 33.482083333579055], [78.63875000041224, 33.480416666795804], [78.63875000041224, 33.47875000001255], [78.63458333345415, 33.47458333395378], [78.6329166666709, 33.46958333360402], [78.62958333310439, 33.46541666664592], [78.6329166666709, 33.461250000587086], [78.63541666684574, 33.45958333380389], [78.63541666684574, 33.45708333362898], [78.63791666702065, 33.45458333345413], [78.62958333310439, 33.4462500004372], [78.63124999988766, 33.44041666669585], [78.63041666649605, 33.437083333129344], [78.63458333345415, 33.432916667070565], [78.64125000058709, 33.42791666672082], [78.64125000058709, 33.42708333332922], [78.64125000058709, 33.42541666654597], [78.637083333629, 33.42208333387879], [78.63458333345415, 33.42208333387878], [78.6329166666709, 33.41958333370394], [78.6329166666709, 33.416250000137445], [78.63124999988766, 33.41541666674584], [78.63124999988766, 33.40625000033731], [78.62791666722046, 33.40291666677081], [78.62625000043721, 33.40291666677081], [78.62208333347911, 33.398749999812715], [78.62208333347911, 33.39791666732038], [78.62041666579654, 33.398749999812715], [78.61374999956291, 33.398749999812715], [78.60958333260476, 33.397916667320374], [78.60374999976273, 33.40375000016241], [78.60041666619622, 33.40625000033731], [78.5937499999626, 33.40625000033731], [78.59124999978769, 33.40958333390382], [78.5870833328296, 33.4104166672954], [78.58208333247984, 33.412916666570936], [78.57708333302946, 33.41291666657093], [78.56874999911321, 33.41958333370393], [78.56541666644608, 33.42041666709555], [78.56458333305443, 33.42541666654598], [78.56874999911321, 33.42958333350407], [78.56874999911321, 33.43208333367897], [78.56458333305443, 33.432916667070565], [78.56291666627118, 33.434583333853816], [78.55874999931308, 33.43541666724547], [78.55291666647105, 33.43541666724548], [78.54874999951295, 33.434583333853816], [78.54541666594645, 33.437083333129344], [78.54541666594645, 33.453750000062485], [78.54291666667086, 33.45625000023738], [78.54208333327927, 33.45875000041224], [78.54124999988767, 33.45875000041223], [78.54541666684577, 33.46541666664592], [78.54541666684577, 33.4770833332293], [78.54708333362902, 33.47875000001255], [78.55125000058712, 33.480416666795804], [78.55374999986265, 33.480416666795804], [78.5545833332543, 33.47624999983765], [78.5587500002124, 33.47541666644605], [78.56041666699565, 33.47375000056212], [78.56375000056215, 33.47375000056212], [78.56875000001254, 33.47208333377886], [78.56875000001254, 33.47458333395377], [78.57041666679578, 33.47791666662091], [78.58458333355406, 33.4804166667958], [78.59208333317935, 33.48125000018741], [78.59958333370395, 33.4812500001874], [78.60541666654598, 33.48708333392875], [78.61291666707058, 33.49041666659594], [78.61958333330426, 33.49041666659593]]]]}}]}