{
"type": "FeatureCollection",
"name": "DI_Khan2_torrent",
"crs": { "type": "name", "properties": { "name": "urn:ogc:def:crs:OGC:1.3:CRS84" } },
"features": [
{ "type": "Feature", "properties": { "Id": 0 }, "geometry": { "type": "MultiPolygon", "coordinates": [ [ [ [ 70.690665839615008, 32.779801184212658 ], [ 70.694092355901887, 32.77796554728917 ], [ 70.698137439611855, 32.777013762886725 ], [ 70.704799930428123, 32.777489655087948 ], [ 70.705513768729816, 32.773920463579202 ], [ 70.703610199925208, 32.769875379869234 ], [ 70.697423601310106, 32.766306188360488 ], [ 70.698613331813021, 32.762499050751273 ], [ 70.69694770910894, 32.754408883331337 ], [ 70.695520032505328, 32.752743260627426 ], [ 70.698613331813021, 32.753695045029644 ], [ 70.698851277913548, 32.752267368426203 ], [ 70.701230738919378, 32.751077637923288 ], [ 70.700516900617686, 32.748698176917458 ], [ 70.700754846718155, 32.746080769810931 ], [ 70.703372253824682, 32.743939254905797 ], [ 70.707655283635177, 32.741559793899967 ], [ 70.710748582942699, 32.739894171195886 ], [ 70.708845014138092, 32.737990602391221 ], [ 70.708845014138092, 32.735611141385391 ], [ 70.710986529043225, 32.735849087485917 ], [ 70.715031612753137, 32.733231680379561 ], [ 70.712652151747307, 32.727758920066208 ], [ 70.71217625954614, 32.722524105853324 ], [ 70.714317774451445, 32.719668752646328 ], [ 70.719314642563631, 32.719192860445105 ], [ 70.721218211368409, 32.714909830634667 ], [ 70.722645887971851, 32.710626800824173 ], [ 70.726453025581122, 32.707771447617176 ], [ 70.730736055391731, 32.706581717114261 ], [ 70.737160600107359, 32.703250471705985 ], [ 70.741919522119019, 32.701346902901378 ], [ 70.746440498030154, 32.701108956800852 ], [ 70.746440498030154, 32.696350034789191 ], [ 70.74905790513651, 32.695398250386802 ], [ 70.750961473941288, 32.69706387309094 ], [ 70.752865042745952, 32.694446465984583 ], [ 70.759289587461694, 32.692067004978753 ], [ 70.766903862680238, 32.687308082967093 ], [ 70.769759215887234, 32.688497813470008 ], [ 70.776897598904725, 32.682787107055958 ], [ 70.782846251419301, 32.678979969446686 ], [ 70.788794903933876, 32.676362562340159 ], [ 70.789746688336322, 32.670413909825584 ], [ 70.792602041543319, 32.663751419009316 ], [ 70.795933286951367, 32.658992496997655 ], [ 70.800930155063725, 32.659706335299347 ], [ 70.804261400471773, 32.657326874293517 ], [ 70.811637729589961, 32.653995628885468 ], [ 70.802833723868389, 32.652805898382553 ], [ 70.796885071353813, 32.652805898382553 ], [ 70.790698472738541, 32.654947413287687 ], [ 70.784035981922216, 32.655661251589379 ], [ 70.784987766324662, 32.660896065802262 ], [ 70.783322143620524, 32.66755855661853 ], [ 70.782370359218135, 32.674221047435026 ], [ 70.77808732940764, 32.676838454541382 ], [ 70.77570786840181, 32.680407646050128 ], [ 70.772376622993761, 32.679693807748379 ], [ 70.768093593183153, 32.67874202334599 ], [ 70.764524401674407, 32.678266131144767 ], [ 70.761193156266359, 32.679693807748379 ], [ 70.760003425763443, 32.684214783659343 ], [ 70.759051641360998, 32.688735759570534 ], [ 70.755720395952949, 32.688735759570534 ], [ 70.749533797337676, 32.688973705671003 ], [ 70.745250767527239, 32.688973705671003 ], [ 70.744774875326016, 32.691829058878056 ], [ 70.74120568381727, 32.696825926990414 ], [ 70.740253899415052, 32.69968128019724 ], [ 70.732401678095698, 32.698967441895547 ], [ 70.726928917782288, 32.69944333409677 ], [ 70.725457257202606, 32.700195928770995 ], [ 70.723315742297473, 32.698054413865634 ], [ 70.720032086109427, 32.697483343224235 ], [ 70.716462894600681, 32.697768878544935 ], [ 70.713179238412465, 32.698768252167383 ], [ 70.709181743922727, 32.699482090469246 ], [ 70.70689746135713, 32.698482716846627 ], [ 70.703613805169141, 32.696341201941493 ], [ 70.699759078339639, 32.696483969601786 ], [ 70.697474795774099, 32.695056292998345 ], [ 70.693620068944597, 32.694485222356889 ], [ 70.689765342115152, 32.692200939791292 ], [ 70.684768474002965, 32.690773263187907 ], [ 70.677772858645767, 32.689916657225751 ], [ 70.670920010948976, 32.687489606999861 ], [ 70.665494839855796, 32.690344960206744 ], [ 70.66535207219539, 32.690344960206744 ], [ 70.662211183667637, 32.691058798508607 ], [ 70.658499224498598, 32.691397240784227 ], [ 70.656595655693991, 32.691682776104756 ], [ 70.654406551568627, 32.691682776104756 ], [ 70.651646376801807, 32.691302062343993 ], [ 70.6494572726765, 32.690921348583061 ], [ 70.647458525431603, 32.689017779778396 ], [ 70.646030848827991, 32.69120688390376 ], [ 70.643270674061228, 32.692920095827901 ], [ 70.641081569935864, 32.693205631148601 ], [ 70.637559967647348, 32.693110452708368 ], [ 70.634990149760995, 32.692824917387668 ], [ 70.633752830037906, 32.69358634490959 ], [ 70.631658904352776, 32.693205631148601 ], [ 70.629945692428635, 32.691873132985279 ], [ 70.629184264906712, 32.690921348583061 ], [ 70.627661409863038, 32.69149241922446 ], [ 70.624520521335285, 32.692063489865745 ], [ 70.62271213097091, 32.692063489865745 ], [ 70.619761599323624, 32.691397240784227 ], [ 70.617762852078783, 32.692349025186445 ], [ 70.614812320431497, 32.692634560507202 ], [ 70.613099108507356, 32.693776701790057 ], [ 70.61214732410491, 32.694538129311809 ], [ 70.609291970898084, 32.694823664632509 ], [ 70.606341439250798, 32.695394735273965 ], [ 70.606341439250798, 32.695965805915421 ], [ 70.605389654848409, 32.696727233437173 ], [ 70.603200550723045, 32.69663205499694 ], [ 70.60205840944036, 32.697583839399329 ], [ 70.600916268157448, 32.697298304078629 ], [ 70.600059662195463, 32.694442950871576 ], [ 70.597204308988466, 32.695489913714198 ], [ 70.597585022749399, 32.697679017839562 ], [ 70.598346450271151, 32.698725980682013 ], [ 70.600345197516049, 32.698725980682013 ], [ 70.605294476408176, 32.698535623801718 ], [ 70.611100361262459, 32.696441698116416 ], [ 70.61490749887173, 32.695585092154431 ], [ 70.615415385305596, 32.695479034818561 ], [ 70.619430725752977, 32.695330318505682 ], [ 70.622702484635965, 32.695032885879812 ], [ 70.625230661954674, 32.694586736941176 ], [ 70.628948569776298, 32.695181602192633 ], [ 70.632220328659287, 32.696371332695549 ], [ 70.633856208100781, 32.696371332695549 ], [ 70.635045938603696, 32.695181602192633 ], [ 70.637425399609526, 32.696222616382727 ], [ 70.640102293241114, 32.696668765321476 ], [ 70.642481754246944, 32.696222616382727 ], [ 70.646199662068568, 32.693991871689718 ], [ 70.649173988325856, 32.694140588002767 ], [ 70.65318932877318, 32.694140588002767 ], [ 70.658543116036299, 32.692950857499852 ], [ 70.664937917489453, 32.692950857499852 ], [ 70.669101974249656, 32.692504708561273 ], [ 70.673117314696981, 32.692802141186803 ], [ 70.673712179948438, 32.692802141186803 ], [ 70.676537789892905, 32.693843155376896 ], [ 70.680255697714472, 32.694586736941176 ], [ 70.684717187100432, 32.69592518375714 ], [ 70.686204350229048, 32.696371332695549 ], [ 70.689624825424971, 32.697561063198464 ], [ 70.691855570117923, 32.699940524204294 ], [ 70.695127329000911, 32.699940524204294 ], [ 70.700332399951208, 32.699940524204294 ], [ 70.703604158834196, 32.699345658952836 ], [ 70.705388754588569, 32.70038667314293 ], [ 70.705983619840026, 32.701278971020258 ], [ 70.70732206665582, 32.703658432026089 ], [ 70.710891258164565, 32.703807148338967 ], [ 70.713568151796096, 32.702468701523173 ], [ 70.715798896489105, 32.701873836271716 ], [ 70.722044981629381, 32.701576403645845 ], [ 70.723234712132296, 32.702914850461582 ], [ 70.721598832690802, 32.704550729903133 ], [ 70.718327073807757, 32.705443027780461 ], [ 70.717583492243477, 32.707525056160421 ], [ 70.71728605961772, 32.709012219289207 ], [ 70.718327073807757, 32.710945531356458 ], [ 70.718475790120635, 32.713027559736361 ], [ 70.717137343304842, 32.71555573705524 ], [ 70.715650180176226, 32.716299318619576 ], [ 70.714460449673311, 32.717191616496564 ], [ 70.713568151796096, 32.718232630686657 ], [ 70.711039974477444, 32.718827495938115 ], [ 70.708214364532978, 32.720760808005309 ], [ 70.707470782968699, 32.72239668744686 ], [ 70.70732206665582, 32.724627432139982 ], [ 70.70732206665582, 32.726858176832934 ], [ 70.707916931907278, 32.728345339961436 ], [ 70.708660513471614, 32.730129935715809 ], [ 70.70761949928152, 32.730129935715809 ], [ 70.704793889337111, 32.731468382531546 ], [ 70.703306726208496, 32.732658113034461 ], [ 70.704347740398532, 32.735632439291749 ], [ 70.706429768778605, 32.738458049236215 ], [ 70.70524003827569, 32.740540077616458 ], [ 70.704199024085653, 32.74202724074496 ], [ 70.701670846766945, 32.74247338968371 ], [ 70.70003496732545, 32.74277082230924 ], [ 70.698399087883956, 32.745001567002248 ], [ 70.69765550631962, 32.748868191136864 ], [ 70.696019626878126, 32.749760489013909 ], [ 70.693194016933717, 32.74990920532673 ], [ 70.691558137492166, 32.751247652142695 ], [ 70.691111988553587, 32.753032247897067 ], [ 70.692004286430802, 32.754073262086933 ], [ 70.693640165872296, 32.755560425215776 ], [ 70.694681180062332, 32.756304006779942 ], [ 70.695424761626668, 32.758088602534315 ], [ 70.696019626878126, 32.760170630914558 ], [ 70.696911924755284, 32.761211645104424 ], [ 70.695870910565247, 32.763293673484725 ], [ 70.694086314810875, 32.765078269239098 ], [ 70.693491449559417, 32.765524418177677 ], [ 70.694532463749454, 32.766714148680592 ], [ 70.695573477939547, 32.768498744434964 ], [ 70.697952938945377, 32.769242325999301 ], [ 70.697952938945377, 32.769837191250758 ], [ 70.697060641068163, 32.771175638066381 ], [ 70.698250371571078, 32.771026921753673 ], [ 70.69973753469975, 32.770134623876288 ], [ 70.700629832576908, 32.771026921753673 ], [ 70.700927265202665, 32.771919219630661 ], [ 70.699886251012572, 32.773703815385034 ], [ 70.698399087883956, 32.775042262200998 ], [ 70.695573477939547, 32.776083276390864 ], [ 70.692747867995081, 32.775190978513876 ], [ 70.691706853805044, 32.775934560078042 ], [ 70.690219690676429, 32.776380709016792 ], [ 70.689178676486335, 32.776975574268249 ], [ 70.689476109112093, 32.77890888633533 ], [ 70.690665839615008, 32.779801184212658 ] ] ] ] } },
{ "type": "Feature", "properties": { "Id": 0 }, "geometry": { "type": "MultiPolygon", "coordinates": [ [ [ [ 71.1429062908216, 32.618271987651156 ], [ 71.146259484378049, 32.61290925361476 ], [ 71.14054877796417, 32.610053900407706 ], [ 71.128651472935019, 32.604819086194823 ], [ 71.111043461491761, 32.607674439401876 ], [ 71.087724743634681, 32.613385145815926 ], [ 71.061550672570547, 32.611481577011148 ], [ 71.044002147652577, 32.611005684810095 ], [ 71.029249489416372, 32.611005684810095 ], [ 71.000220065145186, 32.618144067827586 ], [ 70.985467406909208, 32.627661911850907 ], [ 70.969762964270615, 32.62004763663225 ], [ 70.955962090436856, 32.609102116005317 ], [ 70.938354078993598, 32.606722654999487 ], [ 70.927408558366892, 32.611005684810095 ], [ 70.914559468935295, 32.613385145815926 ], [ 70.898187102074644, 32.617924015273672 ], [ 70.882809311843062, 32.621994606805572 ], [ 70.876326517921996, 32.629532739272065 ], [ 70.873009739636586, 32.631794179012104 ], [ 70.868939148104801, 32.629381976622767 ], [ 70.864567031274248, 32.628175875428042 ], [ 70.856275085561094, 32.627723587480148 ], [ 70.849943054289326, 32.628628163376106 ], [ 70.845118649510766, 32.635110957297343 ], [ 70.83652517849896, 32.638427735582468 ], [ 70.831399248421803, 32.639784599426491 ], [ 70.825368742448632, 32.640990700621046 ], [ 70.820695100319313, 32.645061292153002 ], [ 70.81074476546371, 32.645061292153002 ], [ 70.803809683594352, 32.646116630698259 ], [ 70.80456349684107, 32.650036459580861 ], [ 70.807126461879648, 32.650941035476819 ], [ 70.810443240164886, 32.650941035476819 ], [ 70.811637729589961, 32.653995628885468 ], [ 70.812855442554223, 32.652147136671431 ], [ 70.818282897930033, 32.649734934282264 ], [ 70.823559590656657, 32.648528833087539 ], [ 70.82868552073387, 32.64762425719158 ], [ 70.831196899057829, 32.645635789218204 ], [ 70.853801778613217, 32.639687136703628 ], [ 70.868078544648199, 32.639687136703628 ], [ 70.874027197162775, 32.639687136703628 ], [ 70.896632076718163, 32.627789831674477 ], [ 70.932323991805617, 32.620651448656986 ], [ 70.952549410355175, 32.621841179159901 ], [ 70.970395367898902, 32.637307675697798 ], [ 71.002518091477612, 32.628979562177392 ], [ 71.023933240530084, 32.625410370668646 ], [ 71.014415396506763, 32.636117945194883 ], [ 70.985861864436799, 32.643256328212374 ], [ 70.956118601863921, 32.64920498072695 ], [ 70.925185608788127, 32.661102285756101 ], [ 70.90971911225023, 32.682517434808574 ], [ 70.895442346215248, 32.713450427884368 ], [ 70.883545041186096, 32.744383420960162 ], [ 70.874027197162775, 32.768178031018465 ], [ 70.856181239619048, 32.787213719065107 ], [ 70.845473665092811, 32.814577520632156 ], [ 70.857370970121963, 32.814577520632156 ], [ 70.87283746665986, 32.786023988562192 ], [ 70.896632076718163, 32.739624498948501 ], [ 70.906149920741484, 32.712260697381453 ], [ 70.920426686776466, 32.689655817826065 ], [ 70.941841835828939, 32.669430399276507 ], [ 70.954928871361005, 32.661102285756101 ], [ 70.991810516951375, 32.65396390273861 ], [ 71.019174318518424, 32.642066597709459 ], [ 71.039399737067981, 32.628979562177392 ], [ 71.067953269137945, 32.624220640165731 ], [ 71.102455453722484, 32.626600101171562 ], [ 71.1429062908216, 32.618271987651156 ] ] ] ] } },
{ "type": "Feature", "properties": { "Id": 0 }, "geometry": { "type": "MultiPolygon", "coordinates": [ [ [ [ 70.986997292178501, 32.62621837217398 ], [ 70.99237487405162, 32.619877108593414 ], [ 70.995706119459896, 32.608455695765485 ], [ 70.991423089649402, 32.601317312747994 ], [ 70.982857030028299, 32.59132357652345 ], [ 70.981429353424915, 32.572763780678031 ], [ 70.978574000217861, 32.538975434395184 ], [ 70.977622215815643, 32.520415638549764 ], [ 70.975718647010808, 32.505187088112393 ], [ 70.97714632361442, 32.470446957427328 ], [ 70.974290970407424, 32.451887161581908 ], [ 70.967152587389933, 32.426188982718941 ], [ 70.960014204372442, 32.410008647879181 ], [ 70.960490096573608, 32.423333629511944 ], [ 70.967152587389933, 32.451411269380685 ], [ 70.972863293803982, 32.47663355604243 ], [ 70.973339186004978, 32.490434429876188 ], [ 70.970959724999148, 32.501379950503122 ], [ 70.970959724999148, 32.51280136333105 ], [ 70.972910883023985, 32.520951017275991 ], [ 70.974576505728123, 32.5264237775894 ], [ 70.972910883023985, 32.534989837210446 ], [ 70.973624721325734, 32.546887142239598 ], [ 70.975766236231038, 32.554025525257089 ], [ 70.977669805035646, 32.560688016073414 ], [ 70.976575252973021, 32.567112560789155 ], [ 70.974005435086667, 32.57139559059965 ], [ 70.978716767878325, 32.57410817614624 ], [ 70.977574626595413, 32.579961650220582 ], [ 70.978859535538561, 32.592953507312359 ], [ 70.978716767878325, 32.600234657990313 ], [ 70.983570868330219, 32.602947243536903 ], [ 70.989709877725261, 32.609514555912938 ], [ 70.988282201121649, 32.619365524477189 ], [ 70.986997292178501, 32.62621837217398 ] ] ] ] } },
{ "type": "Feature", "properties": { "Id": 0 }, "geometry": { "type": "MultiPolygon", "coordinates": [ [ [ [ 70.578544675862361, 32.553136971065271 ], [ 70.578366138173351, 32.553972826396887 ], [ 70.579555868676266, 32.555876395201551 ], [ 70.582411221883149, 32.555876395201551 ], [ 70.584035980302815, 32.555992449374401 ], [ 70.578544675862361, 32.553136971065271 ] ] ], [ [ [ 70.584035980302815, 32.555992449374401 ], [ 70.584084235938235, 32.556017542304801 ], [ 70.58407684458723, 32.555995368251786 ], [ 70.584035980302815, 32.555992449374401 ] ] ], [ [ [ 70.584084235938235, 32.556017542304801 ], [ 70.584433763738161, 32.557066125704466 ], [ 70.585504521190842, 32.558255856207381 ], [ 70.587765009146267, 32.560992236363973 ], [ 70.590501389303029, 32.563014778219042 ], [ 70.592999823359094, 32.569201376834087 ], [ 70.595617230465621, 32.571342891739448 ], [ 70.595617230465621, 32.575625921549886 ], [ 70.59427595954196, 32.578702231145371 ], [ 70.593990424221261, 32.581700352012717 ], [ 70.593990424221261, 32.583556331597322 ], [ 70.594704262523123, 32.584127402238721 ], [ 70.595703636145572, 32.585412311181699 ], [ 70.599272827654318, 32.585983381823155 ], [ 70.601985413200907, 32.586411684804318 ], [ 70.601271574899158, 32.587268290766303 ], [ 70.598558989352398, 32.589267038011201 ], [ 70.596845777428257, 32.591265785256212 ], [ 70.59727408040925, 32.591979623557961 ], [ 70.600843271917995, 32.592265158878661 ], [ 70.603270322144056, 32.592836229519946 ], [ 70.60441246342674, 32.593835603142338 ], [ 70.605554604709653, 32.596119885707935 ], [ 70.607267816633794, 32.598832471254696 ], [ 70.611693614104695, 32.600260147858137 ], [ 70.61526280561344, 32.60340103638589 ], [ 70.621116279687783, 32.605685318951487 ], [ 70.627112521422362, 32.605542551291194 ], [ 70.632109389534719, 32.607969601517084 ], [ 70.638391166590054, 32.614822449213818 ], [ 70.644958478966089, 32.620533155627925 ], [ 70.645815084928302, 32.62438788245737 ], [ 70.647563718374329, 32.627687987570823 ], [ 70.65187649144741, 32.63081103014099 ], [ 70.65737899502335, 32.632446909582484 ], [ 70.662584065973647, 32.634826370588314 ], [ 70.668384002175344, 32.635272519526893 ], [ 70.676563399382871, 32.636016101091229 ], [ 70.682065902958868, 32.63348792377252 ], [ 70.685635094467614, 32.632446909582484 ], [ 70.68950171860206, 32.630216164889532 ], [ 70.695599087429514, 32.628580285447981 ], [ 70.699168278938259, 32.627985420196524 ], [ 70.702440037821304, 32.627390554945066 ], [ 70.709280988213038, 32.627539271257945 ], [ 70.71597322229195, 32.629323867012317 ], [ 70.718055250672023, 32.630513597515233 ], [ 70.720137279052153, 32.631554611705269 ], [ 70.722665456370862, 32.633041774833941 ], [ 70.724598768438057, 32.636462250029808 ], [ 70.728316676259681, 32.638098129471302 ], [ 70.730249988326932, 32.639287859974218 ], [ 70.733373030897098, 32.639585292599975 ], [ 70.73560377559005, 32.64107245572859 ], [ 70.732778165645641, 32.644046781985878 ], [ 70.737537087657302, 32.64315448410872 ], [ 70.741106279166047, 32.641667320980048 ], [ 70.749583108999275, 32.639882725225675 ], [ 70.755829194139608, 32.639436576287096 ], [ 70.759993250899811, 32.640180157851432 ], [ 70.767726499168759, 32.642559618857263 ], [ 70.77010596017459, 32.644492930924514 ], [ 70.766982917604423, 32.645831377740251 ], [ 70.766834201291545, 32.648805703997539 ], [ 70.769957243861711, 32.650144150813333 ], [ 70.772336704867541, 32.645831377740251 ], [ 70.777987924756417, 32.648656987684717 ], [ 70.785423740399608, 32.651333881316248 ], [ 70.793156988668557, 32.651333881316248 ], [ 70.800741520624626, 32.652374895506284 ], [ 70.811637729589961, 32.653995628885468 ], [ 70.807126461879648, 32.650941035476819 ], [ 70.801633818501841, 32.649251852936175 ], [ 70.795685165987265, 32.649103136623296 ], [ 70.787951917718317, 32.647467257181802 ], [ 70.780962251013705, 32.642857051482963 ], [ 70.775834810771869, 32.643426894322545 ], [ 70.773422608382589, 32.641617742530627 ], [ 70.772518032486573, 32.637245625700132 ], [ 70.772065744538509, 32.637999438946622 ], [ 70.77116116864272, 32.642070030478521 ], [ 70.76799515300678, 32.639507065439943 ], [ 70.761663121734841, 32.637547150998728 ], [ 70.755934141060436, 32.635737999206754 ], [ 70.750355923035158, 32.635888761856052 ], [ 70.747943720645878, 32.637094863050606 ], [ 70.742365502620771, 32.639507065439943 ], [ 70.739802537582023, 32.637094863050606 ], [ 70.733772031608851, 32.634833423310795 ], [ 70.727892288285148, 32.632722746220111 ], [ 70.723821696753191, 32.628652154688325 ], [ 70.714022124546716, 32.624129275208361 ], [ 70.70995153301493, 32.624129275208361 ], [ 70.703921027041588, 32.622621648714983 ], [ 70.699096622263198, 32.620661734273767 ], [ 70.686432559719492, 32.614028177703403 ], [ 70.675577648967874, 32.607394621132869 ], [ 70.67346697187719, 32.609957586171504 ], [ 70.681005104343683, 32.616741905391336 ], [ 70.689447812706135, 32.620360208975171 ], [ 70.697287470471224, 32.623073936663047 ], [ 70.695478318679307, 32.624883088455022 ], [ 70.692010777744599, 32.625486139052384 ], [ 70.690050863303327, 32.6274460534936 ], [ 70.687638660914217, 32.629405967934815 ], [ 70.686734085018088, 32.630612069129597 ], [ 70.6828142561356, 32.630461306480299 ], [ 70.681457392291577, 32.631818170324152 ], [ 70.678894427252999, 32.63196893297345 ], [ 70.678592901954403, 32.633024271518877 ], [ 70.676934512811727, 32.632571983570813 ], [ 70.67422078512385, 32.633476559466772 ], [ 70.671507057435974, 32.633476559466772 ], [ 70.668039516501381, 32.632571983570813 ], [ 70.666079602059995, 32.63196893297345 ], [ 70.663064349073295, 32.63196893297345 ], [ 70.660652146684185, 32.631064357077491 ], [ 70.659898333437525, 32.629405967934815 ], [ 70.657636893697543, 32.629255205285517 ], [ 70.654621640711014, 32.62819986674026 ], [ 70.652963251568394, 32.627144528195004 ], [ 70.650098761230993, 32.62578766435098 ], [ 70.648591134737842, 32.624430800507128 ], [ 70.649043422685736, 32.622470886065685 ], [ 70.648289609439075, 32.620963259572534 ], [ 70.646178932348562, 32.619907921027107 ], [ 70.642409866115202, 32.616440380092513 ], [ 70.638942325180665, 32.613425127106041 ], [ 70.637133173388747, 32.610108348820802 ], [ 70.635474784246071, 32.606791570535506 ], [ 70.634117920402218, 32.604831656094291 ], [ 70.632308768610301, 32.604530130795524 ], [ 70.629142752974303, 32.605283944042185 ], [ 70.625524449390468, 32.604982418743589 ], [ 70.623263009650486, 32.60407784284763 ], [ 70.623263009650486, 32.605585469340951 ], [ 70.622358433754471, 32.605133181392887 ], [ 70.621512030921167, 32.603190170642563 ], [ 70.618798303233291, 32.601531781499887 ], [ 70.616536863493252, 32.599571867058671 ], [ 70.614878474350633, 32.597461189967987 ], [ 70.611260170766741, 32.59881805381201 ], [ 70.608244917780269, 32.595350512877417 ], [ 70.607038816585543, 32.592938310488137 ], [ 70.60492813949503, 32.591129158696219 ], [ 70.600103734716413, 32.591129158696219 ], [ 70.602968225053758, 32.589169244255004 ], [ 70.605531190092222, 32.586455516567071 ], [ 70.599651446768348, 32.583591026229726 ], [ 70.596786956431117, 32.579972722645834 ], [ 70.597540769677778, 32.568816286595506 ], [ 70.589851874561987, 32.559016714389145 ], [ 70.584084235938235, 32.556017542304801 ] ] ] ] } },
{ "type": "Feature", "properties": { "Id": 0 }, "geometry": { "type": "MultiPolygon", "coordinates": [ [ [ [ 70.844989537889603, 32.632895391474449 ], [ 70.837702438559234, 32.627095455272752 ], [ 70.827887161910212, 32.618767341752346 ], [ 70.823128239898551, 32.61281868923777 ], [ 70.814056544813809, 32.609100781416146 ], [ 70.811379651182278, 32.599582937392825 ], [ 70.813015530623773, 32.587536916050794 ], [ 70.812271949059436, 32.581290830910518 ], [ 70.806472012857739, 32.580249816720482 ], [ 70.803795119226152, 32.5859010366093 ], [ 70.798590048275912, 32.598541923202788 ], [ 70.793384977325672, 32.602705979962991 ], [ 70.784461998553809, 32.600921384208618 ], [ 70.780446658106484, 32.592593270688212 ], [ 70.775985168720524, 32.584562589793507 ], [ 70.7719698282732, 32.574449880518728 ], [ 70.76706218994866, 32.567460213814115 ], [ 70.761113537434085, 32.561808993925297 ], [ 70.760221239556927, 32.558239802416551 ], [ 70.756373993608577, 32.553827434479388 ], [ 70.757712440424541, 32.546094186210439 ], [ 70.760240617743079, 32.539996817382985 ], [ 70.747748447462641, 32.545201888333224 ], [ 70.74298952545098, 32.539699384757284 ], [ 70.737933170813392, 32.529437959169627 ], [ 70.729605057292986, 32.523043157716472 ], [ 70.729456340980164, 32.509956122184406 ], [ 70.723507688465588, 32.509956122184406 ], [ 70.71577444019664, 32.509658689558648 ], [ 70.710613984140366, 32.508649371471563 ], [ 70.706449927380163, 32.514598023986139 ], [ 70.699162828049793, 32.516531336053561 ], [ 70.703326884809996, 32.518464648120812 ], [ 70.713737026710533, 32.516680052366439 ], [ 70.717603650844978, 32.519505662310848 ], [ 70.716265204029014, 32.522479988568136 ], [ 70.71224986358186, 32.523967151696809 ], [ 70.709572969950159, 32.529618371585627 ], [ 70.710465267827487, 32.535120875161624 ], [ 70.718644665034844, 32.531849116278408 ], [ 70.719239530286302, 32.53378242834583 ], [ 70.72147027497931, 32.53869006667037 ], [ 70.7271214948683, 32.539433648234706 ], [ 70.731136835315453, 32.540474662424742 ], [ 70.732326565818369, 32.545531017061933 ], [ 70.732623998444296, 32.547613045442233 ], [ 70.733070147382875, 32.549248924883727 ], [ 70.732623998444296, 32.551479669576509 ], [ 70.736193189953042, 32.553561697956809 ], [ 70.741993126154739, 32.554156563208267 ], [ 70.745116168724735, 32.557428322091084 ], [ 70.749726374423688, 32.561443662538636 ], [ 70.754187863809477, 32.568879478181827 ], [ 70.758203204256802, 32.571853804439115 ], [ 70.761326246826968, 32.579438336395015 ], [ 70.761028814201381, 32.584345974719724 ], [ 70.757310906379587, 32.587766449915421 ], [ 70.756121175876672, 32.591484357737215 ], [ 70.75909550213396, 32.593417669804467 ], [ 70.763408275207212, 32.593715102429996 ], [ 70.768315913531751, 32.594161251368632 ], [ 70.769632255695569, 32.595864796732599 ], [ 70.773344214864551, 32.600433361863793 ], [ 70.77134546761971, 32.602574876769097 ], [ 70.766348599507523, 32.602860412089797 ], [ 70.767205205469509, 32.604859159334694 ], [ 70.768775649733414, 32.606572371258835 ], [ 70.766634134828053, 32.61042709808828 ], [ 70.766348599507523, 32.616137804502159 ], [ 70.766348599507523, 32.620849137293817 ], [ 70.770774396978254, 32.623847258161106 ], [ 70.775771265090611, 32.621420207935273 ], [ 70.779911527240642, 32.617279945785072 ], [ 70.784337324711544, 32.616708875143615 ], [ 70.789762495804894, 32.616423339822916 ], [ 70.797186414143084, 32.615709501521167 ], [ 70.803896494179412, 32.61585226918163 ], [ 70.809892735914218, 32.616994410464315 ], [ 70.815888977648797, 32.61885039004892 ], [ 70.825168875571592, 32.624275561142269 ], [ 70.82645378451474, 32.627701984990551 ], [ 70.823170128326751, 32.628558590952764 ], [ 70.822313522364595, 32.631842247140753 ], [ 70.827881461118182, 32.63384099438565 ], [ 70.833021096890832, 32.635982509290955 ], [ 70.83430600583398, 32.637410185894396 ], [ 70.83652517849896, 32.638427735582468 ], [ 70.840873318210015, 32.636696347592647 ], [ 70.845118649510766, 32.635110957297343 ], [ 70.846584024624065, 32.633127156083901 ], [ 70.844989537889603, 32.632895391474449 ] ] ] ] } },
{ "type": "Feature", "properties": { "Id": 0 }, "geometry": { "type": "MultiPolygon", "coordinates": [ [ [ [ 70.524324102760431, 32.466188930836779 ], [ 70.511475013328891, 32.436207722163431 ], [ 70.526227671565039, 32.417647926317954 ], [ 70.533841946783753, 32.39956402267353 ], [ 70.551925850428006, 32.382907795632718 ], [ 70.560016017847886, 32.368155137396741 ], [ 70.543835683008069, 32.345788203941879 ], [ 70.532414270180141, 32.333415006711505 ], [ 70.535269623387194, 32.314855210866085 ], [ 70.542883898605851, 32.291060600807782 ], [ 70.538600868795413, 32.252989224714497 ], [ 70.552877634830395, 32.248230302702837 ], [ 70.530510701375533, 32.252989224714497 ], [ 70.530510701375533, 32.274880265968136 ], [ 70.528607132570869, 32.283446325589068 ], [ 70.523372318358042, 32.312475749860255 ], [ 70.524324102760431, 32.328656084699844 ], [ 70.512902689932275, 32.347215880545264 ], [ 70.522420533955597, 32.35863729337342 ], [ 70.524324102760431, 32.374817628213009 ], [ 70.520041072949766, 32.387666717644379 ], [ 70.513854474334721, 32.402419375880584 ], [ 70.504812522512566, 32.416696141915565 ], [ 70.5043366303114, 32.429545231347106 ], [ 70.508143767920615, 32.444297889583311 ], [ 70.51718571974294, 32.459526440020511 ], [ 70.518137504145159, 32.46285768542873 ], [ 70.524324102760431, 32.466188930836779 ] ] ] ] } },
{ "type": "Feature", "properties": { "Id": 0 }, "geometry": { "type": "MultiPolygon", "coordinates": [ [ [ [ 70.34946195990949, 32.317493047688288 ], [ 70.374715972718036, 32.310061197813411 ], [ 70.381140517433835, 32.307205844606358 ], [ 70.397082906172955, 32.301019245991085 ], [ 70.406124857995053, 32.294594701275514 ], [ 70.412073510509629, 32.291501401967764 ], [ 70.414928863716682, 32.293642916873125 ], [ 70.41112172610724, 32.29745005448234 ], [ 70.405411019693361, 32.302446922594697 ], [ 70.414928863716682, 32.297212108381871 ], [ 70.419449839627646, 32.292929078571376 ], [ 70.425398492142222, 32.289121940961934 ], [ 70.433726605662628, 32.284125072849804 ], [ 70.440389096479066, 32.284125072849804 ], [ 70.443720341887115, 32.284838911151496 ], [ 70.453000239809967, 32.283173288447358 ], [ 70.459662730626235, 32.279604096938613 ], [ 70.465611383140811, 32.272941606122345 ], [ 70.473939496661217, 32.273655444424037 ], [ 70.481315825779234, 32.276272851530564 ], [ 70.488930100997891, 32.27651079763109 ], [ 70.494402861311301, 32.278414366435698 ], [ 70.490357777601503, 32.280555881341058 ], [ 70.480364041377015, 32.282935342346889 ], [ 70.477270742069436, 32.288170156559715 ], [ 70.480364041377015, 32.288646048760938 ], [ 70.485360909489145, 32.287932210459019 ], [ 70.49202340030547, 32.285076857252193 ], [ 70.492975184707859, 32.289359887062631 ], [ 70.487978316595672, 32.292929078571376 ], [ 70.482981448483315, 32.297212108381871 ], [ 70.481553771879931, 32.302684868695223 ], [ 70.480601987477485, 32.308871467310496 ], [ 70.47941225697457, 32.309347359511492 ], [ 70.469656466850779, 32.311250928316326 ], [ 70.464897544839118, 32.313154497120934 ], [ 70.45847300012332, 32.311726820517322 ], [ 70.449193102200525, 32.306492006304666 ], [ 70.438009635473236, 32.314344227623849 ], [ 70.415404755917848, 32.312202712718545 ], [ 70.422781085035865, 32.325527694351308 ], [ 70.433012767360879, 32.320768772339648 ], [ 70.440151150378369, 32.319579041836732 ], [ 70.447527479496557, 32.314582173724375 ], [ 70.456093539117489, 32.316485742528982 ], [ 70.463469868235507, 32.317675473031898 ], [ 70.471797981755913, 32.31815136523312 ], [ 70.479650203075266, 32.311726820517322 ], [ 70.4817917179804, 32.315533958126764 ], [ 70.480839933578181, 32.31815136523312 ], [ 70.478222526471654, 32.324813856049389 ], [ 70.471084143454163, 32.32933483196058 ], [ 70.462042191632065, 32.331952239066879 ], [ 70.445623910691779, 32.339566514285593 ], [ 70.436581958869624, 32.343135705794339 ], [ 70.42968152195283, 32.350036142711303 ], [ 70.429919468053356, 32.357412471829321 ], [ 70.43444044396449, 32.353129442018883 ], [ 70.45276229370927, 32.342659813593116 ], [ 70.458710946223846, 32.339566514285593 ], [ 70.466325221442503, 32.335045538374629 ], [ 70.472987712258828, 32.332666077368799 ], [ 70.475605119365355, 32.331000454664661 ], [ 70.477746634270488, 32.329572778061049 ], [ 70.480364041377015, 32.326717424854223 ], [ 70.481315825779234, 32.331952239066879 ], [ 70.480839933578181, 32.340994190889205 ], [ 70.477032795968739, 32.34218392139212 ], [ 70.472987712258828, 32.344325436297254 ], [ 70.464897544839118, 32.349798196610607 ], [ 70.453238185910436, 32.356936579628098 ], [ 70.44800337169761, 32.36074371723754 ], [ 70.440389096479066, 32.368120046355557 ], [ 70.441578826981981, 32.372641022266691 ], [ 70.441578826981981, 32.377875836479575 ], [ 70.441340880881285, 32.384538327295843 ], [ 70.4425306113842, 32.388583411005811 ], [ 70.445861856792476, 32.378113782580101 ], [ 70.448955156099998, 32.367168261953339 ], [ 70.449399322154363, 32.363595104676051 ], [ 70.46248635768643, 32.355564423781573 ], [ 70.477060556347283, 32.349020906015539 ], [ 70.484793804616061, 32.344261984003879 ], [ 70.485091237241818, 32.33444670735463 ], [ 70.483306641487445, 32.323739132828393 ], [ 70.488660428750563, 32.318385345565275 ], [ 70.495798811768054, 32.306785473162051 ], [ 70.503234627411416, 32.29518560075843 ], [ 70.509480712551579, 32.269011529694296 ], [ 70.509183279925992, 32.254139898407857 ], [ 70.532383024732667, 32.238078536618502 ], [ 70.545470060264734, 32.228263259969651 ], [ 70.547552088644863, 32.213689061308742 ], [ 70.545767492890491, 32.213986493934669 ], [ 70.529408698475549, 32.222314607455075 ], [ 70.517213960820527, 32.232129884103927 ], [ 70.50412692528846, 32.250868139525039 ], [ 70.500855166405586, 32.262468011928263 ], [ 70.491932187633552, 32.269606394945754 ], [ 70.48211691098453, 32.269606394945754 ], [ 70.478250286850198, 32.266037203437008 ], [ 70.459214598803555, 32.267821799191381 ], [ 70.453563378914566, 32.274662749583342 ], [ 70.450291620031521, 32.273770451705957 ], [ 70.441071208633957, 32.275852480086257 ], [ 70.436609719248167, 32.275852480086257 ], [ 70.427686740476133, 32.281503699974905 ], [ 70.419061194330027, 32.289831813495312 ], [ 70.413409974441151, 32.289236948243854 ], [ 70.401512669412, 32.291021543998227 ], [ 70.390210229634476, 32.300241955396018 ], [ 70.369687378459048, 32.308867501541954 ], [ 70.34946195990949, 32.317493047688288 ] ] ] ] } },
{ "type": "Feature", "properties": { "Id": 0 }, "geometry": { "type": "MultiPolygon", "coordinates": [ [ [ [ 70.164758282216155, 32.509608746414813 ], [ 70.179035048251137, 32.504849824403152 ], [ 70.187363161771543, 32.504849824403152 ], [ 70.199855332052152, 32.488788462613797 ], [ 70.211157771829846, 32.478675753339019 ], [ 70.224839672613371, 32.456070873783631 ], [ 70.223055076858998, 32.444768434005937 ], [ 70.22008075060171, 32.42930193746804 ], [ 70.217106424344422, 32.418594362941803 ], [ 70.215916693841507, 32.412645710427228 ], [ 70.227813998870658, 32.406102192661194 ], [ 70.248634282671674, 32.397774079140788 ], [ 70.25934185719791, 32.3947997528835 ], [ 70.274808353735807, 32.388851100368925 ], [ 70.287300524016416, 32.378738391094146 ], [ 70.302767020554313, 32.37041027757374 ], [ 70.321207843349498, 32.362082164053334 ], [ 70.334294878881565, 32.357918107293131 ], [ 70.338458935641768, 32.348995128521267 ], [ 70.327156495864074, 32.353754050532928 ], [ 70.307525942565974, 32.362677029304791 ], [ 70.292059446028077, 32.366841086064994 ], [ 70.278377545244552, 32.376358930088315 ], [ 70.271239162227062, 32.378738391094146 ], [ 70.262911048706655, 32.388256235117467 ], [ 70.258152126694995, 32.388256235117467 ], [ 70.243280495408555, 32.387066504614552 ], [ 70.235547247139607, 32.388256235117467 ], [ 70.237926708145437, 32.395394618134958 ], [ 70.229598594625031, 32.397179213889331 ], [ 70.224244807361913, 32.394204887632043 ], [ 70.223055076858998, 32.395394618134958 ], [ 70.21770128959588, 32.401938135900991 ], [ 70.213537232835677, 32.400153540146619 ], [ 70.203424523560898, 32.398963809643703 ], [ 70.199260466800695, 32.41205084517577 ], [ 70.210562906578389, 32.425732745959294 ], [ 70.214726963338592, 32.438819781491361 ], [ 70.212942367584219, 32.454286278029258 ], [ 70.204019388812355, 32.472727100824443 ], [ 70.184983700765713, 32.497711441385661 ], [ 70.164758282216155, 32.509608746414813 ] ] ] ] } },
{ "type": "Feature", "properties": { "Id": 0 }, "geometry": { "type": "MultiPolygon", "coordinates": [ [ [ [ 70.348418217270819, 32.542541628876791 ], [ 70.348418217270819, 32.545104593915369 ], [ 70.356408637685206, 32.547064508356641 ], [ 70.35746397623069, 32.548119846901898 ], [ 70.363343719554564, 32.549928998693815 ], [ 70.364097532801054, 32.550079761343284 ], [ 70.366208209891738, 32.55415035287507 ], [ 70.369374225527679, 32.55113509988854 ], [ 70.37223871586491, 32.54420001801941 ], [ 70.374198630306125, 32.5479690842526 ], [ 70.373143291760869, 32.550833574589944 ], [ 70.376158544747341, 32.553245776979054 ], [ 70.382189050720683, 32.553999590225771 ], [ 70.385656591655277, 32.552642726381691 ], [ 70.38942565788841, 32.554753403472432 ], [ 70.398019128900216, 32.554602640823134 ], [ 70.403295821626671, 32.554301115524368 ], [ 70.401335907185455, 32.550682811940476 ], [ 70.391988622927045, 32.550833574589944 ], [ 70.385204303707212, 32.550984337239242 ], [ 70.38158600012332, 32.550984337239242 ], [ 70.377063120643527, 32.55038128664188 ], [ 70.375404731500851, 32.545707644512561 ], [ 70.373897105007529, 32.541486290331363 ], [ 70.369374225527679, 32.542541628876791 ], [ 70.368318886982422, 32.548421372200664 ], [ 70.365303633995779, 32.545556881863263 ], [ 70.356257875035908, 32.542993916824685 ], [ 70.348418217270819, 32.542541628876791 ] ] ] ] } },
{ "type": "Feature", "properties": { "Id": 0 }, "geometry": { "type": "MultiPolygon", "coordinates": [ [ [ [ 70.331107162561295, 32.223565196638731 ], [ 70.322541102940193, 32.195011664568767 ], [ 70.331821000863044, 32.173596515516294 ], [ 70.346097766898026, 32.153609043067434 ], [ 70.363229886140005, 32.150039851558688 ], [ 70.391069579908276, 32.142901468541197 ], [ 70.416767758771186, 32.133621570618402 ], [ 70.438896746125408, 32.131480055713268 ], [ 70.441752099332405, 32.129338540807964 ], [ 70.409629375753696, 32.122913996092166 ], [ 70.362516047838312, 32.130766217411349 ], [ 70.358233018027647, 32.142187630239505 ], [ 70.341100898785839, 32.14575682174825 ], [ 70.320399588035059, 32.141473791937585 ], [ 70.308264336905211, 32.143615306842946 ], [ 70.297556762378974, 32.131480055713268 ], [ 70.274000098421368, 32.132193894014961 ], [ 70.249729596161899, 32.125769349299219 ], [ 70.220462225790186, 32.125769349299219 ], [ 70.187625663909785, 32.139332277032452 ], [ 70.17834576598699, 32.155750557972567 ], [ 70.176918089383548, 32.175738030421655 ], [ 70.189053340513226, 32.188587119853196 ], [ 70.201188591642847, 32.208574592302057 ], [ 70.224031417298932, 32.242124992484378 ], [ 70.210468489565699, 32.201436209284566 ], [ 70.203330106548208, 32.188587119853196 ], [ 70.199760915039462, 32.169313485705857 ], [ 70.203330106548208, 32.153609043067434 ], [ 70.209040812962257, 32.137190762127148 ], [ 70.218320710884882, 32.133621570618402 ], [ 70.232597476919864, 32.134335408920094 ], [ 70.257581817481082, 32.138618438730759 ], [ 70.276855451628421, 32.140759953635893 ], [ 70.283279996343992, 32.142901468541197 ], [ 70.275427775024809, 32.154322881369183 ], [ 70.268289392007318, 32.171455000611161 ], [ 70.278283128231863, 32.197153179474128 ], [ 70.290418379361483, 32.231417417958141 ], [ 70.298270600680894, 32.247835698898257 ], [ 70.298270600680894, 32.231417417958141 ], [ 70.293273732568537, 32.21142994550911 ], [ 70.284707672947604, 32.191442473060022 ], [ 70.284707672947604, 32.177879545326959 ], [ 70.284707672947604, 32.160747426084924 ], [ 70.286135349551046, 32.155750557972567 ], [ 70.30112595388772, 32.152895204765741 ], [ 70.311119690112264, 32.156464396274487 ], [ 70.321113426336808, 32.160747426084924 ], [ 70.315402719922702, 32.169313485705857 ], [ 70.314688881621009, 32.190014796456637 ], [ 70.315402719922702, 32.21714065192316 ], [ 70.3218272646385, 32.222137520035346 ], [ 70.331107162561295, 32.223565196638731 ] ] ] ] } },
{ "type": "Feature", "properties": { "Id": 0 }, "geometry": { "type": "MultiPolygon", "coordinates": [ [ [ [ 70.227719581857968, 32.117917127979979 ], [ 70.240211752138578, 32.106614688202285 ], [ 70.254488518173559, 32.096501978927506 ], [ 70.258057709682305, 32.087579000155642 ], [ 70.268765284208541, 32.084009808646897 ], [ 70.27887799348332, 32.0881738654071 ], [ 70.290180433261014, 32.086984134904185 ], [ 70.299082092062179, 32.086254877695069 ], [ 70.303152683594135, 32.0891193680323 ], [ 70.30677098717797, 32.094999111356174 ], [ 70.311595391956587, 32.099220465537371 ], [ 70.321394964162891, 32.101331142628112 ], [ 70.334360552005364, 32.105100208861245 ], [ 70.341446396523793, 32.106457072705268 ], [ 70.358633338547349, 32.104647920913351 ], [ 70.356070373508715, 32.098768177589477 ], [ 70.345516988055749, 32.09695902579756 ], [ 70.335415890550621, 32.095903687252132 ], [ 70.323807166552228, 32.093642247512264 ], [ 70.317173609981865, 32.092134621018943 ], [ 70.311293866657991, 32.089270130681768 ], [ 70.308580138969887, 32.08700869094173 ], [ 70.313103018449908, 32.087913266837745 ], [ 70.316419796735204, 32.089270130681768 ], [ 70.322450302708376, 32.089722418629663 ], [ 70.337375804991893, 32.088064029487043 ], [ 70.343707836263832, 32.088064029487043 ], [ 70.358784101196647, 32.088064029487043 ], [ 70.374011128778932, 32.08459648855245 ], [ 70.383207650388044, 32.082485811461936 ], [ 70.385318327478615, 32.080978184968615 ], [ 70.381096973297531, 32.079319795825938 ], [ 70.364513081871223, 32.083239624708597 ], [ 70.350492155483494, 32.083842675305789 ], [ 70.337978855589256, 32.08459648855245 ], [ 70.331646824317318, 32.083842675305789 ], [ 70.321394964162891, 32.084144200604555 ], [ 70.312650730501844, 32.082033523513871 ], [ 70.298780566763583, 32.080375134371195 ], [ 70.291242434297089, 32.07841521992998 ], [ 70.279935235597407, 32.080978184968615 ], [ 70.273603204325468, 32.081128947617913 ], [ 70.267572698352296, 32.07841521992998 ], [ 70.258225414094056, 32.078264457280682 ], [ 70.254456347860753, 32.082184286163169 ], [ 70.252797958718077, 32.088064029487043 ], [ 70.245109063602285, 32.093340722213497 ], [ 70.241038472070386, 32.097562076394752 ], [ 70.236666355239834, 32.101331142628112 ], [ 70.228223646877382, 32.10555249680931 ], [ 70.223851530046829, 32.113693679872995 ], [ 70.222645428852275, 32.115955119613034 ], [ 70.214655008437717, 32.123040964131462 ], [ 70.211187467503123, 32.125905454468807 ], [ 70.227719581857968, 32.117917127979979 ] ] ] ] } },
{ "type": "Feature", "properties": { "Id": 0 }, "geometry": { "type": "MultiPolygon", "coordinates": [ [ [ [ 70.408059934035975, 31.809431601308063 ], [ 70.392355491397552, 31.813714631118557 ], [ 70.373795695552133, 31.816094092124388 ], [ 70.35000108549383, 31.815618199923335 ], [ 70.332868966251795, 31.810383385710509 ], [ 70.318592200216813, 31.804196787095236 ], [ 70.314309170406375, 31.799437865083576 ], [ 70.303363649779442, 31.795630727474304 ], [ 70.298604727767781, 31.800865541687187 ], [ 70.290038668146849, 31.801817326089406 ], [ 70.28670742273863, 31.799913757284742 ], [ 70.285755638336411, 31.792775374267251 ], [ 70.281948500726969, 31.781829853640545 ], [ 70.275286009910701, 31.778974500433492 ], [ 70.266244058088546, 31.78325753024393 ], [ 70.273382441106037, 31.798961972882523 ], [ 70.280520824123528, 31.810859277911675 ], [ 70.290514560348072, 31.815142307722169 ], [ 70.300032404371393, 31.813714631118557 ], [ 70.31002614059571, 31.812286954515116 ], [ 70.324778798831915, 31.821804798538437 ], [ 70.337627888263455, 31.825611936147709 ], [ 70.356663576310098, 31.827991397153539 ], [ 70.378554617563793, 31.829894965958317 ], [ 70.396162629006824, 31.827039612751321 ], [ 70.401873335420873, 31.820853014136048 ], [ 70.408059934035975, 31.809431601308063 ] ] ], [ [ [ 70.230722671039928, 32.055824788461791 ], [ 70.221204827016606, 32.047199242315628 ], [ 70.219420231262234, 32.039168561420979 ], [ 70.226558614279725, 32.032030178403488 ], [ 70.239050784560334, 32.031435313152031 ], [ 70.250055791712271, 32.021917469128709 ], [ 70.262250529367179, 32.002881781082067 ], [ 70.278014458530777, 31.992471639181531 ], [ 70.285450274174025, 31.986522986666955 ], [ 70.301214203337622, 31.980871766778137 ], [ 70.312516643115316, 31.984143525661125 ], [ 70.321142189261479, 31.98295379515821 ], [ 70.324116515518767, 31.971651355380516 ], [ 70.326793409150298, 31.959159185099907 ], [ 70.324116515518767, 31.94369268856201 ], [ 70.32352165026731, 31.939231199176106 ], [ 70.307162855852198, 31.944287553813467 ], [ 70.289911763559928, 31.966892433368855 ], [ 70.279501621659449, 31.974923114263561 ], [ 70.26462999037301, 31.995148532813118 ], [ 70.24529686970061, 32.019240575497122 ], [ 70.232209834168543, 32.02697382376607 ], [ 70.219122798636477, 32.030543015274816 ], [ 70.210199819864613, 32.035301937286476 ], [ 70.204251167350037, 32.04422491605834 ], [ 70.206928060981625, 32.052553029578746 ], [ 70.213769011373358, 32.063260604104983 ], [ 70.225071451151052, 32.067127228239485 ], [ 70.232209834168543, 32.068614391368101 ], [ 70.241430245566164, 32.068911823993858 ], [ 70.247973763332197, 32.073968178631219 ], [ 70.230722671039928, 32.055824788461791 ] ] ] ] } },
{ "type": "Feature", "properties": { "Id": 0 }, "geometry": { "type": "MultiPolygon", "coordinates": [ [ [ [ 70.028790974615504, 31.679397061709494 ], [ 70.029901389751501, 31.690318787726198 ], [ 70.034898257863688, 31.70459555376118 ], [ 70.04239356003211, 31.717444643192721 ], [ 70.050959619653042, 31.722441511304908 ], [ 70.05702724521791, 31.722441511304908 ], [ 70.070233253800382, 31.715303128287417 ], [ 70.082011585779128, 31.709949341024299 ], [ 70.092719160305364, 31.709235502722606 ], [ 70.103426734831601, 31.708521664420857 ], [ 70.099500624172038, 31.712090855929603 ], [ 70.092362241154547, 31.719229238947094 ], [ 70.087008453891428, 31.728152217718957 ], [ 70.078799313421314, 31.734933681585517 ], [ 70.072374768705515, 31.742428983753939 ], [ 70.067734819744146, 31.752065800827552 ], [ 70.075943960214261, 31.75634883063799 ], [ 70.082368504930059, 31.739930549697704 ], [ 70.090577645400174, 31.72993681347333 ], [ 70.100214462473787, 31.719229238947094 ], [ 70.109851279547343, 31.710663179325991 ], [ 70.11591890511221, 31.710663179325991 ], [ 70.122700368978883, 31.71815848149447 ], [ 70.130909509449054, 31.726367621964584 ], [ 70.134835620108561, 31.734576762434585 ], [ 70.142687841427801, 31.738145953943331 ], [ 70.154704119507358, 31.740596798779393 ], [ 70.16802910113995, 31.743452151986389 ], [ 70.186113004784204, 31.747259289595661 ], [ 70.194203172204084, 31.750114642802714 ], [ 70.198962094215744, 31.75296999600971 ], [ 70.211811183647285, 31.751066427205103 ], [ 70.227039734084485, 31.749162858400268 ], [ 70.239888823516026, 31.74821107399805 ], [ 70.246170600571361, 31.74316661666569 ], [ 70.267109857422668, 31.738026980893039 ], [ 70.283480549142723, 31.731364490076771 ], [ 70.299470527102073, 31.726605568065111 ], [ 70.305561947276885, 31.726034497423655 ], [ 70.318125501387726, 31.722417716694906 ], [ 70.329546914215655, 31.718610579085464 ], [ 70.334115479346849, 31.718991292846397 ], [ 70.338303330717054, 31.723559857977591 ], [ 70.35181866923034, 31.723750214858057 ], [ 70.363620795819202, 31.723559857977591 ], [ 70.370854357276983, 31.712519158910595 ], [ 70.389699688443102, 31.709473448823076 ], [ 70.398075391183568, 31.712138445149662 ], [ 70.397694677422578, 31.720894861651061 ], [ 70.392555041650155, 31.726034497423655 ], [ 70.389509331562635, 31.731174133196305 ], [ 70.400930744390564, 31.73745591025164 ], [ 70.408354662728811, 31.735742698327499 ], [ 70.424154283807468, 31.735552341446976 ], [ 70.424154283807468, 31.742595546024233 ], [ 70.425296425090323, 31.746973754274961 ], [ 70.431007131504202, 31.744689471709364 ], [ 70.439573191125305, 31.74316661666569 ], [ 70.442999614973587, 31.743928044187612 ], [ 70.442618901212825, 31.736884839610354 ], [ 70.446426038822096, 31.737646267132106 ], [ 70.452327102116612, 31.738978765295485 ], [ 70.459560663574166, 31.739169122175952 ], [ 70.463558158064075, 31.739169122175952 ], [ 70.463367801183608, 31.735552341446976 ], [ 70.460512447976612, 31.728128423108785 ], [ 70.459941377335156, 31.720704504770595 ], [ 70.455372812203962, 31.718229865324474 ], [ 70.449471748909616, 31.720514147890071 ], [ 70.437479265440231, 31.721465932292517 ], [ 70.433101057189504, 31.721656289172984 ], [ 70.42758070765592, 31.721656289172984 ], [ 70.421870001241871, 31.721085218531528 ], [ 70.41711107923021, 31.715564868998115 ], [ 70.412161800338083, 31.709473448823076 ], [ 70.403786097597617, 31.702430244245875 ], [ 70.394268253574296, 31.69614846719054 ], [ 70.385321480192431, 31.692531686461564 ], [ 70.374661494886197, 31.696909894712292 ], [ 70.366666505906721, 31.695958110310016 ], [ 70.36477086863863, 31.693197935543253 ], [ 70.356204809017697, 31.687487229129204 ], [ 70.340024474178051, 31.684631875922321 ], [ 70.330030737953564, 31.676541708502441 ], [ 70.313850403113918, 31.678921169508271 ], [ 70.346686964994376, 31.694149719945642 ], [ 70.356680701218863, 31.697480965353691 ], [ 70.361915515431747, 31.702239887365351 ], [ 70.360487838828135, 31.706522917175846 ], [ 70.350494102603648, 31.708902378181676 ], [ 70.340500366379274, 31.707950593779458 ], [ 70.327175384746511, 31.703667563968963 ], [ 70.32479592374068, 31.701288102963133 ], [ 70.318609325125578, 31.690818474537423 ], [ 70.312422726510363, 31.684155983721155 ], [ 70.30718791229765, 31.688914905732815 ], [ 70.31194683430931, 31.694625612146694 ], [ 70.314802187516193, 31.698908641957303 ], [ 70.32241646273485, 31.703667563968963 ], [ 70.326699492545345, 31.710330054785288 ], [ 70.320512893930243, 31.712233623589896 ], [ 70.29671828387194, 31.718420222204998 ], [ 70.271020105008972, 31.726034497423655 ], [ 70.24865317155411, 31.735552341446976 ], [ 70.231521052312132, 31.741263047861082 ], [ 70.21486482527132, 31.744594293269131 ], [ 70.202015735839893, 31.744594293269131 ], [ 70.190594323011965, 31.740787155659859 ], [ 70.17584166477576, 31.740311263458636 ], [ 70.145384563901189, 31.735552341446976 ], [ 70.141577426291747, 31.728413958429485 ], [ 70.13634261207892, 31.712709515791119 ], [ 70.109692648813734, 31.703191671767797 ], [ 70.075904302530887, 31.707950593779458 ], [ 70.056392722283078, 31.717468437802779 ], [ 70.048302554863199, 31.714613084595726 ], [ 70.038784710839877, 31.697005073152525 ], [ 70.028790974615504, 31.679397061709494 ] ] ] ] } },
{ "type": "Feature", "properties": { "Id": 0 }, "geometry": { "type": "MultiPolygon", "coordinates": [ [ [ [ 70.288883511933307, 31.651208380326921 ], [ 70.286218515606947, 31.64644945831526 ], [ 70.282601734878028, 31.643213391347444 ], [ 70.27384531837663, 31.638835183096774 ], [ 70.266611756918849, 31.63597982988972 ], [ 70.260710693624333, 31.634647331726399 ], [ 70.261852834907188, 31.628365554671063 ], [ 70.264708188114241, 31.623796989539869 ], [ 70.259568552341648, 31.617895926245296 ], [ 70.254619273449464, 31.611994862950951 ], [ 70.24947963767687, 31.607997368461213 ], [ 70.24472071566521, 31.609520223504887 ], [ 70.240152150534016, 31.611614149190018 ], [ 70.235583585402821, 31.610662364787572 ], [ 70.230443949630228, 31.608758795982965 ], [ 70.230824663391161, 31.60514201525416 ], [ 70.232918589076291, 31.602096305166697 ], [ 70.230063235869238, 31.597718096915969 ], [ 70.222448960650581, 31.595053100589439 ], [ 70.217499681758397, 31.593720602426231 ], [ 70.216167183595246, 31.592007390501919 ], [ 70.21597682671478, 31.585915970327051 ], [ 70.211217904703119, 31.586677397848973 ], [ 70.211979332225042, 31.591245962980167 ], [ 70.206458982691458, 31.591436319860634 ], [ 70.20303255884312, 31.591817033621453 ], [ 70.206078268930469, 31.589532751055856 ], [ 70.206839696452391, 31.585725613446584 ], [ 70.203793986364872, 31.581728118956846 ], [ 70.196941138668137, 31.579634193271716 ], [ 70.191230432254031, 31.577920981347404 ], [ 70.185710082720618, 31.572019918053059 ], [ 70.186281153362074, 31.564405642834345 ], [ 70.193324357939332, 31.559456363942218 ], [ 70.195608640504929, 31.552222802484494 ], [ 70.196941138668137, 31.545750668548692 ], [ 70.192943644178399, 31.547654237353299 ], [ 70.189326863449423, 31.555268512572013 ], [ 70.182664372633155, 31.560408148344607 ], [ 70.180380090067558, 31.564786356595334 ], [ 70.182283658872166, 31.568212780443616 ], [ 70.183616157035544, 31.574304200618656 ], [ 70.187994365286215, 31.578872765749793 ], [ 70.195989354265691, 31.583060617120054 ], [ 70.201700060679798, 31.584583472163672 ], [ 70.203984343245338, 31.585725613446584 ], [ 70.203984343245338, 31.588009896012181 ], [ 70.200748276277352, 31.590103821697255 ], [ 70.19732185242907, 31.592007390501919 ], [ 70.197131495548604, 31.593339888665298 ], [ 70.200748276277352, 31.592768818023842 ], [ 70.20512648452825, 31.592768818023842 ], [ 70.210456477181197, 31.593149531784775 ], [ 70.21597682671478, 31.595814528111362 ], [ 70.221497176248363, 31.598289167557425 ], [ 70.227017525781719, 31.601334877644774 ], [ 70.229301808347316, 31.60247701892763 ], [ 70.227017525781719, 31.605713085895616 ], [ 70.227017525781719, 31.608758795982965 ], [ 70.230443949630228, 31.611804506070484 ], [ 70.237296797326962, 31.61504057303847 ], [ 70.239771436773083, 31.61504057303847 ], [ 70.24472071566521, 31.611994862950951 ], [ 70.248147139513662, 31.612565933592407 ], [ 70.250241065198793, 31.614659859277481 ], [ 70.254428916568997, 31.619038067528209 ], [ 70.257474626656517, 31.622083777615728 ], [ 70.260901050504799, 31.624177703300802 ], [ 70.258807124819725, 31.62817519779054 ], [ 70.255951771612672, 31.633124476682724 ], [ 70.256142128493138, 31.635408759248321 ], [ 70.258997481700192, 31.636931614291939 ], [ 70.264517831233775, 31.638835183096774 ], [ 70.269086396364969, 31.640738751901381 ], [ 70.274035675257096, 31.643213391347444 ], [ 70.277462099105378, 31.645878387674031 ], [ 70.280698166073364, 31.649685525283303 ], [ 70.288883511933307, 31.651208380326921 ] ] ] ] } },
{ "type": "Feature", "properties": { "Id": 0 }, "geometry": { "type": "MultiPolygon", "coordinates": [ [ [ [ 71.032861653089583, 32.309243562567474 ], [ 71.024176620418416, 32.300082637694914 ], [ 71.003951201868858, 32.289969928420135 ], [ 70.983130918067843, 32.278072623390983 ], [ 70.950413329237676, 32.262606126853086 ], [ 70.920670066664798, 32.247734495566647 ], [ 70.909962492138561, 32.241785843052071 ], [ 70.901039513366698, 32.242975573554986 ], [ 70.887357612583173, 32.244165304057901 ], [ 70.876650038056937, 32.240596112549156 ], [ 70.866537328782158, 32.23702692104041 ], [ 70.876055172805479, 32.223345020256886 ], [ 70.874865442302564, 32.210257984724819 ], [ 70.870701385542361, 32.198360679695668 ], [ 70.862373272021955, 32.198955544947125 ], [ 70.865347598279243, 32.207283658467531 ], [ 70.870106520290904, 32.216801502490853 ], [ 70.861778406770497, 32.226319346514174 ], [ 70.85880408051321, 32.230483403274377 ], [ 70.858209215261752, 32.234052594783122 ], [ 70.860588676267582, 32.241785843052071 ], [ 70.876055172805479, 32.250113956572477 ], [ 70.890331938840461, 32.250708821823935 ], [ 70.904370758774746, 32.250708821823935 ], [ 70.927213584430831, 32.26213023465192 ], [ 70.990031354984637, 32.29353911992888 ], [ 71.032861653089583, 32.309243562567474 ] ] ] ] } },
{ "type": "Feature", "properties": { "Id": 0 }, "geometry": { "type": "MultiPolygon", "coordinates": [ [ [ [ 70.855829754255922, 32.203119601707328 ], [ 70.82430189592867, 32.17575580014028 ], [ 70.804076477379112, 32.160289303602383 ], [ 70.786825385086843, 32.138279289298453 ], [ 70.790989441847046, 32.11924360125181 ], [ 70.822517300174297, 32.093069530187677 ], [ 70.830845413694703, 32.080577359907068 ], [ 70.845122179729685, 32.080577359907068 ], [ 70.860588676267582, 32.079387629404152 ], [ 70.893901130349207, 32.088310608176016 ], [ 70.912936818395849, 32.09723358694788 ], [ 70.918290605658967, 32.085336281918728 ], [ 70.901634378618155, 32.083551686164355 ], [ 70.883788421074428, 32.075818437895407 ], [ 70.8659424635307, 32.063326267614798 ], [ 70.857614350010294, 32.05797248035168 ], [ 70.842147853472397, 32.062136537111883 ], [ 70.8266813569345, 32.073438976889577 ], [ 70.819542973917009, 32.08236195566144 ], [ 70.80467134263057, 32.083551686164355 ], [ 70.774928080057691, 32.094854125942049 ], [ 70.768384562291658, 32.109130891977031 ], [ 70.749943739496473, 32.118053870748895 ], [ 70.729718320946915, 32.125192253766386 ], [ 70.710682632900273, 32.142443346058656 ], [ 70.7088980371459, 32.152556055333434 ], [ 70.721390207426509, 32.147202268070316 ], [ 70.769574292794573, 32.11924360125181 ], [ 70.778497271566437, 32.109725757228489 ], [ 70.792179172349961, 32.100802778456625 ], [ 70.8070508036364, 32.091284934433304 ], [ 70.800507285870367, 32.104966835216828 ], [ 70.785635654583928, 32.115079544491607 ], [ 70.781471597823725, 32.14125361555574 ], [ 70.78266132832664, 32.159694438350925 ], [ 70.820137839168467, 32.178730126397568 ], [ 70.855829754255922, 32.203119601707328 ] ] ] ] } },
{ "type": "Feature", "properties": { "Id": 0 }, "geometry": { "type": "MultiPolygon", "coordinates": [ [ [ [ 71.021440240261654, 32.172751730620405 ], [ 71.035717006296636, 32.177748598732762 ], [ 71.047138419124565, 32.180603951939588 ], [ 71.057845993650801, 32.188456173258999 ], [ 71.065698214970212, 32.190597688164132 ], [ 71.062129023461466, 32.174179407224017 ], [ 71.046424580822872, 32.171324054016964 ], [ 71.035003167994944, 32.159902641189035 ], [ 71.022154078563347, 32.154905773076678 ], [ 71.020012563658213, 32.147053551757494 ], [ 71.030006299882757, 32.139915168740004 ], [ 71.022867916865266, 32.126352241006714 ], [ 71.01216034233903, 32.123496887799661 ], [ 71.020726401959962, 32.134918300627817 ], [ 71.014301857244163, 32.142056683645308 ], [ 71.00644963592498, 32.148481228360879 ], [ 71.002880444416235, 32.157761126283731 ], [ 71.01216034233903, 32.16347183269778 ], [ 71.021440240261654, 32.172751730620405 ] ] ] ] } },
{ "type": "Feature", "properties": { "Id": 0 }, "geometry": { "type": "MultiPolygon", "coordinates": [ [ [ [ 71.297695663038667, 32.41831210642215 ], [ 71.271283645873837, 32.394041604162624 ], [ 71.249868496821364, 32.369771101903098 ], [ 71.216318096639213, 32.339076054928 ], [ 71.199185977397235, 32.319088582478969 ], [ 71.185623049663945, 32.291248888710697 ], [ 71.166349415516777, 32.254843135321551 ], [ 71.157069517593982, 32.244849399097006 ], [ 71.162780224008031, 32.266264548149479 ], [ 71.176343151741321, 32.288393535503872 ], [ 71.188478402870999, 32.308381007952732 ], [ 71.198472139095486, 32.324799288893018 ], [ 71.210607390225164, 32.344786761341879 ], [ 71.232736377579329, 32.362632718885607 ], [ 71.256293041537162, 32.384761706239999 ], [ 71.267714454365091, 32.398324633973061 ], [ 71.282705058701765, 32.413315238309963 ], [ 71.296267986435055, 32.427592004344945 ], [ 71.301264854547412, 32.436158063965877 ], [ 71.297695663038667, 32.41831210642215 ] ] ] ] } }
]
}
