{
"type": "FeatureCollection",
"name": "DI_Khan1_torrent",
"crs": { "type": "name", "properties": { "name": "urn:ogc:def:crs:OGC:1.3:CRS84" } },
"features": [
{ "type": "Feature", "properties": { "Id": 0 }, "geometry": { "type": "MultiPolygon", "coordinates": [ [ [ [ 70.529418629456757, 29.938251111227203 ], [ 70.547618458114073, 29.965112724584458 ], [ 70.545057201663212, 29.95068061664324 ], [ 70.548812123223229, 29.929672536805185 ], [ 70.560794053429447, 29.919038834932735 ], [ 70.574324572034868, 29.928551629289018 ], [ 70.6106157129758, 29.938732663680412 ], [ 70.60593486607371, 29.924608877848868 ], [ 70.609351132494055, 29.896900401412722 ], [ 70.603604994796115, 29.886458290167184 ], [ 70.596589491038458, 29.878451673881671 ], [ 70.616441031838121, 29.883579816278939 ], [ 70.633463349929229, 29.88058041525187 ], [ 70.622151738252171, 29.874299918356144 ], [ 70.593853879021765, 29.873066071960068 ], [ 70.583698309219017, 29.868896225264393 ], [ 70.568805240135987, 29.854992077570955 ], [ 70.562028661295528, 29.812524536134617 ], [ 70.575038410336788, 29.767938011395472 ], [ 70.577489255172679, 29.734982476464836 ], [ 70.561040231194909, 29.712129885964885 ], [ 70.548935723102716, 29.666572972547215 ], [ 70.547138233687406, 29.6354059013442 ], [ 70.534905112284605, 29.582504478033286 ], [ 70.549059034459219, 29.574194797262635 ], [ 70.556167994281452, 29.600115238330602 ], [ 70.563310391147184, 29.634146720527497 ], [ 70.576894389921222, 29.662408915787012 ], [ 70.585222503441628, 29.673116490313248 ], [ 70.581058446681425, 29.660029454781181 ], [ 70.571287671153868, 29.634526499654271 ], [ 70.566163350081354, 29.607321257870808 ], [ 70.568919612625052, 29.579703864003193 ], [ 70.58224817718434, 29.583291837343154 ], [ 70.589318367277428, 29.599533583868777 ], [ 70.59949926947661, 29.627311865951015 ], [ 70.62388874478637, 29.590430220360645 ], [ 70.636975780318437, 29.55473830527319 ], [ 70.615810276045295, 29.535417064924559 ], [ 70.608779167399405, 29.516964361805606 ], [ 70.600213107778472, 29.500784026965846 ], [ 70.603068460985355, 29.472230494895882 ], [ 70.594949016429894, 29.440217969872151 ], [ 70.571183683507286, 29.420358244968952 ], [ 70.546913181247817, 29.393708281703653 ], [ 70.534539984017442, 29.352305660202092 ], [ 70.525022139994121, 29.309475362097146 ], [ 70.500751637734652, 29.24094688512929 ], [ 70.459824908434484, 29.210489784254719 ], [ 70.42889191535869, 29.210013892053496 ], [ 70.411759796116655, 29.227621903496697 ], [ 70.42010025808537, 29.241596922864915 ], [ 70.461252585037926, 29.284728967636624 ], [ 70.493613254717161, 29.322324451528743 ], [ 70.507967901268898, 29.343592365741245 ], [ 70.50503466754526, 29.359444043219582 ], [ 70.493613254717161, 29.379431515668671 ], [ 70.498769276522921, 29.403542389710822 ], [ 70.493137362516109, 29.419882352767786 ], [ 70.492423524214246, 29.43618166065761 ], [ 70.5002757455336, 29.452956860748714 ], [ 70.505871016021274, 29.467084467875168 ], [ 70.516841400543854, 29.492685991758776 ], [ 70.515539371169211, 29.501765630594434 ], [ 70.521873227457206, 29.507048177015179 ], [ 70.5180337726311, 29.518182300466492 ], [ 70.501458878823939, 29.523140531803278 ], [ 70.499028358762814, 29.528577244638768 ], [ 70.492780443365177, 29.535286211550556 ], [ 70.486355898649379, 29.554321899597198 ], [ 70.481596976637718, 29.569550450034399 ], [ 70.491914586162693, 29.581386749419778 ], [ 70.498104992098661, 29.592860740400056 ], [ 70.491321637352996, 29.588913101694175 ], [ 70.469699671608566, 29.576212940850837 ], [ 70.458040312679941, 29.573119641543144 ], [ 70.455422905573585, 29.588348191980515 ], [ 70.468271995004955, 29.597152197702144 ], [ 70.46446485739574, 29.600245497009666 ], [ 70.429010888408754, 29.605956203423716 ], [ 70.410451092563335, 29.610715125435377 ], [ 70.386897509714572, 29.606829776562165 ], [ 70.369762309363693, 29.603338796317189 ], [ 70.346730545806054, 29.583462927944367 ], [ 70.329648562573652, 29.565396307695096 ], [ 70.312516443331845, 29.548026242352591 ], [ 70.297859521306066, 29.542658524702858 ], [ 70.280608342857306, 29.536977795452287 ], [ 70.265307648556586, 29.527286427596493 ], [ 70.261310154066848, 29.525953929433172 ], [ 70.25702712425624, 29.525097323470959 ], [ 70.25970191804322, 29.532403117959802 ], [ 70.255789804533265, 29.532521241809206 ], [ 70.247889993993851, 29.532711598689673 ], [ 70.23903839905222, 29.530998386765532 ], [ 70.23294697887718, 29.530332137683843 ], [ 70.229767631181517, 29.528176524162745 ], [ 70.229154960380129, 29.524776078943091 ], [ 70.234923679288897, 29.525321306226374 ], [ 70.24149213496429, 29.528034658525826 ], [ 70.247128566472099, 29.528904461080401 ], [ 70.252268202244579, 29.529761067042386 ], [ 70.252458559125046, 29.526525000074571 ], [ 70.245207527394598, 29.525690389637305 ], [ 70.241988930699506, 29.520148044579003 ], [ 70.241513038498283, 29.514246981284487 ], [ 70.240561254095894, 29.511486806517667 ], [ 70.232375605883988, 29.511040387393621 ], [ 70.231643178367335, 29.512928499161376 ], [ 70.230820903625158, 29.516727808035967 ], [ 70.227331450903534, 29.515008408806409 ], [ 70.224714726418256, 29.515156772838736 ], [ 70.222386780860177, 29.518113502208166 ], [ 70.225929186376845, 29.522182510748792 ], [ 70.221811101369951, 29.522908219345652 ], [ 70.216712727518541, 29.523764863581732 ], [ 70.214168420169699, 29.523110016702219 ], [ 70.209900069759897, 29.523518988410103 ], [ 70.20592169427573, 29.525965309478693 ], [ 70.205725944970595, 29.523955182188274 ], [ 70.20060272702807, 29.524083762421469 ], [ 70.198225177571203, 29.525349034631859 ], [ 70.19706470690943, 29.526334643194105 ], [ 70.200191391969838, 29.52733459818063 ], [ 70.201793318025807, 29.528856512889377 ], [ 70.200005185461464, 29.531269245598821 ], [ 70.198639873243678, 29.532908981624189 ], [ 70.194685245903599, 29.531474278966755 ], [ 70.188022755087161, 29.523098576226118 ], [ 70.186254047571765, 29.519847615056847 ], [ 70.184303776121283, 29.514821989307336 ], [ 70.181605195911004, 29.517426621892866 ], [ 70.179800482809867, 29.517473660281894 ], [ 70.177834876536963, 29.515487858498943 ], [ 70.174317059693578, 29.514722873485653 ], [ 70.171242616465975, 29.513333695427946 ], [ 70.176040323899088, 29.509904762535655 ], [ 70.181100515053856, 29.509075182976801 ], [ 70.187709380373406, 29.513594261524304 ], [ 70.190497394533224, 29.517102334491483 ], [ 70.190424356126982, 29.513354894612917 ], [ 70.185167401880278, 29.507108598266996 ], [ 70.180275628410641, 29.507468684638013 ], [ 70.174294284740483, 29.50601255520462 ], [ 70.170695987217584, 29.505881625070174 ], [ 70.16368679028966, 29.512495394274652 ], [ 70.161560735155945, 29.516584354907309 ], [ 70.17453091869595, 29.517282059020999 ], [ 70.169741582107974, 29.521072727160742 ], [ 70.159628872833196, 29.522857322915115 ], [ 70.153822296288809, 29.519567456997606 ], [ 70.155617346214399, 29.508935336481386 ], [ 70.151895624564247, 29.50441650011993 ], [ 70.143493236119184, 29.514798001214785 ], [ 70.132966680079505, 29.527586999361858 ], [ 70.124747338126156, 29.524469957365056 ], [ 70.109185898976648, 29.513424857928214 ], [ 70.095330815054353, 29.50976040952537 ], [ 70.103555368820707, 29.518059051339492 ], [ 70.110126684102511, 29.52595851869421 ], [ 70.125295853653938, 29.531809423733591 ], [ 70.141764649418008, 29.532076040311665 ], [ 70.165894786815386, 29.52737829882625 ], [ 70.181551813813144, 29.518550778087331 ], [ 70.192346941237815, 29.535271009920336 ], [ 70.215191203621771, 29.534182929000963 ], [ 70.250441646741081, 29.540405307719197 ], [ 70.271349042409156, 29.544981583127253 ], [ 70.305420706106645, 29.568491152262027 ], [ 70.327427212865246, 29.588527202442606 ], [ 70.354504700266148, 29.621802523221049 ], [ 70.404048483208271, 29.663289335668708 ], [ 70.422166838487499, 29.676081542668157 ], [ 70.453808284517208, 29.675145765556692 ], [ 70.484476080358831, 29.678674422255256 ], [ 70.493424011341517, 29.683372400497092 ], [ 70.512202771764635, 29.696175744652294 ], [ 70.526883141136295, 29.749049344809293 ], [ 70.54157288725321, 29.778719240726446 ], [ 70.515909025545625, 29.783819427301751 ], [ 70.516227134769963, 29.799824456423721 ], [ 70.539467890728417, 29.814466719979123 ], [ 70.557985525765673, 29.860034423983677 ], [ 70.534394140208065, 29.905079882310986 ], [ 70.529418629456757, 29.938251111227203 ] ] ] ] } },
{ "type": "Feature", "properties": { "Id": 0 }, "geometry": { "type": "MultiPolygon", "coordinates": [ [ [ [ 69.584740120227877, 28.548589570171828 ], [ 69.594299085758109, 28.551110229208007 ], [ 69.603182285219134, 28.554391219943284 ], [ 69.612511942812432, 28.558927604477788 ], [ 69.615419968890365, 28.556904688010547 ], [ 69.621204533919126, 28.548467512057471 ], [ 69.629622542690242, 28.545875116520278 ], [ 69.633930881908384, 28.546383636002815 ], [ 69.63608297926811, 28.539152370516149 ], [ 69.628327305752407, 28.53625600208909 ], [ 69.639077423693323, 28.528655233034044 ], [ 69.638006666240642, 28.52651371812874 ], [ 69.624884154904635, 28.531279241760615 ], [ 69.613634498116994, 28.534434198378165 ], [ 69.601147584776299, 28.539339761129213 ], [ 69.591053612839119, 28.54478990660283 ], [ 69.58323662643636, 28.548079188744794 ], [ 69.584740120227877, 28.548589570171828 ] ] ] ] } },
{ "type": "Feature", "properties": { "Id": 0 }, "geometry": { "type": "MultiPolygon", "coordinates": [ [ [ [ 69.84678968648285, 28.706301996447223 ], [ 69.848136018492482, 28.704889833422499 ], [ 69.849471277660768, 28.703702396488666 ], [ 69.849516955049012, 28.707424138402075 ], [ 69.850685144492161, 28.704987135230908 ], [ 69.852300924425833, 28.707995209043361 ], [ 69.852725674376416, 28.710243810898476 ], [ 69.855299045293123, 28.710422259269365 ], [ 69.8586540853114, 28.707281370741612 ], [ 69.859130396528542, 28.704633649349773 ], [ 69.861585971097611, 28.706641106368181 ], [ 69.864436175555511, 28.704782936685547 ], [ 69.863865104914225, 28.702355886459657 ], [ 69.862794347461374, 28.700428523044877 ], [ 69.863436801933062, 28.697501786007763 ], [ 69.861081135537233, 28.695360271102459 ], [ 69.856726721896734, 28.695146119611934 ], [ 69.855655964443883, 28.69814424047928 ], [ 69.854690760646292, 28.701424686269831 ], [ 69.85370551667171, 28.705890444731324 ], [ 69.85386669917375, 28.707810506439728 ], [ 69.853184654951065, 28.706095744615652 ], [ 69.85174340768657, 28.704239434642318 ], [ 69.854446878392025, 28.701190220680303 ], [ 69.851444318463678, 28.699714684743128 ], [ 69.850587712501692, 28.69814424047928 ], [ 69.847907145615181, 28.696549978783253 ], [ 69.846090531200559, 28.694575048970535 ], [ 69.846399875482632, 28.696042100634145 ], [ 69.847530847930443, 28.699012430889297 ], [ 69.846926720937404, 28.698313868815717 ], [ 69.844091783955662, 28.698572543460273 ], [ 69.843592097144494, 28.700714058365577 ], [ 69.846284445056369, 28.700991322858158 ], [ 69.847758666714014, 28.702173442529499 ], [ 69.847299030264423, 28.703732048720781 ], [ 69.844948389917647, 28.706353380949395 ], [ 69.84678968648285, 28.706301996447223 ] ] ] ] } },
{ "type": "Feature", "properties": { "Id": 0 }, "geometry": { "type": "MultiPolygon", "coordinates": [ [ [ [ 69.930336019331207, 28.697757441991598 ], [ 69.933045327958951, 28.697183636649356 ], [ 69.93558694038029, 28.696848869521943 ], [ 69.936259001505618, 28.691449508460892 ], [ 69.93637286334291, 28.689089367046506 ], [ 69.936996518235276, 28.686748344604837 ], [ 69.933015655540999, 28.689864124079804 ], [ 69.933465850565938, 28.685827752284979 ], [ 69.932256455236939, 28.684431271643234 ], [ 69.930800262537389, 28.685502509410185 ], [ 69.928910245987709, 28.684981168202114 ], [ 69.92763288799307, 28.687635348866195 ], [ 69.925401028219085, 28.688902552438094 ], [ 69.923982752854045, 28.689187000219192 ], [ 69.9245276271796, 28.691121516747103 ], [ 69.926284829415749, 28.691750525723023 ], [ 69.927328721561082, 28.69392897241471 ], [ 69.928340416788785, 28.69149000222194 ], [ 69.932416233416291, 28.694345251208745 ], [ 69.929812739538704, 28.695373386533333 ], [ 69.930336019331207, 28.697757441991598 ] ] ] ] } },
{ "type": "Feature", "properties": { "Id": 0 }, "geometry": { "type": "MultiPolygon", "coordinates": [ [ [ [ 69.917054631838141, 28.668772828042847 ], [ 69.92843476029617, 28.67900619440087 ], [ 69.925721032608124, 28.673729501674359 ], [ 69.926275643322811, 28.665516671680336 ], [ 69.922705779621595, 28.654582645209473 ], [ 69.917278324245672, 28.640561718821914 ], [ 69.907780277337906, 28.63709417788732 ], [ 69.906121888195287, 28.641617057367171 ], [ 69.907026464091246, 28.652170442820307 ], [ 69.909589429129824, 28.658200948793478 ], [ 69.917054631838141, 28.668772828042847 ] ] ] ] } },
{ "type": "Feature", "properties": { "Id": 0 }, "geometry": { "type": "MultiPolygon", "coordinates": [ [ [ [ 70.048881983894489, 28.667139030564385 ], [ 70.044447539157943, 28.663710981998861 ], [ 70.035760115580786, 28.666544824169705 ], [ 70.025384093107732, 28.664586702599252 ], [ 70.020668357477348, 28.667115332268452 ], [ 70.009981716120421, 28.677079976577772 ], [ 70.002121474035675, 28.678590855681534 ], [ 69.998096473124406, 28.677315856111079 ], [ 69.995686673805949, 28.674299061418083 ], [ 69.992639786323878, 28.67125861595224 ], [ 69.987823751982432, 28.670516991654608 ], [ 69.983677214955094, 28.669124494092557 ], [ 69.979654326421667, 28.665146783476018 ], [ 69.977444078794633, 28.657971129062616 ], [ 69.976406179627304, 28.652978359918507 ], [ 69.973375011029759, 28.652302649028627 ], [ 69.972803979758055, 28.648227996340097 ], [ 69.971459345782364, 28.64164748027008 ], [ 69.970256761756048, 28.637436733643881 ], [ 69.967356760518271, 28.63136128866978 ], [ 69.965257324706783, 28.627229724031963 ], [ 69.960578153875531, 28.623677568750395 ], [ 69.958260222835918, 28.621451874016316 ], [ 69.955298241738376, 28.622016947154236 ], [ 69.952641456363722, 28.618877781809715 ], [ 69.944464834395433, 28.616433052070363 ], [ 69.93857270107992, 28.611596370874167 ], [ 69.937352321302058, 28.60513297510073 ], [ 69.93225461757504, 28.597060690924707 ], [ 69.924678802492735, 28.590133835879442 ], [ 69.923630241617616, 28.588067872277975 ], [ 69.923007000019595, 28.585117142246474 ], [ 69.926623297482308, 28.581537296269119 ], [ 69.931090414714504, 28.5814795215083 ], [ 69.93635927937072, 28.580663460574101 ], [ 69.938588522175849, 28.579395757815007 ], [ 69.939370762636145, 28.57638503471037 ], [ 69.938969355935569, 28.574118189623618 ], [ 69.938689879262483, 28.571968495951126 ], [ 69.936898862065675, 28.569424496036049 ], [ 69.935850186466894, 28.567358619407173 ], [ 69.934907269492328, 28.565747060817841 ], [ 69.932951351739064, 28.563984993741599 ], [ 69.930697704270983, 28.563112483524264 ], [ 69.929180893564933, 28.56283049451082 ], [ 69.928045993683156, 28.562562798051317 ], [ 69.927558404176068, 28.562094166617214 ], [ 69.926523798887501, 28.562393169196184 ], [ 69.924752419255412, 28.562101591450926 ], [ 69.923893766370043, 28.561393856125505 ], [ 69.921523791473703, 28.560291661282008 ], [ 69.919675210958758, 28.559721869077464 ], [ 69.918877638027311, 28.559629423586728 ], [ 69.9182519885685, 28.559380761208445 ], [ 69.917073862329971, 28.56001207282776 ], [ 69.915504214104033, 28.560821378350454 ], [ 69.913477117022865, 28.56055252227668 ], [ 69.913577326199686, 28.561119234178989 ], [ 69.914568609854825, 28.561719422067881 ], [ 69.915056132396444, 28.562188092935855 ], [ 69.914945083234954, 28.56184615319745 ], [ 69.914712154541348, 28.561387045770914 ], [ 69.91559781221531, 28.561532900804366 ], [ 69.916372419531911, 28.561336811234526 ], [ 69.916521372143393, 28.560892045858736 ], [ 69.917241220638346, 28.560892762180686 ], [ 69.918685404704377, 28.560973287115814 ], [ 69.919321886574608, 28.560997175076977 ], [ 69.92045349299616, 28.560797583740452 ], [ 69.92062164157386, 28.560515221034393 ], [ 69.920945248270698, 28.560886416951234 ], [ 69.920992837490701, 28.561286166400293 ], [ 69.920955105522978, 28.561508818433424 ], [ 69.920583570197778, 28.561781094289529 ], [ 69.920928057901051, 28.562070754045408 ], [ 69.921299133764933, 28.562309855728586 ], [ 69.921697157948529, 28.562380718462919 ], [ 69.921792101391475, 28.562666119127471 ], [ 69.921897032673087, 28.562999378324605 ], [ 69.9217596479279, 28.563340442617857 ], [ 69.921954139737068, 28.5635418954339 ], [ 69.922658460194839, 28.563608520341973 ], [ 69.922772674323141, 28.563380092085538 ], [ 69.922629906662848, 28.563037449700687 ], [ 69.922382442718231, 28.562837574976072 ], [ 69.922041290787547, 28.562788056656359 ], [ 69.922173998379265, 28.562680444293221 ], [ 69.922648942350918, 28.562542521811451 ], [ 69.922991584735769, 28.562732878691918 ], [ 69.923436176143014, 28.562952962217537 ], [ 69.923515066156995, 28.562494932591221 ], [ 69.924457332715292, 28.562466379059231 ], [ 69.925875491474812, 28.563027931856595 ], [ 69.927360275142348, 28.563551413277821 ], [ 69.928517382131247, 28.563368593528253 ], [ 69.929858290628374, 28.564657320854337 ], [ 69.931851952307682, 28.565632705019766 ], [ 69.93395137308039, 28.567062386023395 ], [ 69.935641949607827, 28.569039700484382 ], [ 69.936945256463559, 28.571115104863566 ], [ 69.937904423616885, 28.572389488699002 ], [ 69.938205459690664, 28.574089622316535 ], [ 69.938160158125982, 28.57769086106515 ], [ 69.937204165944593, 28.579006199376352 ], [ 69.933972537443594, 28.57989858278188 ], [ 69.932433871631076, 28.580066154753126 ], [ 69.929467641463475, 28.580743179859326 ], [ 69.926431095619705, 28.580418817482894 ], [ 69.92524136511679, 28.581519318198161 ], [ 69.923226333148477, 28.583211338238357 ], [ 69.921993804869203, 28.584966531410998 ], [ 69.921563100107051, 28.58596367715387 ], [ 69.921758197930444, 28.587209490385817 ], [ 69.922695624022424, 28.588933523659136 ], [ 69.923909394731595, 28.590217560662268 ], [ 69.925012095546549, 28.591159651732994 ], [ 69.925732810617433, 28.592087408681095 ], [ 69.926597105640724, 28.592682775931678 ], [ 69.92620968676755, 28.592780837042937 ], [ 69.925589241228522, 28.592419794907528 ], [ 69.925190999039103, 28.592742627844075 ], [ 69.925545948545846, 28.59331889425772 ], [ 69.926312122569243, 28.593742014519933 ], [ 69.926813905783547, 28.593479039740885 ], [ 69.927434362113388, 28.59384007752368 ], [ 69.928404384041585, 28.59488976225532 ], [ 69.926938727960646, 28.596185893227471 ], [ 69.924475958733694, 28.596994234486488 ], [ 69.920384814154488, 28.597178438776552 ], [ 69.917594178462366, 28.596848438219524 ], [ 69.915220722177708, 28.598448083119592 ], [ 69.911313663887142, 28.600102581185297 ], [ 69.908287035592821, 28.602015278672752 ], [ 69.905138392817548, 28.603810713179428 ], [ 69.902680770467271, 28.604506228602133 ], [ 69.899961971390724, 28.606238943722474 ], [ 69.89771100509364, 28.607020935659136 ], [ 69.894654671785986, 28.606905590822123 ], [ 69.893812280559303, 28.605860501092877 ], [ 69.889255130997412, 28.605125428564349 ], [ 69.884636219024173, 28.603036832925 ], [ 69.88170565030066, 28.600336478189263 ], [ 69.880619695137, 28.599056932384315 ], [ 69.880446938483203, 28.597361602305682 ], [ 69.881249151826069, 28.596603859260995 ], [ 69.880003140060865, 28.595993771843268 ], [ 69.879321075964071, 28.594279163680255 ], [ 69.878927584169048, 28.592545967629576 ], [ 69.878413620591743, 28.590775648641284 ], [ 69.878962942960129, 28.588523721797515 ], [ 69.879321318653183, 28.586398152194192 ], [ 69.880980125458507, 28.583758855297049 ], [ 69.882971692759952, 28.582145391768051 ], [ 69.884048298054495, 28.578358160412847 ], [ 69.885921338729588, 28.57392549132561 ], [ 69.890814645830631, 28.567692841756354 ], [ 69.893163692322162, 28.563953517025595 ], [ 69.893061404656351, 28.560797210462511 ], [ 69.893280492956194, 28.558257934535561 ], [ 69.89244126872137, 28.560436053101569 ], [ 69.891094328825091, 28.564550956419737 ], [ 69.888956235726027, 28.569198898975571 ], [ 69.885959484254897, 28.573138825858962 ], [ 69.883648110755701, 28.576091301169242 ], [ 69.883058960203584, 28.580347309560864 ], [ 69.882346029989151, 28.581896557106745 ], [ 69.879961596700468, 28.583720317500308 ], [ 69.878517445932573, 28.58456635002841 ], [ 69.877815335527032, 28.585890802548874 ], [ 69.8770968196186, 28.587552385988602 ], [ 69.877036736429147, 28.588788554703342 ], [ 69.872862477447825, 28.588067498531984 ], [ 69.870708925854785, 28.587518364812695 ], [ 69.867698573336043, 28.589335307433714 ], [ 69.8649481991323, 28.590807125039134 ], [ 69.86280017162386, 28.590387819669672 ], [ 69.860468767875773, 28.58849792023932 ], [ 69.860223810636739, 28.585674009479135 ], [ 69.86321639256056, 28.581847203954794 ], [ 69.865124623362021, 28.579330185614708 ], [ 69.865765179738105, 28.576652457265766 ], [ 69.866306922994056, 28.572706220051259 ], [ 69.865413168126452, 28.57078469546525 ], [ 69.862998573388779, 28.567991041667199 ], [ 69.861023643919395, 28.567490746097576 ], [ 69.858537838166342, 28.56793425322337 ], [ 69.855124100379101, 28.569943626479926 ], [ 69.852181030068266, 28.572758888751082 ], [ 69.850078430081169, 28.574029893689897 ], [ 69.84855085262592, 28.57397175419095 ], [ 69.846259494930507, 28.573884512900861 ], [ 69.844681535716688, 28.572248252649501 ], [ 69.844902203545587, 28.570342751310363 ], [ 69.846124711756886, 28.568813150168808 ], [ 69.847723563046145, 28.567410444070333 ], [ 69.847207870012937, 28.564913986549811 ], [ 69.847124491811542, 28.564010148482453 ], [ 69.844417564106436, 28.561993168284687 ], [ 69.837288125191492, 28.556542672971261 ], [ 69.832566511861671, 28.551408943261492 ], [ 69.828996866154455, 28.548795872114852 ], [ 69.822843640711881, 28.546872034375951 ], [ 69.817603539419963, 28.544532562571419 ], [ 69.816939287770026, 28.542480697248777 ], [ 69.814897004009083, 28.537336418572295 ], [ 69.813624194470037, 28.534698347723634 ], [ 69.811012804085408, 28.533359953442357 ], [ 69.806514995214627, 28.531498882303026 ], [ 69.80047948418661, 28.529803816754622 ], [ 69.796291811766196, 28.529417853291648 ], [ 69.78996894891975, 28.528386767339043 ], [ 69.784968460096195, 28.526393115654059 ], [ 69.783259746015972, 28.522274555601427 ], [ 69.779676596763977, 28.514819057432192 ], [ 69.777984425082082, 28.51295263117936 ], [ 69.773560399739381, 28.509629941958508 ], [ 69.769191606493848, 28.507772746635283 ], [ 69.763799829501295, 28.505988477917811 ], [ 69.760780461080799, 28.505196338689814 ], [ 69.756334139591672, 28.504911805798713 ], [ 69.755959067002493, 28.502195510253955 ], [ 69.75669529193965, 28.500197654760143 ], [ 69.757945805130646, 28.498107108028307 ], [ 69.759394976204248, 28.49714997183969 ], [ 69.760529337332287, 28.494829752652606 ], [ 69.761774136280849, 28.49285151115987 ], [ 69.763301048383767, 28.490321275842916 ], [ 69.762288753917176, 28.488346305005734 ], [ 69.759576168370415, 28.48784661819451 ], [ 69.758717017593028, 28.49025670897322 ], [ 69.759119998731308, 28.492411205939277 ], [ 69.756646978093954, 28.496030533622161 ], [ 69.755191291300775, 28.49968916890208 ], [ 69.753950858538587, 28.504144129487031 ], [ 69.756134513499262, 28.50636754804691 ], [ 69.759789859656053, 28.507184384543109 ], [ 69.762798141261385, 28.508201272052077 ], [ 69.765408192844234, 28.509540441180548 ], [ 69.766714551387906, 28.511331898322112 ], [ 69.770075845011434, 28.510508689503297 ], [ 69.774483639289258, 28.511579339050968 ], [ 69.776236307878207, 28.514799049168687 ], [ 69.782269326929452, 28.524262797855442 ], [ 69.785753697863981, 28.528562308517792 ], [ 69.793514694692476, 28.53145012095888 ], [ 69.800374406006824, 28.531938776218055 ], [ 69.807986631272115, 28.532681091846257 ], [ 69.81351935990341, 28.536833350349525 ], [ 69.814515614449135, 28.539911155175446 ], [ 69.815074974089669, 28.544098030328655 ], [ 69.818970705535207, 28.547849707131832 ], [ 69.824149849446258, 28.548835842909341 ], [ 69.827287379451491, 28.549856388591081 ], [ 69.831974914839293, 28.55307508732335 ], [ 69.831183784100574, 28.55360779438297 ], [ 69.832894048990454, 28.555136638193062 ], [ 69.837687284907815, 28.558809536323452 ], [ 69.842131974125721, 28.561793517344654 ], [ 69.845065962728029, 28.564382100628166 ], [ 69.846134679035288, 28.565998957282432 ], [ 69.844586234717951, 28.568979722925462 ], [ 69.843103181211859, 28.571795142638621 ], [ 69.844615618468538, 28.573596734460864 ], [ 69.845584561743465, 28.574646887809479 ], [ 69.848346701003209, 28.575540146108835 ], [ 69.849381566197053, 28.575241788298172 ], [ 69.851462254918999, 28.574420297238646 ], [ 69.853730532315694, 28.572367484735196 ], [ 69.85478728466353, 28.571619578376328 ], [ 69.855854983873485, 28.570646910749701 ], [ 69.85692814253639, 28.569561856344251 ], [ 69.858372203332635, 28.56871604978403 ], [ 69.861210991191285, 28.568035769822757 ], [ 69.86156002681679, 28.568724527292318 ], [ 69.861914540373789, 28.569300907796162 ], [ 69.862949319768404, 28.569002432932507 ], [ 69.864040257472482, 28.570169680519939 ], [ 69.864118307049409, 28.571185903817309 ], [ 69.863947259622876, 28.573051498049665 ], [ 69.864363400092884, 28.574009820130868 ], [ 69.864984935515793, 28.576960606610783 ], [ 69.861566837647786, 28.581671986950312 ], [ 69.859432523306339, 28.586206867672786 ], [ 69.859793814865498, 28.58926036648694 ], [ 69.860066311132982, 28.593167128268419 ], [ 69.864351291265848, 28.592585819383316 ], [ 69.868870316854782, 28.592691236067196 ], [ 69.869822101257, 28.590906640312824 ], [ 69.870297993458223, 28.590549721162063 ], [ 69.871011831759915, 28.590430748111828 ], [ 69.873793585035287, 28.589904149215442 ], [ 69.87656903032132, 28.59316168751144 ], [ 69.876716056815951, 28.598008442826199 ], [ 69.881176201027245, 28.60335626795063 ], [ 69.888059950673835, 28.606093539080746 ], [ 69.895247829696132, 28.607828681561614 ], [ 69.900198102413583, 28.608353214093881 ], [ 69.906490281945821, 28.60487492956679 ], [ 69.912527385816134, 28.601386718121944 ], [ 69.919964863538723, 28.597950797352553 ], [ 69.926250773491631, 28.599875576712975 ], [ 69.929439317096751, 28.601703292726029 ], [ 69.933994874477548, 28.603318389881565 ], [ 69.935326182816823, 28.610123724774155 ], [ 69.935741370846188, 28.614755516617777 ], [ 69.944112946557993, 28.618446552244393 ], [ 69.954119522470933, 28.622648518717654 ], [ 69.960953148158467, 28.626506386730796 ], [ 69.967238487522081, 28.633833957335128 ], [ 69.967816759671223, 28.643088213368287 ], [ 69.973824013905698, 28.656260168042081 ], [ 69.977281438766568, 28.664045213431791 ], [ 69.981133798386679, 28.668917410300992 ], [ 69.986878021113512, 28.671607850030512 ], [ 69.993308023038878, 28.673310126222532 ], [ 69.997278218639451, 28.678411513495291 ], [ 70.001499305958589, 28.680932368280139 ], [ 70.008530879635146, 28.680742087503575 ], [ 70.011755723630756, 28.679647582429425 ], [ 70.014320518351894, 28.677127633923021 ], [ 70.019557784746667, 28.671690943488841 ], [ 70.02412001356771, 28.667017330713293 ], [ 70.027736564459701, 28.66984801022295 ], [ 70.033609399455429, 28.668830370694366 ], [ 70.040401381183244, 28.668291727829114 ], [ 70.044150453132488, 28.667303322051623 ], [ 70.046129607677983, 28.667586570482911 ], [ 70.048881983894489, 28.667139030564385 ] ] ] ] } },
{ "type": "Feature", "properties": { "Id": 0 }, "geometry": { "type": "MultiPolygon", "coordinates": [ [ [ [ 69.933193916207131, 28.884837832449477 ], [ 69.941759975828234, 28.908632442507781 ], [ 69.941759975828234, 28.897211029679852 ], [ 69.940248913430707, 28.870393804241871 ], [ 69.950688061651761, 28.850294528486472 ], [ 69.955202670829124, 28.836277288288045 ], [ 69.961747448277094, 28.835820935729487 ], [ 69.962162585899875, 28.827192827242072 ], [ 69.963175124880706, 28.81488167887801 ], [ 69.956817710162341, 28.794903777575712 ], [ 69.961271556076099, 28.780141548192944 ], [ 69.968885831294585, 28.781569224796385 ], [ 69.983583208823688, 28.783180100131176 ], [ 69.99981882437055, 28.782996901399827 ], [ 70.007433099589264, 28.782996901399827 ], [ 70.014095590405532, 28.778237979388166 ], [ 70.013619698204366, 28.763485321152132 ], [ 70.019818170628753, 28.744214165693563 ], [ 70.026836996596671, 28.749765377797758 ], [ 70.025454111354406, 28.754668723907855 ], [ 70.025856218013701, 28.762340302639075 ], [ 70.019330404618415, 28.773479057376505 ], [ 70.035576342822537, 28.770242855339632 ], [ 70.048828166934186, 28.768365736808278 ], [ 70.058353565114089, 28.772051380773064 ], [ 70.068823193539629, 28.76681656656018 ], [ 70.073625928670651, 28.746528531271679 ], [ 70.071535060446536, 28.736655630958523 ], [ 70.065967840332632, 28.73064875927156 ], [ 70.065434895096246, 28.738684639179553 ], [ 70.054070535303481, 28.748256770714761 ], [ 70.044938455487227, 28.74254977810773 ], [ 70.034397476106278, 28.722344433556486 ], [ 70.024806816853754, 28.725256466788437 ], [ 70.00602070942108, 28.73615984751774 ], [ 70.008384883991482, 28.750160339519368 ], [ 70.00819301318478, 28.765628228219214 ], [ 69.993156333554111, 28.774430841778894 ], [ 69.976975998714522, 28.763961213353184 ], [ 69.942235868029286, 28.745877309708931 ], [ 69.936049269414184, 28.765388889956796 ], [ 69.939856407023456, 28.781569224796385 ], [ 69.946273132774536, 28.812072811544965 ], [ 69.949185352404413, 28.828507909657276 ], [ 69.933193916207131, 28.849621809563246 ], [ 69.933193916207131, 28.884837832449477 ] ] ] ] } },
{ "type": "Feature", "properties": { "Id": 0 }, "geometry": { "type": "MultiPolygon", "coordinates": [ [ [ [ 70.715810294956839, 30.990592323132489 ], [ 70.724050614765247, 30.98759927041425 ], [ 70.724834161808815, 30.978839162139252 ], [ 70.726481000477463, 30.974162770121779 ], [ 70.730095235902525, 30.966687752978544 ], [ 70.729683216577769, 30.955119587638251 ], [ 70.726284755989241, 30.94926228048746 ], [ 70.712322119396163, 30.940012980250458 ], [ 70.710464682604425, 30.933137352796223 ], [ 70.699757108078188, 30.931709676192838 ], [ 70.69579591875339, 30.9384490436276 ], [ 70.698469729799911, 30.942931186337944 ], [ 70.692484713082649, 30.951066905915923 ], [ 70.685257845257581, 30.949023177824131 ], [ 70.686170174940344, 30.951982319350066 ], [ 70.686257865843402, 30.958743635372684 ], [ 70.687544333792459, 30.967910470554443 ], [ 70.691672314967661, 30.977848108928868 ], [ 70.69912544365252, 30.9865449403718 ], [ 70.715810294956839, 30.990592323132489 ] ] ] ] } },
{ "type": "Feature", "properties": { "Id": 0 }, "geometry": { "type": "MultiPolygon", "coordinates": [ [ [ [ 70.711503397853733, 30.873527073082812 ], [ 70.712626853439872, 30.868833384902473 ], [ 70.713293837241906, 30.86558888746714 ], [ 70.713409154098997, 30.863001939386322 ], [ 70.71988828858548, 30.864117836804155 ], [ 70.724837959942192, 30.864394323665294 ], [ 70.729131268659955, 30.865869799804614 ], [ 70.731346769217737, 30.861906043399415 ], [ 70.73614109522822, 30.862740178104161 ], [ 70.736668366532399, 30.865573672568814 ], [ 70.736820163775576, 30.869940391336399 ], [ 70.740589230008936, 30.872201831076381 ], [ 70.74014988514358, 30.869518388362508 ], [ 70.740891552330424, 30.867515241046021 ], [ 70.739561879074813, 30.865105881255033 ], [ 70.74136653809245, 30.862687192158944 ], [ 70.742480270143574, 30.864075620939047 ], [ 70.746065473949216, 30.862729307965253 ], [ 70.745829575251321, 30.862158319685989 ], [ 70.7445147586904, 30.859411562782327 ], [ 70.745262872138085, 30.854261075806164 ], [ 70.744810584190191, 30.852451924014247 ], [ 70.741584745485909, 30.854809279282051 ], [ 70.740747705913861, 30.856020786058536 ], [ 70.736123905893123, 30.854291314296631 ], [ 70.732312456841271, 30.851912647682411 ], [ 70.731439145886554, 30.848053924916712 ], [ 70.731604436110558, 30.847270876868663 ], [ 70.734558724035764, 30.841295487963691 ], [ 70.731995758997186, 30.841144725314393 ], [ 70.730671298914785, 30.844761900784306 ], [ 70.72551296507595, 30.846421418041075 ], [ 70.72137071788427, 30.845468197587081 ], [ 70.725777536034116, 30.843248469356126 ], [ 70.728550010200308, 30.842551599619469 ], [ 70.727967546656942, 30.838026612309648 ], [ 70.728829743361189, 30.835717269938641 ], [ 70.72280847440436, 30.836616966850102 ], [ 70.718557287860904, 30.838278547838627 ], [ 70.714932339615871, 30.834666533154973 ], [ 70.715589069691362, 30.834575653709692 ], [ 70.720552194332925, 30.834514731366994 ], [ 70.720737530812244, 30.833281791655054 ], [ 70.720646803262696, 30.8294489241012 ], [ 70.715112325427583, 30.827688650762923 ], [ 70.70857547676593, 30.822065052920777 ], [ 70.702295517079222, 30.820037954408235 ], [ 70.708605610048778, 30.827247598190525 ], [ 70.705462288687556, 30.836267249380001 ], [ 70.704715067724578, 30.841311313548317 ], [ 70.700113390819979, 30.833273429848873 ], [ 70.696566536404646, 30.828932950718809 ], [ 70.697355792039048, 30.836560937614763 ], [ 70.698137172864335, 30.842444293773667 ], [ 70.688987376456339, 30.842702699423626 ], [ 70.689631454535515, 30.848682857780943 ], [ 70.688274590691492, 30.856522515546033 ], [ 70.70566638416193, 30.863871291562702 ], [ 70.706503737173932, 30.865588742847365 ], [ 70.708476785701691, 30.873558694920405 ], [ 70.711503397853733, 30.873527073082812 ] ] ] ] } },
{ "type": "Feature", "properties": { "Id": 0 }, "geometry": { "type": "MultiPolygon", "coordinates": [ [ [ [ 70.758569241117186, 30.845680228260278 ], [ 70.761234004766209, 30.853004149324534 ], [ 70.758980603536486, 30.836344132609383 ], [ 70.770276386686078, 30.82882888836275 ], [ 70.770883661386279, 30.829862569157001 ], [ 70.775811391542106, 30.836557152706916 ], [ 70.777365608244452, 30.841546187975382 ], [ 70.783999164814986, 30.841546187975382 ], [ 70.786863655152217, 30.837023308495588 ], [ 70.783094588919028, 30.827676024237121 ], [ 70.769640639114129, 30.82249988635192 ], [ 70.766918381502819, 30.822072875614879 ], [ 70.77269196611519, 30.820740942367991 ], [ 70.784903740710945, 30.820740942367991 ], [ 70.793949499670816, 30.816368825537324 ], [ 70.794544058886913, 30.805175672697317 ], [ 70.787165180450984, 30.804458576240279 ], [ 70.783567876260292, 30.805494307375454 ], [ 70.77344577936185, 30.796920443773786 ], [ 70.772541203465892, 30.8059662027336 ], [ 70.769635935151939, 30.807743024716501 ], [ 70.761234004766209, 30.798126544968511 ], [ 70.757467138254697, 30.79957196449709 ], [ 70.755680643152061, 30.804582432804921 ], [ 70.754676263011049, 30.800719525441878 ], [ 70.748569942222503, 30.796166630527125 ], [ 70.736961218224053, 30.796015867877827 ], [ 70.728066221913707, 30.793302140189894 ], [ 70.720684737416661, 30.784505513184968 ], [ 70.716089638486665, 30.782213272373554 ], [ 70.709974703994021, 30.785311719775507 ], [ 70.715814908733591, 30.788399548976543 ], [ 70.714697689788125, 30.790052202593529 ], [ 70.708704789505816, 30.792782312310123 ], [ 70.710900089067138, 30.799163087373643 ], [ 70.712085381084762, 30.808227642473582 ], [ 70.719774276200553, 30.808227642473582 ], [ 70.716307588637733, 30.800806595344113 ], [ 70.720377326797916, 30.79978493411113 ], [ 70.726526538771111, 30.802834193186413 ], [ 70.735738380149201, 30.804039301948194 ], [ 70.743444012145289, 30.803704762993618 ], [ 70.745102401287966, 30.809282981018896 ], [ 70.744047985089651, 30.816816508741397 ], [ 70.748737313208551, 30.822940914962487 ], [ 70.75642512828199, 30.829163615748257 ], [ 70.757954124535502, 30.838901309205198 ], [ 70.758569241117186, 30.845680228260278 ] ] ] ] } },
{ "type": "Feature", "properties": { "Id": 0 }, "geometry": { "type": "MultiPolygon", "coordinates": [ [ [ [ 70.817197324869852, 31.033342621051748 ], [ 70.842093419736997, 30.979738049632736 ], [ 70.843283150239941, 30.933338560019063 ], [ 70.84216979135698, 30.908101126378387 ], [ 70.833525719121965, 30.917623085633192 ], [ 70.800452852134995, 30.942856404042345 ], [ 70.799130222296995, 30.972043810019855 ], [ 70.809749355054123, 31.001227135835457 ], [ 70.817197324869852, 31.033342621051748 ] ] ], [ [ [ 70.765950667550428, 31.089193255901098 ], [ 70.775468511573763, 31.115367326965224 ], [ 70.799710729041863, 31.083808527931851 ], [ 70.820419743698352, 31.051144801596784 ], [ 70.817273653176883, 31.033356918859521 ], [ 70.801642582637925, 31.054691071316554 ], [ 70.784497425231734, 31.078580052359655 ], [ 70.765950667550428, 31.089193255901098 ] ] ] ] } },
{ "type": "Feature", "properties": { "Id": 0 }, "geometry": { "type": "MultiPolygon", "coordinates": [ [ [ [ 70.802046736068121, 30.809699991540661 ], [ 70.809548341829881, 30.815725768269086 ], [ 70.812225235461497, 30.812454009386034 ], [ 70.812522668087169, 30.796987512848162 ], [ 70.807878084265312, 30.783641774072215 ], [ 70.804018707677756, 30.773378279233668 ], [ 70.803599689315334, 30.757428973626052 ], [ 70.799138199929416, 30.736906122450765 ], [ 70.795569008420671, 30.72292678904148 ], [ 70.787835760151722, 30.706865427252129 ], [ 70.783671703391533, 30.69794244848028 ], [ 70.777552579386011, 30.689383630620529 ], [ 70.775648966554684, 30.682224795381973 ], [ 70.77324483633943, 30.680569384209534 ], [ 70.786348597023036, 30.67474270367325 ], [ 70.797651036800744, 30.66938891641016 ], [ 70.800599248671674, 30.653858847268339 ], [ 70.797948469426501, 30.640537951714446 ], [ 70.784887319031156, 30.640620026375657 ], [ 70.793736716097456, 30.625812079895663 ], [ 70.797777217946489, 30.607693610175318 ], [ 70.799591965110551, 30.598852940238444 ], [ 70.812891045407142, 30.613589061529158 ], [ 70.81253422479746, 30.630925830782889 ], [ 70.814743051812627, 30.640121813660652 ], [ 70.815979226260609, 30.647709302687424 ], [ 70.820730464685155, 30.628148383241079 ], [ 70.823648305692018, 30.611795106539919 ], [ 70.821083732702832, 30.59571603227198 ], [ 70.810452849803895, 30.582531338708026 ], [ 70.812350117812528, 30.562653183071646 ], [ 70.833541240305337, 30.545121565380544 ], [ 70.841981779673048, 30.530258975504413 ], [ 70.853260925120594, 30.537378363303684 ], [ 70.857107275309886, 30.557102899203773 ], [ 70.857930715615112, 30.5769468563335 ], [ 70.868340857515648, 30.59419794862578 ], [ 70.874289510030223, 30.570105905941766 ], [ 70.864936496521295, 30.544396814024203 ], [ 70.858598639654915, 30.518960368342011 ], [ 70.8678372058788, 30.491315479647902 ], [ 70.869804226034262, 30.479615003890018 ], [ 70.874087255844756, 30.468907429363746 ], [ 70.870874983486942, 30.461769046346269 ], [ 70.858269089483088, 30.456200811092053 ], [ 70.845359494885471, 30.453987180320215 ], [ 70.831970796041503, 30.44820611861299 ], [ 70.82233397896772, 30.440353897293786 ], [ 70.809714501639931, 30.430089537036224 ], [ 70.81330670916158, 30.416010749478247 ], [ 70.829347872294875, 30.405597572740234 ], [ 70.8210217226993, 30.399698272580984 ], [ 70.822904909501858, 30.389056515074131 ], [ 70.826335017136799, 30.378689511132961 ], [ 70.832647263822821, 30.367738530241606 ], [ 70.826928039809744, 30.361697703029481 ], [ 70.821620140666028, 30.341844211652209 ], [ 70.813966434039187, 30.321403181436164 ], [ 70.805575420855533, 30.301982890658866 ], [ 70.798694800486558, 30.274612445948577 ], [ 70.797518706245569, 30.271758313867497 ], [ 70.789978502282864, 30.256870852959498 ], [ 70.786187937684261, 30.245370864717636 ], [ 70.780349269344029, 30.233241497718836 ], [ 70.776425592995338, 30.224891289408781 ], [ 70.782653628994979, 30.221825291805089 ], [ 70.790627616324443, 30.223433916323302 ], [ 70.79724057977721, 30.228809899454294 ], [ 70.805281429730385, 30.229649909835537 ], [ 70.811517345812206, 30.232676523588793 ], [ 70.816871133075324, 30.233568821465948 ], [ 70.808245586929161, 30.225538140571125 ], [ 70.799992923531207, 30.219792028502656 ], [ 70.802001628974551, 30.20611274350372 ], [ 70.809159844044146, 30.187190918640628 ], [ 70.813599374192279, 30.166943913302561 ], [ 70.819845459332626, 30.148800523133126 ], [ 70.821035189835527, 30.135713487601077 ], [ 70.817168565701024, 30.117867530057303 ], [ 70.812817488678263, 30.103830598401487 ], [ 70.808245586929175, 30.097939544133471 ], [ 70.80174231104246, 30.102237321216318 ], [ 70.804084093108145, 30.114253658851279 ], [ 70.8031892322918, 30.123221317320439 ], [ 70.804333938954429, 30.135891326386702 ], [ 70.79991747340874, 30.14612362950151 ], [ 70.802379379145123, 30.166695989135125 ], [ 70.798823498295747, 30.183254737628044 ], [ 70.798364457619527, 30.157442298201421 ], [ 70.796943147151453, 30.124708480449069 ], [ 70.798137189919586, 30.095587915374409 ], [ 70.788020168379603, 30.084852508601227 ], [ 70.782666381116485, 30.087529402232779 ], [ 70.783261246367957, 30.113108608045653 ], [ 70.784748409496629, 30.123221317320425 ], [ 70.78831760100536, 30.13422632447238 ], [ 70.791214783405962, 30.14876378948032 ], [ 70.790994494636891, 30.168728509056912 ], [ 70.787425303128146, 30.185979601349185 ], [ 70.780286920110655, 30.196389743249714 ], [ 70.774040834970165, 30.205312722021571 ], [ 70.764820423572587, 30.222266381688264 ], [ 70.770330872572444, 30.230890207318584 ], [ 70.775284682177301, 30.245469692040498 ], [ 70.772851104467463, 30.264531557804393 ], [ 70.777907459104824, 30.275239132330665 ], [ 70.78096903618399, 30.288460868241142 ], [ 70.787458434640101, 30.300611355823687 ], [ 70.78845003050877, 30.316865208980207 ], [ 70.795157875780731, 30.330036378265422 ], [ 70.804989784006068, 30.346124063209999 ], [ 70.816011009659221, 30.35571542254748 ], [ 70.818256022055834, 30.370094394410049 ], [ 70.808039257893881, 30.39331093400931 ], [ 70.798985780140626, 30.413522231886766 ], [ 70.797781485141456, 30.426438361646277 ], [ 70.801226950631076, 30.437026045443879 ], [ 70.81133811048727, 30.449855929144778 ], [ 70.822495518365614, 30.459564451927076 ], [ 70.839499042216914, 30.466417401570407 ], [ 70.84886351435496, 30.481699357700954 ], [ 70.84060625660841, 30.499086926454336 ], [ 70.842128901057649, 30.514604771815371 ], [ 70.8281293968721, 30.52857619114188 ], [ 70.801779834078175, 30.55420132536695 ], [ 70.796456230392636, 30.568915751001697 ], [ 70.791979137093648, 30.584508106976944 ], [ 70.791233717338287, 30.602412461887102 ], [ 70.779319801082963, 30.621852033932129 ], [ 70.775967413044143, 30.642019734821531 ], [ 70.760041643340458, 30.675519838731578 ], [ 70.763802758009049, 30.684879823274038 ], [ 70.75913956089471, 30.702075009133825 ], [ 70.777583155235575, 30.712590130774068 ], [ 70.786147238044506, 30.746438103761324 ], [ 70.798075765760302, 30.793011713799245 ], [ 70.802046736068121, 30.809699991540661 ] ] ] ] } },
{ "type": "Feature", "properties": { "Id": 0 }, "geometry": { "type": "MultiPolygon", "coordinates": [ [ [ [ 70.713499673680872, 30.749461024686639 ], [ 70.709506727947485, 30.767204592591725 ], [ 70.71854867976964, 30.759114425171845 ], [ 70.725038808446413, 30.745111399715711 ], [ 70.734583962120439, 30.741596186466154 ], [ 70.745996520823155, 30.728228748263746 ], [ 70.747374554799478, 30.720614074597904 ], [ 70.758245945416718, 30.728405078556136 ], [ 70.767871642968657, 30.728945156963562 ], [ 70.758742240229822, 30.714115207346993 ], [ 70.754289755091918, 30.696734512548005 ], [ 70.753265506644595, 30.684422499382435 ], [ 70.743871777496963, 30.67870750307759 ], [ 70.741669071065871, 30.687308910558102 ], [ 70.730672018954635, 30.688411656230983 ], [ 70.714741542160368, 30.688206487197931 ], [ 70.693802285308891, 30.683923457387493 ], [ 70.673338920658864, 30.679640427577056 ], [ 70.645261280789896, 30.680116319778222 ], [ 70.615755964317714, 30.679164535375833 ], [ 70.590533677655799, 30.672026152358342 ], [ 70.562456037787058, 30.673929721162949 ], [ 70.538185535527532, 30.67868864317461 ], [ 70.51343914106684, 30.680116319778222 ], [ 70.502493620439907, 30.679640427577056 ], [ 70.489031300172996, 30.697010867210906 ], [ 70.470608842961724, 30.694868978014426 ], [ 70.445862448501202, 30.6705984757549 ], [ 70.419979049167807, 30.641431330378452 ], [ 70.39494198297632, 30.631099423058004 ], [ 70.383856960123808, 30.620442607057726 ], [ 70.36115363669353, 30.615870872620633 ], [ 70.336883134434004, 30.623485147839347 ], [ 70.334027781227007, 30.623961040040513 ], [ 70.327365290410683, 30.636334237270887 ], [ 70.327365290410683, 30.644424404690767 ], [ 70.337834918836222, 30.644424404690767 ], [ 70.346400978457325, 30.642044943684937 ], [ 70.36115363669353, 30.635858345069664 ], [ 70.369719696314462, 30.637761913874328 ], [ 70.37876164813656, 30.640617267081325 ], [ 70.389913711923668, 30.64644793037786 ], [ 70.39534503940547, 30.650019459050668 ], [ 70.406363395804306, 30.662032416133798 ], [ 70.406846553089508, 30.668446667555031 ], [ 70.387849646535017, 30.673403339454467 ], [ 70.382149475485335, 30.67545282692555 ], [ 70.36591255870519, 30.669646691352511 ], [ 70.349845117509687, 30.680717310414707 ], [ 70.366388450906186, 30.692013624807373 ], [ 70.378089901240401, 30.697719349057991 ], [ 70.367816127509798, 30.701531468830694 ], [ 70.343235089079656, 30.698949098240973 ], [ 70.332702883477793, 30.695754791909394 ], [ 70.334503673428173, 30.706766283043578 ], [ 70.356870606882865, 30.721518941279783 ], [ 70.373714737936211, 30.723803351229662 ], [ 70.387327707757663, 30.72104304907856 ], [ 70.400176797189204, 30.717235911469118 ], [ 70.408266964608913, 30.71057342065285 ], [ 70.41148824974249, 30.691473190875286 ], [ 70.405745075177038, 30.680683355219401 ], [ 70.412677562435249, 30.674622040206316 ], [ 70.421314342457606, 30.68445883611372 ], [ 70.433342694438579, 30.695060627183466 ], [ 70.443026924135836, 30.706766283043578 ], [ 70.456411392293603, 30.720150751201345 ], [ 70.473662484585873, 30.72104304907856 ], [ 70.482853550945777, 30.709297277141616 ], [ 70.511733860679158, 30.700222765277545 ], [ 70.538972470890258, 30.693671057773201 ], [ 70.575681875211046, 30.697248439020257 ], [ 70.604316333188763, 30.698381445844973 ], [ 70.629290819989137, 30.696635335701558 ], [ 70.662267730136477, 30.699545309942323 ], [ 70.676214102707547, 30.707956013546493 ], [ 70.700895210333101, 30.707365492020074 ], [ 70.715177776678047, 30.710632907178024 ], [ 70.733538024131065, 30.706191265784184 ], [ 70.749791814191781, 30.701205616044888 ], [ 70.751266774866622, 30.706210402677641 ], [ 70.737485223607678, 30.717176424944057 ], [ 70.725267304578324, 30.72225217722746 ], [ 70.718504296609922, 30.730702447887893 ], [ 70.714764391465735, 30.7356477478329 ], [ 70.713499673680872, 30.749461024686639 ] ] ] ] } },
{ "type": "Feature", "properties": { "Id": 0 }, "geometry": { "type": "MultiPolygon", "coordinates": [ [ [ [ 70.740849099076001, 30.643688059832812 ], [ 70.76440618166157, 30.638263483164394 ], [ 70.792662216651593, 30.575422741150305 ], [ 70.796211394970328, 30.508285174547439 ], [ 70.768706077393858, 30.401390490354174 ], [ 70.741306812932351, 30.314097202613652 ], [ 70.739940034212054, 30.206677937773748 ], [ 70.721880873790781, 30.055385444101262 ], [ 70.676417246127698, 30.05862690497645 ], [ 70.650082088378383, 30.136494498490379 ], [ 70.661879039532835, 30.189602896346912 ], [ 70.700339459039071, 30.268147099507189 ], [ 70.739006671733193, 30.376091291826242 ], [ 70.740206190546189, 30.441128207696238 ], [ 70.726631805874945, 30.504779346743419 ], [ 70.738439421138082, 30.579851295110473 ], [ 70.740849099076001, 30.643688059832812 ] ] ] ] } },
{ "type": "Feature", "properties": { "Id": 0 }, "geometry": { "type": "MultiPolygon", "coordinates": [ [ [ [ 70.145669648005253, 30.565381684403178 ], [ 70.172438584320844, 30.615350365525615 ], [ 70.172438584320844, 30.608211982508124 ], [ 70.173497440942981, 30.538020904665132 ], [ 70.175751602509138, 30.516146813664591 ], [ 70.21141720882099, 30.54730612570836 ], [ 70.237978280935749, 30.552223544737842 ], [ 70.298690761070418, 30.547902861264845 ], [ 70.347534274737086, 30.579504320343176 ], [ 70.368056514381465, 30.574944750441432 ], [ 70.427365026418954, 30.592475533789809 ], [ 70.456189309266449, 30.604642790999378 ], [ 70.418648165452055, 30.542614243994137 ], [ 70.340593941491193, 30.539614376454495 ], [ 70.310743428682429, 30.538090404543198 ], [ 70.253437584949552, 30.547383921815367 ], [ 70.225135889246985, 30.522248955541897 ], [ 70.222223026014433, 30.512682882674881 ], [ 70.197525455350785, 30.496571251274645 ], [ 70.108193137163255, 30.458305939140644 ], [ 70.118814962357931, 30.48181819024262 ], [ 70.129950145601299, 30.516578656934371 ], [ 70.145669648005253, 30.565381684403178 ] ] ] ] } },
{ "type": "Feature", "properties": { "Id": 0 }, "geometry": { "type": "MultiPolygon", "coordinates": [ [ [ [ 70.312613591731107, 30.236319204122822 ], [ 70.315097269686248, 30.194318132282326 ], [ 70.329513951490526, 30.166341100337515 ], [ 70.363283471612093, 30.181393782881287 ], [ 70.396124196375027, 30.183228772710532 ], [ 70.416408386518697, 30.18191342442088 ], [ 70.431428043174563, 30.182660253246102 ], [ 70.442741557886279, 30.139358779529584 ], [ 70.508760525864034, 30.093430465527526 ], [ 70.549211362963334, 30.075584507983589 ], [ 70.581334086542029, 30.048220706416569 ], [ 70.578158550789979, 30.005679619024047 ], [ 70.554824109649942, 29.983378480044657 ], [ 70.537314057934168, 30.00895959982034 ], [ 70.534934596928338, 30.029185018369901 ], [ 70.541021971767933, 30.051731399480943 ], [ 70.509950256366963, 30.044651514907791 ], [ 70.514823487310551, 30.067057947781844 ], [ 70.459981575244512, 30.08510235200691 ], [ 70.449364607197367, 30.122131670823649 ], [ 70.436557060059741, 30.144211708314799 ], [ 70.399162348604364, 30.154166041207386 ], [ 70.377614503971486, 30.157686922512688 ], [ 70.345767446964501, 30.151727260170357 ], [ 70.330500751125044, 30.15916872202526 ], [ 70.298706469412608, 30.157355357751385 ], [ 70.30012325202415, 30.182069104296279 ], [ 70.302404388989544, 30.196791079225353 ], [ 70.312613591731107, 30.236319204122822 ] ] ], [ [ [ 70.24880840857027, 30.294742138849891 ], [ 70.249399276228203, 30.31709980007572 ], [ 70.274383616789578, 30.299253842532003 ], [ 70.298178226847881, 30.284977076497018 ], [ 70.316569192226382, 30.286153547192139 ], [ 70.311757471318231, 30.250957256435019 ], [ 70.308621964588625, 30.235078483750399 ], [ 70.302850814188417, 30.255479951097886 ], [ 70.27468542305327, 30.272032307010146 ], [ 70.24880840857027, 30.294742138849891 ] ] ] ] } },
{ "type": "Feature", "properties": { "Id": 0 }, "geometry": { "type": "MultiPolygon", "coordinates": [ [ [ [ 70.846232540226936, 30.026577525684331 ], [ 70.905719065372693, 30.062269440771786 ], [ 70.888979535740759, 30.019941785486083 ], [ 70.811025750123406, 29.971177594799599 ], [ 70.717824609864067, 29.926945648872106 ], [ 70.711566708189537, 29.855772643712271 ], [ 70.705844340882777, 29.76721627604843 ], [ 70.637845776146492, 29.785879006073117 ], [ 70.667994090068817, 29.844322009994073 ], [ 70.691720362206922, 29.899508723713609 ], [ 70.703766955617027, 29.971096293627227 ], [ 70.773773832115694, 30.016624065723192 ], [ 70.846232540226936, 30.026577525684331 ] ] ] ] } },
{ "type": "Feature", "properties": { "Id": 0 }, "geometry": { "type": "MultiPolygon", "coordinates": [ [ [ [ 70.36415599231384, 31.068181295292845 ], [ 70.379273806705612, 31.050481043110153 ], [ 70.39385501252832, 31.013952209358536 ], [ 70.422656041878554, 30.955852962146196 ], [ 70.444952304666401, 30.925688592885308 ], [ 70.42496483221737, 30.880954725975585 ], [ 70.464939777115433, 30.829558368249707 ], [ 70.480168327552803, 30.777210226121269 ], [ 70.450663011080451, 30.774354872914216 ], [ 70.418046032392567, 30.797794816053056 ], [ 70.398270578088045, 30.851262881675552 ], [ 70.386893456124085, 30.918074317666651 ], [ 70.404639350957325, 30.947328908372299 ], [ 70.392604162538134, 30.975181381806749 ], [ 70.375189433312187, 31.007877878931822 ], [ 70.363882660903528, 31.046887080952388 ], [ 70.346918511226136, 31.082733019270279 ], [ 70.36415599231384, 31.068181295292845 ] ] ] ] } },
{ "type": "Feature", "properties": { "Id": 0 }, "geometry": { "type": "MultiPolygon", "coordinates": [ [ [ [ 70.523494847559448, 30.425757509751094 ], [ 70.532017127839595, 30.433928750074706 ], [ 70.533784180143755, 30.433057783518283 ], [ 70.523494847559448, 30.425757509751094 ] ] ], [ [ [ 70.669548570125698, 30.413228718720145 ], [ 70.642126517709528, 30.416144487928058 ], [ 70.603384791002625, 30.416420166076854 ], [ 70.58408112777613, 30.420836106686995 ], [ 70.556057998344102, 30.428330967357567 ], [ 70.544692703834883, 30.43244812924469 ], [ 70.533559584331613, 30.434361314477492 ], [ 70.538346984115023, 30.437637319672845 ], [ 70.5602056705265, 30.428585013393374 ], [ 70.591360151710148, 30.425491522110612 ], [ 70.607039467240355, 30.422627031773413 ], [ 70.624829459861246, 30.420968642630783 ], [ 70.63643818385971, 30.420968642630783 ], [ 70.643071740430074, 30.423079319721293 ], [ 70.669548570125698, 30.413228718720145 ] ] ], [ [ [ 70.523443390557702, 30.425299652617017 ], [ 70.518745081663624, 30.408693952754334 ], [ 70.509712077681982, 30.415816671914641 ], [ 70.501543659539209, 30.418238062405571 ], [ 70.493710394960218, 30.404902367840236 ], [ 70.483613588800864, 30.397883492666004 ], [ 70.471754394751329, 30.410448550171381 ], [ 70.459082440649979, 30.3838781455358 ], [ 70.453848382498691, 30.401490757942323 ], [ 70.432455177175314, 30.392529705402886 ], [ 70.406389565771633, 30.377302151222068 ], [ 70.387014505230809, 30.366707445374853 ], [ 70.352148368228555, 30.369924825847345 ], [ 70.320620509901289, 30.377658074116447 ], [ 70.303369417608849, 30.370519691098782 ], [ 70.271246694030154, 30.397288627414518 ], [ 70.250527287755929, 30.406739958329766 ], [ 70.235166519333177, 30.39401732067088 ], [ 70.221278012907717, 30.393124570654347 ], [ 70.206009535767876, 30.403195324500484 ], [ 70.222467743410633, 30.405616740934942 ], [ 70.248739293759513, 30.416809716350269 ], [ 70.268867233024309, 30.413944854455362 ], [ 70.281616038046323, 30.405955024860088 ], [ 70.299800226100103, 30.398478357917451 ], [ 70.326496243368183, 30.388427571395852 ], [ 70.362855942754791, 30.387175918139757 ], [ 70.390219744321854, 30.388960513894123 ], [ 70.39934088501775, 30.389104249369218 ], [ 70.41222975862577, 30.400857818923281 ], [ 70.425648103353751, 30.418298731511779 ], [ 70.463388170251278, 30.435954868759296 ], [ 70.469966670905379, 30.429420496548889 ], [ 70.446137077959008, 30.412160258700961 ], [ 70.430294628935258, 30.405059441889069 ], [ 70.436433446554304, 30.40437354532396 ], [ 70.457784217434181, 30.411877021958869 ], [ 70.462583843821847, 30.414859910779896 ], [ 70.47766493628626, 30.42405756373012 ], [ 70.483018723549378, 30.426437024735947 ], [ 70.481417150749337, 30.409432408594611 ], [ 70.482465412677243, 30.409243493102714 ], [ 70.500269815841662, 30.427626755238851 ], [ 70.506578819563799, 30.421790710348493 ], [ 70.523443390557702, 30.425299652617017 ] ] ] ] } },
{ "type": "Feature", "properties": { "Id": 0 }, "geometry": { "type": "MultiPolygon", "coordinates": [ [ [ [ 70.203503877014839, 29.366426157107185 ], [ 70.168812015766946, 29.388362063044042 ], [ 70.12183160026791, 29.432364787038864 ], [ 70.071443791191086, 29.447922696557043 ], [ 70.02693277556881, 29.46071154344861 ], [ 69.988940310404473, 29.440592692190023 ], [ 69.971506428946213, 29.410446185715045 ], [ 69.937799032060582, 29.416248381751018 ], [ 69.897860375003688, 29.402336634402786 ], [ 69.877387084977158, 29.387588895615806 ], [ 69.855507704911815, 29.361667235095524 ], [ 69.837661747368088, 29.352149391072203 ], [ 69.803754428034779, 29.337277759785763 ], [ 69.769847108701697, 29.334303433528476 ], [ 69.786564586080488, 29.351186860076837 ], [ 69.803159562783321, 29.356908313083864 ], [ 69.834528058466105, 29.370845126967993 ], [ 69.844373306834655, 29.382034823503204 ], [ 69.860266626923476, 29.398548880685894 ], [ 69.879302314970118, 29.398548880685894 ], [ 69.915589095309031, 29.418774299235452 ], [ 69.941275657399501, 29.423924225863516 ], [ 69.965557776431638, 29.438404852533722 ], [ 69.976860216209332, 29.447327831305586 ], [ 69.986076469562306, 29.454333532826013 ], [ 70.010285005064418, 29.464365579275238 ], [ 70.025639166828853, 29.474096767621177 ], [ 70.049433776887156, 29.477071093878465 ], [ 70.073823252196917, 29.471122441363889 ], [ 70.083935961471695, 29.466363519352228 ], [ 70.063330474142845, 29.463646179450336 ], [ 70.080961635214408, 29.45863027108328 ], [ 70.089289748734814, 29.45863027108328 ], [ 70.108325436781627, 29.456250810077449 ], [ 70.132408400527538, 29.437144303261505 ], [ 70.15650952214969, 29.42888700851023 ], [ 70.164837635670096, 29.422938355995655 ], [ 70.184468188968197, 29.399143745937351 ], [ 70.203503877014839, 29.366426157107185 ] ] ] ] } },
{ "type": "Feature", "properties": { "Id": 0 }, "geometry": { "type": "MultiPolygon", "coordinates": [ [ [ [ 69.843872140593191, 29.718205672209649 ], [ 69.830263817430819, 29.724597944583991 ], [ 69.8445405834658, 29.722069767265339 ], [ 69.852422548047571, 29.721772334639752 ], [ 69.856140455869195, 29.713592937432054 ], [ 69.856994051916388, 29.708782693010392 ], [ 69.857262945737375, 29.708568003006178 ], [ 69.85495072536628, 29.706305838101855 ], [ 69.859614866010133, 29.702917955769522 ], [ 69.86491471832818, 29.701546916090024 ], [ 69.864766002015358, 29.698572589832736 ], [ 69.860899377880855, 29.690541908938087 ], [ 69.856884037433531, 29.682213795417681 ], [ 69.857776335310689, 29.681618930166223 ], [ 69.861345526819434, 29.685485554300669 ], [ 69.866401881456852, 29.689798327373751 ], [ 69.873094115535764, 29.69232650469246 ], [ 69.880381214866077, 29.693070086256739 ], [ 69.874432562351501, 29.687716298993621 ], [ 69.865063434641229, 29.677901022344599 ], [ 69.863873704138143, 29.673588249271518 ], [ 69.861739129327532, 29.668847421078056 ], [ 69.849746645858147, 29.649811733031243 ], [ 69.846320222009695, 29.634392825713519 ], [ 69.848450719289417, 29.616437787908865 ], [ 69.846507448691113, 29.606151755695691 ], [ 69.848450719289417, 29.603588698477324 ], [ 69.850544644974548, 29.603779055357791 ], [ 69.853870507515978, 29.605762770068338 ], [ 69.858158920193262, 29.607681371407296 ], [ 69.862727485324399, 29.601875486553183 ], [ 69.865678016971685, 29.598258705824207 ], [ 69.874719968793784, 29.597782813623212 ], [ 69.877860857321537, 29.592452820970095 ], [ 69.879002998604449, 29.58893121868141 ], [ 69.886291412603157, 29.583714629956319 ], [ 69.901393230948202, 29.577211900039458 ], [ 69.919972544856194, 29.574765667236989 ], [ 69.930392911956915, 29.578104197916673 ], [ 69.943323370371672, 29.579149464854368 ], [ 69.96123235177015, 29.581633476745822 ], [ 69.974859089503354, 29.583755417805492 ], [ 69.995084508052912, 29.579293928419588 ], [ 70.014835065732598, 29.570826233372031 ], [ 70.028396962134536, 29.565314595010307 ], [ 70.0469865012426, 29.551483977913733 ], [ 70.044458323923891, 29.544791743834878 ], [ 70.031674071514658, 29.550515921675014 ], [ 70.0173919549826, 29.561001821937055 ], [ 70.008915125149315, 29.564868446071728 ], [ 69.997340608303887, 29.572981561109088 ], [ 69.987397496912081, 29.576096037952652 ], [ 69.974295555394235, 29.57796397338052 ], [ 69.963705366038539, 29.576022169536543 ], [ 69.951976476676577, 29.576101889339782 ], [ 69.942141500673188, 29.574832439033628 ], [ 69.937480136562669, 29.57239230177214 ], [ 69.930017219464503, 29.572223277851037 ], [ 69.929210184832868, 29.562622469601649 ], [ 69.927771935658882, 29.558305892617625 ], [ 69.925297296212818, 29.562303387107363 ], [ 69.92396479804961, 29.568394807282402 ], [ 69.92375225889657, 29.571307808088477 ], [ 69.91654087971142, 29.566300881597101 ], [ 69.911401243938769, 29.566300881597101 ], [ 69.892936626533583, 29.573915156815815 ], [ 69.883989853151547, 29.579625863229865 ], [ 69.875553329227955, 29.584650502873274 ], [ 69.873128766414368, 29.589285099339861 ], [ 69.873005904727506, 29.58916775972591 ], [ 69.859243458690798, 29.595235127428055 ], [ 69.853152038515987, 29.59371227238438 ], [ 69.843911334226391, 29.5989581397846 ], [ 69.841730625688001, 29.593141201742924 ], [ 69.834476942503272, 29.589471451724023 ], [ 69.832974209186432, 29.584765499002515 ], [ 69.832071355055632, 29.578570047745245 ], [ 69.832022424784213, 29.57239230177214 ], [ 69.822123866999959, 29.564778026553427 ], [ 69.815080662422702, 29.560209461422289 ], [ 69.82174315323897, 29.558305892617625 ], [ 69.829357428457683, 29.555831253171561 ], [ 69.840207770644156, 29.550881974279434 ], [ 69.852390610994064, 29.542696628419321 ], [ 69.859053101810503, 29.536224494483463 ], [ 69.846679904580185, 29.535082353200607 ], [ 69.824979220206956, 29.54364841282171 ], [ 69.813748164259323, 29.547074836669992 ], [ 69.803659249594546, 29.543838769702177 ], [ 69.798900327582885, 29.537176278885738 ], [ 69.788430699157345, 29.533749855037399 ], [ 69.776247858807494, 29.534320925678855 ], [ 69.771869650556766, 29.526516293579675 ], [ 69.761788027472676, 29.523124838363628 ], [ 69.763684304696653, 29.521186300926558 ], [ 69.773582862480907, 29.517379163317173 ], [ 69.780792789699035, 29.5114912878974 ], [ 69.785004275308893, 29.509384174337697 ], [ 69.776722010847777, 29.508066368587436 ], [ 69.768211608539389, 29.510882927135981 ], [ 69.763684304696653, 29.510145601859392 ], [ 69.758544668924003, 29.513381668827435 ], [ 69.755308601956017, 29.515094880751576 ], [ 69.751501464346802, 29.516808092675888 ], [ 69.748075040498463, 29.519853802763237 ], [ 69.747884683617997, 29.528419862384339 ], [ 69.753617060045201, 29.536760569759906 ], [ 69.764255375338109, 29.540793059614657 ], [ 69.77753883110546, 29.5446849463886 ], [ 69.788430699157345, 29.547836264191915 ], [ 69.808263386235751, 29.560639778402901 ], [ 69.820186716365015, 29.576754785709966 ], [ 69.826669301082575, 29.580948413514818 ], [ 69.821865717314154, 29.586727265150614 ], [ 69.829357428457683, 29.59371227238438 ], [ 69.825597880068472, 29.5967579824719 ], [ 69.828833947036458, 29.600565120081171 ], [ 69.829405017677686, 29.607989038419362 ], [ 69.83187965712375, 29.619029737486528 ], [ 69.832831441526196, 29.629689722792534 ], [ 69.83555579231097, 29.638935554609873 ], [ 69.840826430505842, 29.650438622763545 ], [ 69.844633568115114, 29.660337180547799 ], [ 69.852643267363476, 29.667746683444534 ], [ 69.851296058931382, 29.679372868594442 ], [ 69.854815671257938, 29.688320850301693 ], [ 69.858080297611366, 29.69509018096835 ], [ 69.85940660971221, 29.699419855561416 ], [ 69.852290560614676, 29.702407561610414 ], [ 69.852045778807963, 29.709715710462319 ], [ 69.848640523334268, 29.715774805782587 ], [ 69.843872140593191, 29.718205672209649 ] ] ] ] } },
{ "type": "Feature", "properties": { "Id": 0 }, "geometry": { "type": "MultiPolygon", "coordinates": [ [ [ [ 70.011145186264116, 29.972534200340931 ], [ 70.005977098290714, 29.979269673154192 ], [ 70.019183106873015, 29.973915885891074 ], [ 70.030029340673764, 29.962103017346749 ], [ 70.04309668998178, 29.96499290711921 ], [ 70.055945779413321, 29.967848260326207 ], [ 70.062405506027403, 29.968953278960157 ], [ 70.067724111392067, 29.974629724192937 ], [ 70.067724111392067, 29.982838864662938 ], [ 70.077360928465794, 29.992475681736664 ], [ 70.075014934801402, 29.97809654626343 ], [ 70.085213149785034, 29.970346694382329 ], [ 70.103833922702563, 29.960144148424206 ], [ 70.123959971999, 29.95053290282533 ], [ 70.132683396851348, 29.941436243161377 ], [ 70.117335873363743, 29.943577758066738 ], [ 70.099132996669027, 29.952143817687841 ], [ 70.086552103540328, 29.964453603624179 ], [ 70.074089613130013, 29.96804061266613 ], [ 70.055304535329185, 29.963506819038173 ], [ 70.041740005731526, 29.958041543065065 ], [ 70.033513651532076, 29.957055376860183 ], [ 70.023867904274766, 29.953425309998636 ], [ 70.009903208950391, 29.954642251743905 ], [ 70.006334017441645, 29.956069928347347 ], [ 70.018826187722254, 29.959639119856092 ], [ 70.031280598110072, 29.960348816715225 ], [ 70.027812794432634, 29.962469551411516 ], [ 70.018368242501708, 29.967741553976168 ], [ 70.011145186264116, 29.972534200340931 ] ] ] ] } },
{ "type": "Feature", "properties": { "Id": 0 }, "geometry": { "type": "MultiPolygon", "coordinates": [ [ [ [ 70.184252706405914, 29.932671587913092 ], [ 70.185791430698089, 29.931303631006017 ], [ 70.190733484650991, 29.924818087496703 ], [ 70.184446619092341, 29.93238047597265 ], [ 70.184252706405914, 29.932671587913092 ] ] ], [ [ [ 70.165463608768846, 29.955370366811678 ], [ 70.171648479860039, 29.951054372486396 ], [ 70.177197684541795, 29.943262958397554 ], [ 70.184252706405914, 29.932671587913092 ], [ 70.17574288031409, 29.940236994814541 ], [ 70.168176194315606, 29.947518145492495 ], [ 70.154327731261617, 29.960367234923865 ], [ 70.148617024847567, 29.963650891111911 ], [ 70.165463608768846, 29.955370366811678 ] ] ] ] } },
{ "type": "Feature", "properties": { "Id": 0 }, "geometry": { "type": "MultiPolygon", "coordinates": [ [ [ [ 70.135857492057767, 29.931943640794145 ], [ 70.148499692105986, 29.924528284418273 ], [ 70.15646405662676, 29.914912519830864 ], [ 70.164289155438382, 29.910808735097305 ], [ 70.181453586728196, 29.908685341877288 ], [ 70.195302049782185, 29.899119908633736 ], [ 70.183588003343175, 29.901944947763297 ], [ 70.169124410734412, 29.907045126776666 ], [ 70.159610134694503, 29.908542574216824 ], [ 70.154059928794652, 29.908518091787755 ], [ 70.147781639178504, 29.90738587762462 ], [ 70.138194985642031, 29.905687221009828 ], [ 70.136053470736897, 29.907971503575368 ], [ 70.152333556097062, 29.909467945479093 ], [ 70.156971091975777, 29.912453864325528 ], [ 70.148902560168267, 29.917536936818919 ], [ 70.137481147340338, 29.926959602402007 ], [ 70.124489290248505, 29.935668429683346 ], [ 70.122490543003664, 29.936239500324803 ], [ 70.118635816174162, 29.940236994814541 ], [ 70.135857492057767, 29.931943640794145 ] ] ] ] } },
{ "type": "Feature", "properties": { "Id": 0 }, "geometry": { "type": "MultiPolygon", "coordinates": [ [ [ [ 70.279742379472054, 30.215232492345649 ], [ 70.240687756954401, 30.22113688056578 ], [ 70.201331014792572, 30.230508926773325 ], [ 70.166617976899374, 30.229680646710449 ], [ 70.11249442731804, 30.241280128148219 ], [ 70.124391732347192, 30.252701540976204 ], [ 70.167083330726143, 30.233413808346086 ], [ 70.177691658877848, 30.233189960728339 ], [ 70.198114761910631, 30.232642986772248 ], [ 70.224222038789833, 30.231797535519433 ], [ 70.255737979869252, 30.227955146515455 ], [ 70.279220475190129, 30.226137210268575 ], [ 70.279742379472054, 30.215232492345649 ] ] ] ] } },
{ "type": "Feature", "properties": { "Id": 0 }, "geometry": { "type": "MultiPolygon", "coordinates": [ [ [ [ 70.060146285189774, 30.327892508760499 ], [ 70.067760560408317, 30.314567527127792 ], [ 70.085731131612931, 30.307060151654127 ], [ 70.103928367696938, 30.31885055693823 ], [ 70.13882154510361, 30.325150204115459 ], [ 70.167222030452137, 30.325988939955892 ], [ 70.19186038071615, 30.31821935406424 ], [ 70.220997849184016, 30.302194329897418 ], [ 70.20909158086431, 30.297570120490036 ], [ 70.17504611160399, 30.301158501124632 ], [ 70.122488163542585, 30.308856820713686 ], [ 70.105356044300549, 30.301242545495199 ], [ 70.077278404431809, 30.294580054678704 ], [ 70.054911470976947, 30.296483623483539 ], [ 70.038255243936135, 30.315519311530181 ], [ 70.040158812740742, 30.347879981209417 ], [ 70.060146285189774, 30.327892508760499 ] ] ] ] } },
{ "type": "Feature", "properties": { "Id": 0 }, "geometry": { "type": "MultiPolygon", "coordinates": [ [ [ [ 70.078857176809151, 30.425305857743524 ], [ 70.064580410773999, 30.431777991679326 ], [ 70.082664314418423, 30.427970854070111 ], [ 70.090849660278536, 30.424544430221601 ], [ 70.092372515322211, 30.415788013720203 ], [ 70.089471376149788, 30.406061793435072 ], [ 70.08619645289167, 30.396254941789607 ], [ 70.087042522669094, 30.391231976139977 ], [ 70.088885087849349, 30.386672908912431 ], [ 70.093705013485419, 30.38152377523619 ], [ 70.092372515322211, 30.378668422029136 ], [ 70.08761359331055, 30.381904488997122 ], [ 70.081902886896501, 30.387805552291525 ], [ 70.076382537363088, 30.376193782583073 ], [ 70.068387548383441, 30.364391655994154 ], [ 70.062486485088868, 30.358490592699809 ], [ 70.060011845642805, 30.360965232145873 ], [ 70.060963630045251, 30.367247009201208 ], [ 70.067816477741985, 30.376574496344062 ], [ 70.078598859805652, 30.389775391382273 ], [ 70.08661336705336, 30.403476895516917 ], [ 70.088067491509207, 30.413327705122299 ], [ 70.086138971322669, 30.420686389068578 ], [ 70.078857176809151, 30.425305857743524 ] ] ] ] } },
{ "type": "Feature", "properties": { "Id": 0 }, "geometry": { "type": "MultiPolygon", "coordinates": [ [ [ [ 70.284305392128317, 29.90713380711793 ], [ 70.268971527096198, 29.892091463429438 ], [ 70.254708669970057, 29.874010328157397 ], [ 70.242952318687571, 29.846784271076899 ], [ 70.238121977888568, 29.826114273154587 ], [ 70.23528849540827, 29.816476342795681 ], [ 70.242664824526287, 29.811955366884717 ], [ 70.25229536860104, 29.805003674582053 ], [ 70.275501386406859, 29.80695849877236 ], [ 70.273597817602081, 29.800533954056618 ], [ 70.26180651339115, 29.803206086003627 ], [ 70.243019526710498, 29.804556770310569 ], [ 70.23996404135886, 29.806360932120242 ], [ 70.235526441508796, 29.814096881789851 ], [ 70.229815735094689, 29.821711157008565 ], [ 70.234429339268956, 29.841296101206012 ], [ 70.236716172011711, 29.860972263604765 ], [ 70.254562129555438, 29.887860172970591 ], [ 70.277941602945759, 29.907391419997225 ], [ 70.293823236151638, 29.923790034158742 ], [ 70.284305392128317, 29.90713380711793 ] ] ] ] } },
{ "type": "Feature", "properties": { "Id": 0 }, "geometry": { "type": "MultiPolygon", "coordinates": [ [ [ [ 70.221995239922364, 30.691225695065157 ], [ 70.231126191661417, 30.689128745835433 ], [ 70.246401913310137, 30.691153887650557 ], [ 70.252212112977645, 30.684272501822818 ], [ 70.281957657269345, 30.679804282237171 ], [ 70.272320840195732, 30.67266589921968 ], [ 70.25911483161326, 30.67266589921968 ], [ 70.244481146427518, 30.678019686482799 ], [ 70.230204380392365, 30.683016554594985 ], [ 70.204863120680386, 30.686228826952799 ], [ 70.221995239922364, 30.691225695065157 ] ] ] ] } },
{ "type": "Feature", "properties": { "Id": 0 }, "geometry": { "type": "MultiPolygon", "coordinates": [ [ [ [ 70.235558167655654, 30.645540043753158 ], [ 70.241625793220464, 30.661958324693444 ], [ 70.240015587870062, 30.640808715435924 ], [ 70.243005071521452, 30.622337923296925 ], [ 70.233876318988905, 30.619975992414936 ], [ 70.231843077910639, 30.611005260593743 ], [ 70.229847461241604, 30.602709745648212 ], [ 70.226278269732859, 30.608063532911331 ], [ 70.22556443143111, 30.621269541493632 ], [ 70.228672247723068, 30.625189919269474 ], [ 70.235846073452251, 30.627593083029922 ], [ 70.235558167655654, 30.645540043753158 ] ] ] ] } },
{ "type": "Feature", "properties": { "Id": 0 }, "geometry": { "type": "MultiPolygon", "coordinates": [ [ [ [ 70.246403985801805, 30.61142678219931 ], [ 70.253918078045345, 30.60685955483412 ], [ 70.264988661500638, 30.612106137228782 ], [ 70.274310591021404, 30.607828824349816 ], [ 70.300807543708473, 30.606425927260791 ], [ 70.318006491507759, 30.605208179704285 ], [ 70.306228159528814, 30.598426715837629 ], [ 70.280691916217293, 30.602430399263625 ], [ 70.271963921044801, 30.59842671583759 ], [ 70.265663552486387, 30.606274998159218 ], [ 70.253404125199395, 30.600211311591995 ], [ 70.22985768914846, 30.602700763026995 ], [ 70.240198116616853, 30.607706613760396 ], [ 70.246403985801805, 30.61142678219931 ] ] ] ] } },
{ "type": "Feature", "properties": { "Id": 0 }, "geometry": { "type": "MultiPolygon", "coordinates": [ [ [ [ 70.33153339032765, 30.601002891237158 ], [ 70.333873080287105, 30.603789792646921 ], [ 70.337180801184104, 30.60665965091772 ], [ 70.338968780691687, 30.603409770062115 ], [ 70.344313626952385, 30.603263712380283 ], [ 70.348126321811037, 30.607016570068708 ], [ 70.355145731778066, 30.606897597018417 ], [ 70.352171405520778, 30.601305863654602 ], [ 70.346103779955968, 30.598569483498011 ], [ 70.341463830994542, 30.595833103341249 ], [ 70.338053139495912, 30.600786713221567 ], [ 70.33153339032765, 30.601002891237158 ] ] ] ] } },
{ "type": "Feature", "properties": { "Id": 0 }, "geometry": { "type": "MultiPolygon", "coordinates": [ [ [ [ 70.737178110685591, 30.95278001459468 ], [ 70.73004883860375, 30.943980049650406 ], [ 70.730499909949515, 30.93678582790352 ], [ 70.730688918856913, 30.92079677017523 ], [ 70.736884640203016, 30.91367969608018 ], [ 70.741403560393223, 30.906056399057547 ], [ 70.753584914416308, 30.905331114061426 ], [ 70.760572092484608, 30.912769991945765 ], [ 70.76721880588417, 30.921252156267258 ], [ 70.785064763427897, 30.912924042746852 ], [ 70.799282491669942, 30.905924583918306 ], [ 70.801248691374497, 30.893822531560033 ], [ 70.804436526868528, 30.874663231632269 ], [ 70.807074777731998, 30.865037390004488 ], [ 70.797608208737529, 30.872526312259083 ], [ 70.794785838942062, 30.892260507529556 ], [ 70.782982735047824, 30.902513900846316 ], [ 70.77106832501255, 30.911762455799533 ], [ 70.761752134555422, 30.903797105598755 ], [ 70.749484325718186, 30.9005777764703 ], [ 70.733776244384387, 30.898370158473654 ], [ 70.729873627067946, 30.900944615946798 ], [ 70.728133560152003, 30.907758292440064 ], [ 70.722901344650609, 30.91589836900414 ], [ 70.720521883644778, 30.928093106658991 ], [ 70.726991837328853, 30.936331793031798 ], [ 70.723985814489481, 30.942202279114611 ], [ 70.728955131898772, 30.950927704422611 ], [ 70.747290819960369, 30.967056780629662 ], [ 70.737178110685591, 30.95278001459468 ] ] ] ] } },
{ "type": "Feature", "properties": { "Id": 0 }, "geometry": { "type": "MultiPolygon", "coordinates": [ [ [ [ 70.190280017067153, 30.149079385075311 ], [ 70.176138113630429, 30.143663629245566 ], [ 70.160326888300688, 30.138463494493067 ], [ 70.14606377937281, 30.133431535692182 ], [ 70.148729722025394, 30.13454373420484 ], [ 70.168733427117218, 30.144066309562959 ], [ 70.181142886804764, 30.149269741955607 ], [ 70.190280017067153, 30.149079385075311 ] ] ] ] } },
{ "type": "Feature", "properties": { "Id": 0 }, "geometry": { "type": "MultiPolygon", "coordinates": [ [ [ [ 70.160761392161476, 30.100419115212958 ], [ 70.093055240368699, 30.101537754178764 ], [ 70.133030185266762, 30.104750026536578 ], [ 70.187719888833442, 30.118640534728911 ], [ 70.239081979974571, 30.11454841546913 ], [ 70.250813505055532, 30.093685532859354 ], [ 70.19834638987686, 30.099753158424392 ], [ 70.160761392161476, 30.100419115212958 ] ] ] ] } },
{ "type": "Feature", "properties": { "Id": 0 }, "geometry": { "type": "MultiPolygon", "coordinates": [ [ [ [ 70.263995719027832, 29.956842730413939 ], [ 70.201999022660289, 29.970633420024456 ], [ 70.188936104160121, 30.008104688978108 ], [ 70.132057036371805, 30.05465294973925 ], [ 70.207840439290123, 30.022515854174969 ], [ 70.263995719027832, 29.956842730413939 ] ] ] ] } },
{ "type": "Feature", "properties": { "Id": 0 }, "geometry": { "type": "MultiPolygon", "coordinates": [ [ [ [ 70.009892712478461, 29.734791429349627 ], [ 70.016948180097131, 29.737266068795691 ], [ 70.013902470009782, 29.734791429349627 ], [ 70.013331399368326, 29.734791429349627 ], [ 70.009892712478461, 29.734791429349627 ] ] ], [ [ [ 69.998412699925609, 29.730764922044955 ], [ 69.976243582888003, 29.730373630205861 ], [ 69.96925646173861, 29.733372703014652 ], [ 69.961935041642334, 29.726225369728695 ], [ 69.948329671561964, 29.721089611963862 ], [ 69.945292919701501, 29.71478106009539 ], [ 69.931634739929621, 29.696581461780795 ], [ 69.92862258756071, 29.684917926667424 ], [ 69.925418799474301, 29.694541472455228 ], [ 69.928432230680187, 29.705476469757741 ], [ 69.935155818534838, 29.716306675871181 ], [ 69.943851137998081, 29.722989302760709 ], [ 69.946516134324611, 29.724321800924088 ], [ 69.942137926073769, 29.732126433023041 ], [ 69.938140431584031, 29.74335748897073 ], [ 69.940424714149572, 29.742786418329274 ], [ 69.94539571610278, 29.735838968593953 ], [ 69.952417197619013, 29.730222864218433 ], [ 69.956605048989218, 29.7304132210989 ], [ 69.959650759076737, 29.733458931186419 ], [ 69.965361465490787, 29.737266068795691 ], [ 69.972917024792537, 29.737565396034086 ], [ 69.977491217117915, 29.736388413856218 ], [ 69.985920008581104, 29.734791429349627 ], [ 70.009892712478461, 29.734791429349627 ], [ 69.998412699925609, 29.730764922044955 ] ] ] ] } },
{ "type": "Feature", "properties": { "Id": 0 }, "geometry": { "type": "MultiPolygon", "coordinates": [ [ [ [ 70.783827549712612, 30.078681330598101 ], [ 70.784828934770132, 30.079502079641429 ], [ 70.785346356082698, 30.079518701671191 ], [ 70.78689020659624, 30.078128815091702 ], [ 70.785925495872164, 30.075031160200524 ], [ 70.787889155996993, 30.071489288802582 ], [ 70.792018088872055, 30.068805402783539 ], [ 70.794331962414049, 30.069217539272017 ], [ 70.797652043933965, 30.070337787916628 ], [ 70.798739922405389, 30.070490745262987 ], [ 70.79852333715985, 30.068112594897286 ], [ 70.799596528367374, 30.068135078867158 ], [ 70.804379244989207, 30.070062442281994 ], [ 70.808305355648713, 30.072346724847591 ], [ 70.805021699460724, 30.067992311206922 ], [ 70.801666659442446, 30.065136957999869 ], [ 70.796357110139866, 30.064212975064891 ], [ 70.792333365514367, 30.064422000194895 ], [ 70.787931154100818, 30.064393446652957 ], [ 70.785656048775195, 30.06612286993294 ], [ 70.783328307785894, 30.069089745273345 ], [ 70.782039961913767, 30.071977329933645 ], [ 70.781283270804693, 30.074544030914467 ], [ 70.781173290155039, 30.077131519933062 ], [ 70.781532654677733, 30.077818993796654 ], [ 70.783827549712612, 30.078681330598101 ] ] ] ] } },
{ "type": "Feature", "properties": { "Id": 0 }, "geometry": { "type": "MultiPolygon", "coordinates": [ [ [ [ 70.768100267863716, 30.05260291532058 ], [ 70.768133812194378, 30.051815429201792 ], [ 70.767702807703571, 30.049773789736612 ], [ 70.768967232138621, 30.047448842582696 ], [ 70.77186473461478, 30.046303008755284 ], [ 70.775011228685415, 30.04539042503075 ], [ 70.7782391899906, 30.045606914128705 ], [ 70.780533338611747, 30.046469237428205 ], [ 70.780289369910292, 30.049165078447629 ], [ 70.780798786421428, 30.050265326713451 ], [ 70.78336429367198, 30.049939798336954 ], [ 70.783463782747958, 30.051930949417567 ], [ 70.785367351552622, 30.050217737493202 ], [ 70.787508866457756, 30.047362384286419 ], [ 70.787568663066466, 30.045455959258732 ], [ 70.786652260495771, 30.042175159293553 ], [ 70.783368604307739, 30.039129449206218 ], [ 70.783416193527785, 30.037511415722129 ], [ 70.783892085728965, 30.034132581093854 ], [ 70.78029755773531, 30.036773461506719 ], [ 70.778766726722438, 30.036305822145838 ], [ 70.776767979477555, 30.035677644440273 ], [ 70.7776826247743, 30.034323687456038 ], [ 70.778329101929998, 30.034344471645355 ], [ 70.781690794024826, 30.034452498428475 ], [ 70.783055331970218, 30.032806516861594 ], [ 70.783392398917712, 30.031623042886391 ], [ 70.782535792955557, 30.030538008667644 ], [ 70.780879688095581, 30.02911033206426 ], [ 70.780056929004161, 30.027190179375815 ], [ 70.781416604823917, 30.025656706916777 ], [ 70.781320723857448, 30.024865051670176 ], [ 70.78081313413999, 30.024623440395693 ], [ 70.777427896332227, 30.025077922305229 ], [ 70.776503804234423, 30.025498824255859 ], [ 70.776293012732708, 30.024365512877988 ], [ 70.776350340210243, 30.023015516488293 ], [ 70.777126023487099, 30.023040456518078 ], [ 70.778270552019649, 30.02208819112473 ], [ 70.778484703510188, 30.020624822606145 ], [ 70.778092092444183, 30.020018060049683 ], [ 70.777485329887725, 30.019839600474185 ], [ 70.776914259246283, 30.019839600474203 ], [ 70.776211206340804, 30.020194709382348 ], [ 70.77556482276691, 30.020173923624174 ], [ 70.775579155050195, 30.019836424665431 ], [ 70.776527075441848, 30.018853025249477 ], [ 70.776700107755801, 30.017698085568831 ], [ 70.776727987255939, 30.017169683794648 ], [ 70.772816774285801, 30.016649205370893 ], [ 70.771310628577439, 30.017269782587871 ], [ 70.770570884015854, 30.018886696887932 ], [ 70.771178997136417, 30.019807498585763 ], [ 70.772060158794403, 30.019661140898705 ], [ 70.771774623473675, 30.020517746860889 ], [ 70.771384943785677, 30.021053311228851 ], [ 70.772840653098783, 30.023353226814098 ], [ 70.773166342528157, 30.02482819795398 ], [ 70.77226136720094, 30.02479907201344 ], [ 70.772045843369099, 30.023778257609056 ], [ 70.771590893656551, 30.022299123875335 ], [ 70.770901451401983, 30.023290804461134 ], [ 70.771131312536326, 30.023974122763168 ], [ 70.770968547603971, 30.024757452774345 ], [ 70.771677279034293, 30.026357411773578 ], [ 70.771859319562736, 30.028165719542372 ], [ 70.77201266209039, 30.030649021100498 ], [ 70.771835534715407, 30.031769847980176 ], [ 70.770959206957869, 30.031065714103413 ], [ 70.770239871125014, 30.030582866915623 ], [ 70.770930497887903, 30.031740706809998 ], [ 70.77156047198315, 30.033045609056693 ], [ 70.772060158794375, 30.03525850779204 ], [ 70.770959386014965, 30.037148973551805 ], [ 70.769383265162844, 30.038435088234831 ], [ 70.768655974076808, 30.039553128794534 ], [ 70.768019050603783, 30.039307297372087 ], [ 70.766347733151861, 30.039028116135764 ], [ 70.76499242801583, 30.040448892101775 ], [ 70.763709006936907, 30.040182186688128 ], [ 70.763091276259956, 30.039486342041645 ], [ 70.761870019834376, 30.040798755432284 ], [ 70.759676704057028, 30.040615290553788 ], [ 70.759255203474808, 30.041390241486184 ], [ 70.760174751070224, 30.042004279743555 ], [ 70.762173498315136, 30.042753809960477 ], [ 70.762626642693121, 30.041273783822032 ], [ 70.763287538486367, 30.040957153848915 ], [ 70.763651468464957, 30.041532157448351 ], [ 70.763613107314427, 30.042432137745745 ], [ 70.763642577540168, 30.043410541198075 ], [ 70.764556290566489, 30.042853747322717 ], [ 70.765030654170872, 30.042590519791741 ], [ 70.765533490879477, 30.042944694680628 ], [ 70.76604112393278, 30.043186370104987 ], [ 70.766587874373229, 30.04340181650759 ], [ 70.767195286578541, 30.043448888393165 ], [ 70.767310218159992, 30.043790551074068 ], [ 70.766917508738004, 30.043890542890349 ], [ 70.766021953098985, 30.043636361556704 ], [ 70.764997097738743, 30.043378003843738 ], [ 70.764617680660379, 30.043639762608301 ], [ 70.764046610019093, 30.043963369305065 ], [ 70.76361830703793, 30.044134690497518 ], [ 70.763732521166233, 30.044667689762829 ], [ 70.764427323779842, 30.045057921367764 ], [ 70.7651126085496, 30.045086474899744 ], [ 70.765636089970826, 30.044715278982906 ], [ 70.766483178089061, 30.044582029166527 ], [ 70.76701327248982, 30.044682197714135 ], [ 70.767054248730346, 30.04529586746829 ], [ 70.766092946483994, 30.045143581963877 ], [ 70.765864518227446, 30.045619474165068 ], [ 70.765912107447605, 30.046390419530965 ], [ 70.765569465062768, 30.047589667877968 ], [ 70.765569465062768, 30.048950719573345 ], [ 70.765436215246439, 30.049816843379421 ], [ 70.765442163899024, 30.050186849565822 ], [ 70.765828826312358, 30.050972071697757 ], [ 70.766387999648842, 30.051531245034035 ], [ 70.766447906364476, 30.051873722822922 ], [ 70.766263077945965, 30.052381902343598 ], [ 70.766435588868831, 30.052786410714553 ], [ 70.766733021494602, 30.05310763795049 ], [ 70.766976916247714, 30.053470505753797 ], [ 70.767369527313647, 30.053488351711461 ], [ 70.767815676252283, 30.053434813838802 ], [ 70.768154749445614, 30.05323255965336 ], [ 70.768130954835542, 30.052970818942669 ], [ 70.768100267863716, 30.05260291532058 ] ] ] ] } }
]
}
